{
  "type": "FeatureCollection",
  "metadata": {
    "coordinateSystem": "WGS84",
    "meaning": "原维基点使用建筑名称链接的GeoData/P625，保留原筛查规则。地址补点来自上海图书馆公开目录或独立复核来源；门牌、里弄、校园及建筑群参考点分别标注来源和范围。完整选择、暂停及坐标转换理由见geocoding/results.json。",
    "coverage": {
      "officialRecords": 1058,
      "wikipediaRecords": 1058,
      "matchedRecords": 1058,
      "byBatch": {
        "1": 61,
        "2": 175,
        "3": 162,
        "4": 234,
        "5": 426
      },
      "recordsWithAddress": 1058,
      "addressesFilledFromWikipedia": 1,
      "addressDifferences": 291,
      "recordsWithConstructionDateText": 556,
      "recordsWithFloorsText": 728,
      "recordsWithStructureText": 334,
      "recordsWithDesignerText": 105,
      "recordsWithOriginalNameArticleLinks": 421,
      "uniqueArticleTitles": 410,
      "articlesWithAnySourceCoordinate": 142,
      "recordsWithReferencePoints": 978,
      "referencePointFeatures": 978,
      "wikipediaReferencePointFeatures": 100,
      "addressReferencePointFeatures": 878,
      "recordsWithOnlyCoordinateCandidates": 70,
      "recordsWithoutSourceCoordinates": 10
    }
  },
  "features": [
    {
      "type": "Feature",
      "id": "sh-fgj-1A001-01-reference-1",
      "geometry": {
        "type": "Point",
        "coordinates": [
          121.48680556,
          31.23555556
        ]
      },
      "properties": {
        "officialId": "sh-fgj-1A001-01",
        "wikipediaId": "wiki-heritage-t02-r0052",
        "batch": 1,
        "officialCodeRaw": "1A001",
        "name": "亚西亚大楼",
        "articleTitle": "上海亚细亚大楼",
        "address": "中山东一路1号",
        "addressComparison": "exact",
        "coordinateScope": "linked-building-reference-point",
        "coordinateSystem": "WGS84",
        "precisionDegrees": null,
        "origin": "wikipedia-geodata",
        "sourceUrl": "https://zh.wikipedia.org/wiki/%E4%B8%8A%E6%B5%B7%E4%BA%9A%E7%BB%86%E4%BA%9A%E5%A4%A7%E6%A5%BC",
        "wikipediaUrl": "https://zh.wikipedia.org/wiki/%E4%B8%8A%E6%B5%B7%E4%BA%9A%E7%BB%86%E4%BA%9A%E5%A4%A7%E6%A5%BC",
        "wikidataId": "Q23132",
        "historicalGeometryVerified": false
      }
    },
    {
      "type": "Feature",
      "id": "sh-fgj-1A003-01-reference-1",
      "geometry": {
        "type": "Point",
        "coordinates": [
          121.48555555555555,
          31.238055555555555
        ]
      },
      "properties": {
        "officialId": "sh-fgj-1A003-01",
        "wikipediaId": "wiki-heritage-t02-r0002",
        "batch": 1,
        "officialCodeRaw": "1A003",
        "name": "汇丰银行大楼",
        "articleTitle": "滙豐銀行大樓 (上海)",
        "address": "中山东一路10-12号",
        "addressComparison": "different-as-listed",
        "coordinateScope": "linked-building-reference-point",
        "coordinateSystem": "WGS84",
        "precisionDegrees": 0.0002777777777777778,
        "origin": "wikidata-P625",
        "sourceUrl": "https://www.wikidata.org/wiki/Q213087",
        "wikipediaUrl": "https://zh.wikipedia.org/wiki/%E6%BB%99%E8%B1%90%E9%8A%80%E8%A1%8C%E5%A4%A7%E6%A8%93_(%E4%B8%8A%E6%B5%B7)",
        "wikidataId": "Q213087",
        "historicalGeometryVerified": false
      }
    },
    {
      "type": "Feature",
      "id": "sh-fgj-1A004-01-reference-1",
      "geometry": {
        "type": "Point",
        "coordinates": [
          121.48513611,
          31.23869167
        ]
      },
      "properties": {
        "officialId": "sh-fgj-1A004-01",
        "wikipediaId": "wiki-heritage-t02-r0005",
        "batch": 1,
        "officialCodeRaw": "1A004",
        "name": "江海关",
        "articleTitle": "江海关大楼",
        "address": "中山东一路13号",
        "addressComparison": "exact",
        "coordinateScope": "linked-building-reference-point",
        "coordinateSystem": "WGS84",
        "precisionDegrees": null,
        "origin": "wikipedia-geodata",
        "sourceUrl": "https://zh.wikipedia.org/wiki/%E6%B1%9F%E6%B5%B7%E5%85%B3%E5%A4%A7%E6%A5%BC",
        "wikipediaUrl": "https://zh.wikipedia.org/wiki/%E6%B1%9F%E6%B5%B7%E5%85%B3%E5%A4%A7%E6%A5%BC",
        "wikidataId": "Q5196503",
        "historicalGeometryVerified": false
      }
    },
    {
      "type": "Feature",
      "id": "sh-fgj-1A005-01-reference-1",
      "geometry": {
        "type": "Point",
        "coordinates": [
          121.48472222,
          31.24083333
        ]
      },
      "properties": {
        "officialId": "sh-fgj-1A005-01",
        "wikipediaId": "wiki-heritage-t02-r0008",
        "batch": 1,
        "officialCodeRaw": "1A005",
        "name": "汇中饭店",
        "articleTitle": "汇中饭店大楼",
        "address": "中山东一路19号",
        "addressComparison": "exact",
        "coordinateScope": "linked-building-reference-point",
        "coordinateSystem": "WGS84",
        "precisionDegrees": null,
        "origin": "wikipedia-geodata",
        "sourceUrl": "https://zh.wikipedia.org/wiki/%E6%B1%87%E4%B8%AD%E9%A5%AD%E5%BA%97%E5%A4%A7%E6%A5%BC",
        "wikipediaUrl": "https://zh.wikipedia.org/wiki/%E6%B1%87%E4%B8%AD%E9%A5%AD%E5%BA%97%E5%A4%A7%E6%A5%BC",
        "wikidataId": "Q11133012",
        "historicalGeometryVerified": false
      }
    },
    {
      "type": "Feature",
      "id": "sh-fgj-1A006-01-reference-1",
      "geometry": {
        "type": "Point",
        "coordinates": [
          121.48472222222222,
          31.24111111111111
        ]
      },
      "properties": {
        "officialId": "sh-fgj-1A006-01",
        "wikipediaId": "wiki-heritage-t02-r0003",
        "batch": 1,
        "officialCodeRaw": "1A006",
        "name": "沙逊大厦",
        "articleTitle": "沙逊大厦",
        "address": "中山东一路20号",
        "addressComparison": "exact",
        "coordinateScope": "linked-building-reference-point",
        "coordinateSystem": "WGS84",
        "precisionDegrees": 0.0002777777777777778,
        "origin": "wikidata-P625",
        "sourceUrl": "https://www.wikidata.org/wiki/Q11140758",
        "wikipediaUrl": "https://zh.wikipedia.org/wiki/%E6%B2%99%E9%80%8A%E5%A4%A7%E5%8E%A6",
        "wikidataId": "Q11140758",
        "historicalGeometryVerified": false
      }
    },
    {
      "type": "Feature",
      "id": "sh-fgj-1A007-01-reference-1",
      "geometry": {
        "type": "Point",
        "coordinates": [
          121.485,
          31.24152778
        ]
      },
      "properties": {
        "officialId": "sh-fgj-1A007-01",
        "wikipediaId": "wiki-heritage-t02-r0004",
        "batch": 1,
        "officialCodeRaw": "1A007",
        "name": "中国银行",
        "articleTitle": "中国银行大楼 (上海)",
        "address": "中山东一路23号",
        "addressComparison": "exact",
        "coordinateScope": "linked-building-reference-point",
        "coordinateSystem": "WGS84",
        "precisionDegrees": null,
        "origin": "wikipedia-geodata",
        "sourceUrl": "https://zh.wikipedia.org/wiki/%E4%B8%AD%E5%9B%BD%E9%93%B6%E8%A1%8C%E5%A4%A7%E6%A5%BC_(%E4%B8%8A%E6%B5%B7)",
        "wikipediaUrl": "https://zh.wikipedia.org/wiki/%E4%B8%AD%E5%9B%BD%E9%93%B6%E8%A1%8C%E5%A4%A7%E6%A5%BC_(%E4%B8%8A%E6%B5%B7)",
        "wikidataId": "Q23807",
        "historicalGeometryVerified": false
      }
    },
    {
      "type": "Feature",
      "id": "sh-fgj-1A008-01-reference-1",
      "geometry": {
        "type": "Point",
        "coordinates": [
          121.48541666666667,
          31.2425
        ]
      },
      "properties": {
        "officialId": "sh-fgj-1A008-01",
        "wikipediaId": "wiki-heritage-t02-r0053",
        "batch": 1,
        "officialCodeRaw": "1A008",
        "name": "怡和银行",
        "articleTitle": "怡和洋行大楼 (上海)",
        "address": "中山东一路27号",
        "addressComparison": "exact",
        "coordinateScope": "linked-building-reference-point",
        "coordinateSystem": "WGS84",
        "precisionDegrees": 0.00002777777777777778,
        "origin": "wikidata-P625",
        "sourceUrl": "https://www.wikidata.org/wiki/Q11072666",
        "wikipediaUrl": "https://zh.wikipedia.org/wiki/%E6%80%A1%E5%92%8C%E6%B4%8B%E8%A1%8C%E5%A4%A7%E6%A5%BC_(%E4%B8%8A%E6%B5%B7)",
        "wikidataId": "Q11072666",
        "historicalGeometryVerified": false
      }
    },
    {
      "type": "Feature",
      "id": "sh-fgj-1A009-01-reference-1",
      "geometry": {
        "type": "Point",
        "coordinates": [
          121.4855,
          31.2431
        ]
      },
      "properties": {
        "officialId": "sh-fgj-1A009-01",
        "wikipediaId": "wiki-heritage-t02-r0054",
        "batch": 1,
        "officialCodeRaw": "1A009",
        "name": "东方汇理银行",
        "articleTitle": "上海东方汇理银行大楼",
        "address": "中山东一路29号",
        "addressComparison": "exact",
        "coordinateScope": "linked-building-reference-point",
        "coordinateSystem": "WGS84",
        "precisionDegrees": 0.0001,
        "origin": "wikidata-P625",
        "sourceUrl": "https://www.wikidata.org/wiki/Q10867624",
        "wikipediaUrl": "https://zh.wikipedia.org/wiki/%E4%B8%8A%E6%B5%B7%E4%B8%9C%E6%96%B9%E6%B1%87%E7%90%86%E9%93%B6%E8%A1%8C%E5%A4%A7%E6%A5%BC",
        "wikidataId": "Q10867624",
        "historicalGeometryVerified": false
      }
    },
    {
      "type": "Feature",
      "id": "sh-fgj-1A010-01-reference-1",
      "geometry": {
        "type": "Point",
        "coordinates": [
          121.47444444,
          31.23027778
        ]
      },
      "properties": {
        "officialId": "sh-fgj-1A010-01",
        "wikipediaId": "wiki-heritage-t02-r0024",
        "batch": 1,
        "officialCodeRaw": "1A010",
        "name": "大世界游乐场",
        "articleTitle": "上海大世界",
        "address": "西藏南路1号",
        "addressComparison": "exact",
        "coordinateScope": "linked-building-reference-point",
        "coordinateSystem": "WGS84",
        "precisionDegrees": null,
        "origin": "wikipedia-geodata",
        "sourceUrl": "https://zh.wikipedia.org/wiki/%E4%B8%8A%E6%B5%B7%E5%A4%A7%E4%B8%96%E7%95%8C",
        "wikipediaUrl": "https://zh.wikipedia.org/wiki/%E4%B8%8A%E6%B5%B7%E5%A4%A7%E4%B8%96%E7%95%8C",
        "wikidataId": "Q30991",
        "historicalGeometryVerified": false
      }
    },
    {
      "type": "Feature",
      "id": "sh-fgj-1A011-01-reference-1",
      "geometry": {
        "type": "Point",
        "coordinates": [
          121.47497222,
          31.22930556
        ]
      },
      "properties": {
        "officialId": "sh-fgj-1A011-01",
        "wikipediaId": "wiki-heritage-t02-r0046",
        "batch": 1,
        "officialCodeRaw": "1A011",
        "name": "八仙桥基督教青年会",
        "articleTitle": "八仙桥基督教青年会大楼",
        "address": "西藏南路123号",
        "addressComparison": "exact",
        "coordinateScope": "linked-building-reference-point",
        "coordinateSystem": "WGS84",
        "precisionDegrees": null,
        "origin": "wikipedia-geodata",
        "sourceUrl": "https://zh.wikipedia.org/wiki/%E5%85%AB%E4%BB%99%E6%A1%A5%E5%9F%BA%E7%9D%A3%E6%95%99%E9%9D%92%E5%B9%B4%E4%BC%9A%E5%A4%A7%E6%A5%BC",
        "wikipediaUrl": "https://zh.wikipedia.org/wiki/%E5%85%AB%E4%BB%99%E6%A1%A5%E5%9F%BA%E7%9D%A3%E6%95%99%E9%9D%92%E5%B9%B4%E4%BC%9A%E5%A4%A7%E6%A5%BC",
        "wikidataId": "Q17498747",
        "historicalGeometryVerified": false
      }
    },
    {
      "type": "Feature",
      "id": "sh-fgj-1A012-01-reference-1",
      "geometry": {
        "type": "Point",
        "coordinates": [
          121.47333333,
          31.22888889
        ]
      },
      "properties": {
        "officialId": "sh-fgj-1A012-01",
        "wikipediaId": "wiki-heritage-t02-r0042",
        "batch": 1,
        "officialCodeRaw": "1A012",
        "name": "南京大戏院",
        "articleTitle": "上海音乐厅",
        "address": "延安东路523号",
        "addressComparison": "exact",
        "coordinateScope": "linked-building-reference-point",
        "coordinateSystem": "WGS84",
        "precisionDegrees": null,
        "origin": "wikipedia-geodata",
        "sourceUrl": "https://zh.wikipedia.org/wiki/%E4%B8%8A%E6%B5%B7%E9%9F%B3%E4%B9%90%E5%8E%85",
        "wikipediaUrl": "https://zh.wikipedia.org/wiki/%E4%B8%8A%E6%B5%B7%E9%9F%B3%E4%B9%90%E5%8E%85",
        "wikidataId": "Q220805",
        "historicalGeometryVerified": false
      }
    },
    {
      "type": "Feature",
      "id": "sh-fgj-1A014-01-reference-1",
      "geometry": {
        "type": "Point",
        "coordinates": [
          121.46736,
          31.23571
        ]
      },
      "properties": {
        "officialId": "sh-fgj-1A014-01",
        "wikipediaId": "wiki-heritage-t02-r0055",
        "batch": 1,
        "officialCodeRaw": "1A014",
        "name": "西桥青年会",
        "articleTitle": "上海体育大厦",
        "address": "南京西路150号",
        "addressComparison": "exact",
        "coordinateScope": "linked-building-reference-point",
        "coordinateSystem": "WGS84",
        "precisionDegrees": null,
        "origin": "wikipedia-geodata",
        "sourceUrl": "https://zh.wikipedia.org/wiki/%E4%B8%8A%E6%B5%B7%E4%BD%93%E8%82%B2%E5%A4%A7%E5%8E%A6",
        "wikipediaUrl": "https://zh.wikipedia.org/wiki/%E4%B8%8A%E6%B5%B7%E4%BD%93%E8%82%B2%E5%A4%A7%E5%8E%A6",
        "wikidataId": "Q15910817",
        "historicalGeometryVerified": false
      }
    },
    {
      "type": "Feature",
      "id": "sh-fgj-1A015-01-reference-1",
      "geometry": {
        "type": "Point",
        "coordinates": [
          121.46794,
          31.23627
        ]
      },
      "properties": {
        "officialId": "sh-fgj-1A015-01",
        "wikipediaId": "wiki-heritage-t02-r0013",
        "batch": 1,
        "officialCodeRaw": "1A015",
        "name": "华安人寿保险公司",
        "articleTitle": "华安大楼",
        "address": "南京西路104号",
        "addressComparison": "exact",
        "coordinateScope": "linked-building-reference-point",
        "coordinateSystem": "WGS84",
        "precisionDegrees": null,
        "origin": "wikipedia-geodata",
        "sourceUrl": "https://zh.wikipedia.org/wiki/%E5%8D%8E%E5%AE%89%E5%A4%A7%E6%A5%BC",
        "wikipediaUrl": "https://zh.wikipedia.org/wiki/%E5%8D%8E%E5%AE%89%E5%A4%A7%E6%A5%BC",
        "wikidataId": "Q25112761",
        "historicalGeometryVerified": false
      }
    },
    {
      "type": "Feature",
      "id": "sh-fgj-1A016-01-reference-1",
      "geometry": {
        "type": "Point",
        "coordinates": [
          121.46676111,
          31.2349
        ]
      },
      "properties": {
        "officialId": "sh-fgj-1A016-01",
        "wikipediaId": "wiki-heritage-t02-r0012",
        "batch": 1,
        "officialCodeRaw": "1A016",
        "name": "大光明大戏院",
        "articleTitle": "大光明电影院 (上海)",
        "address": "南京西路216号",
        "addressComparison": "exact",
        "coordinateScope": "linked-building-reference-point",
        "coordinateSystem": "WGS84",
        "precisionDegrees": null,
        "origin": "wikipedia-geodata",
        "sourceUrl": "https://zh.wikipedia.org/wiki/%E5%A4%A7%E5%85%89%E6%98%8E%E7%94%B5%E5%BD%B1%E9%99%A2_(%E4%B8%8A%E6%B5%B7)",
        "wikipediaUrl": "https://zh.wikipedia.org/wiki/%E5%A4%A7%E5%85%89%E6%98%8E%E7%94%B5%E5%BD%B1%E9%99%A2_(%E4%B8%8A%E6%B5%B7)",
        "wikidataId": "Q10933595",
        "historicalGeometryVerified": false
      }
    },
    {
      "type": "Feature",
      "id": "sh-fgj-1A018-01-reference-1",
      "geometry": {
        "type": "Point",
        "coordinates": [
          121.47135,
          31.23529
        ]
      },
      "properties": {
        "officialId": "sh-fgj-1A018-01",
        "wikipediaId": "wiki-heritage-t02-r0062",
        "batch": 1,
        "officialCodeRaw": "1A018",
        "name": "基督教慕尔堂",
        "articleTitle": "慕尔堂",
        "address": "西藏中路316号",
        "addressComparison": "exact",
        "coordinateScope": "linked-building-reference-point",
        "coordinateSystem": "WGS84",
        "precisionDegrees": null,
        "origin": "wikipedia-geodata",
        "sourceUrl": "https://zh.wikipedia.org/wiki/%E6%85%95%E5%B0%94%E5%A0%82",
        "wikipediaUrl": "https://zh.wikipedia.org/wiki/%E6%85%95%E5%B0%94%E5%A0%82",
        "wikidataId": "Q11074115",
        "historicalGeometryVerified": false
      }
    },
    {
      "type": "Feature",
      "id": "sh-fgj-1A023-01-reference-1",
      "geometry": {
        "type": "Point",
        "coordinates": [
          121.4697,
          31.23792
        ]
      },
      "properties": {
        "officialId": "sh-fgj-1A023-01",
        "wikipediaId": "wiki-heritage-t02-r0045",
        "batch": 1,
        "officialCodeRaw": "1A023",
        "name": "大上海大戏院",
        "articleTitle": "大上海电影院",
        "address": "西藏中路520号",
        "addressComparison": "exact",
        "coordinateScope": "linked-building-reference-point",
        "coordinateSystem": "WGS84",
        "precisionDegrees": null,
        "origin": "wikipedia-geodata",
        "sourceUrl": "https://zh.wikipedia.org/wiki/%E5%A4%A7%E4%B8%8A%E6%B5%B7%E7%94%B5%E5%BD%B1%E9%99%A2",
        "wikipediaUrl": "https://zh.wikipedia.org/wiki/%E5%A4%A7%E4%B8%8A%E6%B5%B7%E7%94%B5%E5%BD%B1%E9%99%A2",
        "wikidataId": "Q15913922",
        "historicalGeometryVerified": false
      }
    },
    {
      "type": "Feature",
      "id": "sh-fgj-1A024-01-reference-1",
      "geometry": {
        "type": "Point",
        "coordinates": [
          121.48236111,
          31.23777778
        ]
      },
      "properties": {
        "officialId": "sh-fgj-1A024-01",
        "wikipediaId": "wiki-heritage-t02-r0021",
        "batch": 1,
        "officialCodeRaw": "1A024",
        "name": "公共租界工部局",
        "articleTitle": "上海公共租界工部局大楼",
        "address": "江西中路215、209号；\n汉口路193、223、239号",
        "addressComparison": "different-as-listed",
        "coordinateScope": "linked-building-reference-point",
        "coordinateSystem": "WGS84",
        "precisionDegrees": null,
        "origin": "wikipedia-geodata",
        "sourceUrl": "https://zh.wikipedia.org/wiki/%E4%B8%8A%E6%B5%B7%E5%85%AC%E5%85%B1%E7%A7%9F%E7%95%8C%E5%B7%A5%E9%83%A8%E5%B1%80%E5%A4%A7%E6%A5%BC",
        "wikipediaUrl": "https://zh.wikipedia.org/wiki/%E4%B8%8A%E6%B5%B7%E5%85%AC%E5%85%B1%E7%A7%9F%E7%95%8C%E5%B7%A5%E9%83%A8%E5%B1%80%E5%A4%A7%E6%A5%BC",
        "wikidataId": "Q10867740",
        "historicalGeometryVerified": false
      }
    },
    {
      "type": "Feature",
      "id": "sh-fgj-1A025-01-reference-1",
      "geometry": {
        "type": "Point",
        "coordinates": [
          121.48194444,
          31.23847222
        ]
      },
      "properties": {
        "officialId": "sh-fgj-1A025-01",
        "wikipediaId": "wiki-heritage-t02-r0048",
        "batch": 1,
        "officialCodeRaw": "1A025",
        "name": "圣三一基督教堂",
        "articleTitle": "圣三一堂 (上海)",
        "address": "九江路201号",
        "addressComparison": "different-as-listed",
        "coordinateScope": "linked-building-reference-point",
        "coordinateSystem": "WGS84",
        "precisionDegrees": null,
        "origin": "wikipedia-geodata",
        "sourceUrl": "https://zh.wikipedia.org/wiki/%E5%9C%A3%E4%B8%89%E4%B8%80%E5%A0%82_(%E4%B8%8A%E6%B5%B7)",
        "wikipediaUrl": "https://zh.wikipedia.org/wiki/%E5%9C%A3%E4%B8%89%E4%B8%80%E5%A0%82_(%E4%B8%8A%E6%B5%B7)",
        "wikidataId": "Q10927926",
        "historicalGeometryVerified": false
      }
    },
    {
      "type": "Feature",
      "id": "sh-fgj-1A027-01-reference-1",
      "geometry": {
        "type": "Point",
        "coordinates": [
          121.5001,
          31.2168
        ]
      },
      "properties": {
        "officialId": "sh-fgj-1A027-01",
        "wikipediaId": "wiki-heritage-t02-r0063",
        "batch": 1,
        "officialCodeRaw": "1A027 (1E001)",
        "name": "董家渡天主堂",
        "articleTitle": "董家渡圣方济各沙勿略堂",
        "address": "董家渡路175号",
        "addressComparison": "different-as-listed",
        "coordinateScope": "linked-building-reference-point",
        "coordinateSystem": "WGS84",
        "precisionDegrees": null,
        "origin": "wikipedia-geodata",
        "sourceUrl": "https://zh.wikipedia.org/wiki/%E8%91%A3%E5%AE%B6%E6%B8%A1%E5%9C%A3%E6%96%B9%E6%B5%8E%E5%90%84%E6%B2%99%E5%8B%BF%E7%95%A5%E5%A0%82",
        "wikipediaUrl": "https://zh.wikipedia.org/wiki/%E8%91%A3%E5%AE%B6%E6%B8%A1%E5%9C%A3%E6%96%B9%E6%B5%8E%E5%90%84%E6%B2%99%E5%8B%BF%E7%95%A5%E5%A0%82",
        "wikidataId": "Q3581457",
        "historicalGeometryVerified": false
      }
    },
    {
      "type": "Feature",
      "id": "sh-fgj-1B001-01-reference-1",
      "geometry": {
        "type": "Point",
        "coordinates": [
          121.45142777777778,
          31.231347222222222
        ]
      },
      "properties": {
        "officialId": "sh-fgj-1B001-01",
        "wikipediaId": "wiki-heritage-t02-r0044",
        "batch": 1,
        "officialCodeRaw": "1B001",
        "name": "美琪大戏院",
        "articleTitle": "美琪大戏院",
        "address": "江宁路66号",
        "addressComparison": "different-as-listed",
        "coordinateScope": "linked-building-reference-point",
        "coordinateSystem": "WGS84",
        "precisionDegrees": 0.000002777777777777778,
        "origin": "wikidata-P625",
        "sourceUrl": "https://www.wikidata.org/wiki/Q15918631",
        "wikipediaUrl": "https://zh.wikipedia.org/wiki/%E7%BE%8E%E7%90%AA%E5%A4%A7%E6%88%8F%E9%99%A2",
        "wikidataId": "Q15918631",
        "historicalGeometryVerified": false
      }
    },
    {
      "type": "Feature",
      "id": "sh-fgj-1B005-01-reference-1",
      "geometry": {
        "type": "Point",
        "coordinates": [
          121.43889,
          31.22302
        ]
      },
      "properties": {
        "officialId": "sh-fgj-1B005-01",
        "wikipediaId": "wiki-heritage-t02-r0031",
        "batch": 1,
        "officialCodeRaw": "1B005",
        "name": "嘉道理爵士住宅",
        "articleTitle": "嘉道理爵士公馆",
        "address": "延安西路64号",
        "addressComparison": "exact",
        "coordinateScope": "linked-building-reference-point",
        "coordinateSystem": "WGS84",
        "precisionDegrees": 0.000001,
        "origin": "wikidata-P625",
        "sourceUrl": "https://www.wikidata.org/wiki/Q10924201",
        "wikipediaUrl": "https://zh.wikipedia.org/wiki/%E5%98%89%E9%81%93%E7%90%86%E7%88%B5%E5%A3%AB%E5%85%AC%E9%A6%86",
        "wikidataId": "Q10924201",
        "historicalGeometryVerified": false
      }
    },
    {
      "type": "Feature",
      "id": "sh-fgj-1B007-01-reference-1",
      "geometry": {
        "type": "Point",
        "coordinates": [
          121.45197778,
          31.22497222
        ]
      },
      "properties": {
        "officialId": "sh-fgj-1B007-01",
        "wikipediaId": "wiki-heritage-t02-r0034",
        "batch": 1,
        "officialCodeRaw": "1B007",
        "name": "马勒住宅",
        "articleTitle": "马勒别墅",
        "address": "陕西南路30号",
        "addressComparison": "exact",
        "coordinateScope": "linked-building-reference-point",
        "coordinateSystem": "WGS84",
        "precisionDegrees": null,
        "origin": "wikipedia-geodata",
        "sourceUrl": "https://zh.wikipedia.org/wiki/%E9%A9%AC%E5%8B%92%E5%88%AB%E5%A2%85",
        "wikipediaUrl": "https://zh.wikipedia.org/wiki/%E9%A9%AC%E5%8B%92%E5%88%AB%E5%A2%85",
        "wikidataId": "Q23161",
        "historicalGeometryVerified": false
      }
    },
    {
      "type": "Feature",
      "id": "sh-fgj-1D001-01-reference-1",
      "geometry": {
        "type": "Point",
        "coordinates": [
          121.43138889,
          31.19305556
        ]
      },
      "properties": {
        "officialId": "sh-fgj-1D001-01",
        "wikipediaId": "wiki-heritage-t02-r0028",
        "batch": 1,
        "officialCodeRaw": "1D001",
        "name": "徐家汇天主堂",
        "articleTitle": "徐家汇圣依纳爵主教座堂",
        "address": "徐家汇浦西路158号",
        "addressComparison": "different-as-listed",
        "coordinateScope": "linked-building-reference-point",
        "coordinateSystem": "WGS84",
        "precisionDegrees": null,
        "origin": "wikipedia-geodata",
        "sourceUrl": "https://zh.wikipedia.org/wiki/%E5%BE%90%E5%AE%B6%E6%B1%87%E5%9C%A3%E4%BE%9D%E7%BA%B3%E7%88%B5%E4%B8%BB%E6%95%99%E5%BA%A7%E5%A0%82",
        "wikipediaUrl": "https://zh.wikipedia.org/wiki/%E5%BE%90%E5%AE%B6%E6%B1%87%E5%9C%A3%E4%BE%9D%E7%BA%B3%E7%88%B5%E4%B8%BB%E6%95%99%E5%BA%A7%E5%A0%82",
        "wikidataId": "Q49633",
        "historicalGeometryVerified": false
      }
    },
    {
      "type": "Feature",
      "id": "sh-fgj-1D002-01-reference-1",
      "geometry": {
        "type": "Point",
        "coordinates": [
          121.44362777777778,
          31.208147222222223
        ]
      },
      "properties": {
        "officialId": "sh-fgj-1D002-01",
        "wikipediaId": "wiki-heritage-t02-r0030",
        "batch": 1,
        "officialCodeRaw": "1D002",
        "name": "国际礼拜堂",
        "articleTitle": "上海国际礼拜堂",
        "address": "衡山路58号",
        "addressComparison": "exact",
        "coordinateScope": "linked-building-reference-point",
        "coordinateSystem": "WGS84",
        "precisionDegrees": 0.000002777777777777778,
        "origin": "wikidata-P625",
        "sourceUrl": "https://www.wikidata.org/wiki/Q10867774",
        "wikipediaUrl": "https://zh.wikipedia.org/wiki/%E4%B8%8A%E6%B5%B7%E5%9B%BD%E9%99%85%E7%A4%BC%E6%8B%9C%E5%A0%82",
        "wikidataId": "Q10867774",
        "historicalGeometryVerified": false
      }
    },
    {
      "type": "Feature",
      "id": "sh-fgj-1D003-01-reference-1",
      "geometry": {
        "type": "Point",
        "coordinates": [
          121.449901,
          31.212219
        ]
      },
      "properties": {
        "officialId": "sh-fgj-1D003-01",
        "wikipediaId": "wiki-heritage-t02-r0033",
        "batch": 1,
        "officialCodeRaw": "1D003",
        "name": "汾阳路79号住宅",
        "articleTitle": "上海工艺美术博物馆",
        "address": "汾阳路79号",
        "addressComparison": "exact",
        "coordinateScope": "linked-building-reference-point",
        "coordinateSystem": "WGS84",
        "precisionDegrees": 0.000001,
        "origin": "wikidata-P625",
        "sourceUrl": "https://www.wikidata.org/wiki/Q15912151",
        "wikipediaUrl": "https://zh.wikipedia.org/wiki/%E4%B8%8A%E6%B5%B7%E5%B7%A5%E8%89%BA%E7%BE%8E%E6%9C%AF%E5%8D%9A%E7%89%A9%E9%A6%86",
        "wikidataId": "Q15912151",
        "historicalGeometryVerified": false
      }
    },
    {
      "type": "Feature",
      "id": "sh-fgj-1D005-01-reference-1",
      "geometry": {
        "type": "Point",
        "coordinates": [
          121.45120278,
          31.21505278
        ]
      },
      "properties": {
        "officialId": "sh-fgj-1D005-01",
        "wikipediaId": "wiki-heritage-t02-r0037",
        "batch": 1,
        "officialCodeRaw": "1D005",
        "name": "汾阳路45号",
        "articleTitle": "汾阳路45号住宅",
        "address": "汾阳路45号",
        "addressComparison": "exact",
        "coordinateScope": "linked-building-reference-point",
        "coordinateSystem": "WGS84",
        "precisionDegrees": null,
        "origin": "wikipedia-geodata",
        "sourceUrl": "https://zh.wikipedia.org/wiki/%E6%B1%BE%E9%98%B3%E8%B7%AF45%E5%8F%B7%E4%BD%8F%E5%AE%85",
        "wikipediaUrl": "https://zh.wikipedia.org/wiki/%E6%B1%BE%E9%98%B3%E8%B7%AF45%E5%8F%B7%E4%BD%8F%E5%AE%85",
        "wikidataId": "Q55694138",
        "historicalGeometryVerified": false
      }
    },
    {
      "type": "Feature",
      "id": "sh-fgj-1F001-01-reference-1",
      "geometry": {
        "type": "Point",
        "coordinates": [
          121.48548306,
          31.24633806
        ]
      },
      "properties": {
        "officialId": "sh-fgj-1F001-01",
        "wikipediaId": "wiki-heritage-t02-r0006",
        "batch": 1,
        "officialCodeRaw": "1F001",
        "name": "百老会大厦",
        "articleTitle": "上海大厦",
        "address": "北苏州河路2号",
        "addressComparison": "different-as-listed",
        "coordinateScope": "linked-building-reference-point",
        "coordinateSystem": "WGS84",
        "precisionDegrees": null,
        "origin": "wikipedia-geodata",
        "sourceUrl": "https://zh.wikipedia.org/wiki/%E4%B8%8A%E6%B5%B7%E5%A4%A7%E5%8E%A6",
        "wikipediaUrl": "https://zh.wikipedia.org/wiki/%E4%B8%8A%E6%B5%B7%E5%A4%A7%E5%8E%A6",
        "wikidataId": "Q23804",
        "historicalGeometryVerified": false
      }
    },
    {
      "type": "Feature",
      "id": "sh-fgj-1F003-01-reference-1",
      "geometry": {
        "type": "Point",
        "coordinates": [
          121.48083333,
          31.24638889
        ]
      },
      "properties": {
        "officialId": "sh-fgj-1F003-01",
        "wikipediaId": "wiki-heritage-t02-r0025",
        "batch": 1,
        "officialCodeRaw": "1F003",
        "name": "上海邮政总局",
        "articleTitle": "上海邮政总局",
        "address": "北苏州河路250-276号",
        "addressComparison": "different-as-listed",
        "coordinateScope": "linked-building-reference-point",
        "coordinateSystem": "WGS84",
        "precisionDegrees": null,
        "origin": "wikipedia-geodata",
        "sourceUrl": "https://zh.wikipedia.org/wiki/%E4%B8%8A%E6%B5%B7%E9%82%AE%E6%94%BF%E6%80%BB%E5%B1%80",
        "wikipediaUrl": "https://zh.wikipedia.org/wiki/%E4%B8%8A%E6%B5%B7%E9%82%AE%E6%94%BF%E6%80%BB%E5%B1%80",
        "wikidataId": "Q10868085",
        "historicalGeometryVerified": false
      }
    },
    {
      "type": "Feature",
      "id": "sh-fgj-1G001-01-reference-1",
      "geometry": {
        "type": "Point",
        "coordinates": [
          121.52127778,
          31.31527778
        ]
      },
      "properties": {
        "officialId": "sh-fgj-1G001-01",
        "wikipediaId": "wiki-heritage-t02-r0022",
        "batch": 1,
        "officialCodeRaw": "1G001",
        "name": "旧上海特别市政府",
        "articleTitle": "旧上海特别市政府大楼",
        "address": "清源环路650号",
        "addressComparison": "exact",
        "coordinateScope": "linked-building-reference-point",
        "coordinateSystem": "WGS84",
        "precisionDegrees": null,
        "origin": "wikipedia-geodata",
        "sourceUrl": "https://zh.wikipedia.org/wiki/%E6%97%A7%E4%B8%8A%E6%B5%B7%E7%89%B9%E5%88%AB%E5%B8%82%E6%94%BF%E5%BA%9C%E5%A4%A7%E6%A5%BC",
        "wikipediaUrl": "https://zh.wikipedia.org/wiki/%E6%97%A7%E4%B8%8A%E6%B5%B7%E7%89%B9%E5%88%AB%E5%B8%82%E6%94%BF%E5%BA%9C%E5%A4%A7%E6%A5%BC",
        "wikidataId": "Q10872322",
        "historicalGeometryVerified": false
      }
    },
    {
      "type": "Feature",
      "id": "sh-fgj-1G002-01-reference-1",
      "geometry": {
        "type": "Point",
        "coordinates": [
          121.510556,
          31.308056
        ]
      },
      "properties": {
        "officialId": "sh-fgj-1G002-01",
        "wikipediaId": "wiki-heritage-t02-r0023",
        "batch": 1,
        "officialCodeRaw": "1G002",
        "name": "上海市体育场",
        "articleTitle": "江湾体育中心",
        "address": "国和路346号",
        "addressComparison": "exact",
        "coordinateScope": "building-complex-reference-point",
        "coordinateSystem": "WGS84",
        "precisionDegrees": 0.0001,
        "origin": "wikidata-P625",
        "sourceUrl": "https://www.wikidata.org/wiki/Q7338612",
        "wikipediaUrl": "https://zh.wikipedia.org/wiki/%E6%B1%9F%E6%B9%BE%E4%BD%93%E8%82%B2%E4%B8%AD%E5%BF%83",
        "wikidataId": "Q7338612",
        "historicalGeometryVerified": false
      }
    },
    {
      "type": "Feature",
      "id": "sh-fgj-1G003-01-reference-1",
      "geometry": {
        "type": "Point",
        "coordinates": [
          121.5236,
          31.2539
        ]
      },
      "properties": {
        "officialId": "sh-fgj-1G003-01",
        "wikipediaId": "wiki-heritage-t02-r0027",
        "batch": 1,
        "officialCodeRaw": "1G003",
        "name": "杨树浦水厂",
        "articleTitle": "杨树浦水厂",
        "address": "杨树浦路830号（许昌路口）",
        "addressComparison": "different-as-listed",
        "coordinateScope": "building-complex-reference-point",
        "coordinateSystem": "WGS84",
        "precisionDegrees": 0.0001,
        "origin": "wikidata-P625",
        "sourceUrl": "https://www.wikidata.org/wiki/Q30136",
        "wikipediaUrl": "https://zh.wikipedia.org/wiki/%E6%9D%A8%E6%A0%91%E6%B5%A6%E6%B0%B4%E5%8E%82",
        "wikidataId": "Q30136",
        "historicalGeometryVerified": false
      }
    },
    {
      "type": "Feature",
      "id": "sh-fgj-1M001-01-reference-1",
      "geometry": {
        "type": "Point",
        "coordinates": [
          121.377,
          31.20231389
        ]
      },
      "properties": {
        "officialId": "sh-fgj-1M001-01",
        "wikipediaId": "wiki-heritage-t02-r0038",
        "batch": 1,
        "officialCodeRaw": "1M001",
        "name": "淮阴路姚氏住宅",
        "articleTitle": "淮阴路姚氏住宅",
        "address": "淮阴路200号",
        "addressComparison": "exact",
        "coordinateScope": "linked-building-reference-point",
        "coordinateSystem": "WGS84",
        "precisionDegrees": null,
        "origin": "wikipedia-geodata",
        "sourceUrl": "https://zh.wikipedia.org/wiki/%E6%B7%AE%E9%98%B4%E8%B7%AF%E5%A7%9A%E6%B0%8F%E4%BD%8F%E5%AE%85",
        "wikipediaUrl": "https://zh.wikipedia.org/wiki/%E6%B7%AE%E9%98%B4%E8%B7%AF%E5%A7%9A%E6%B0%8F%E4%BD%8F%E5%AE%85",
        "wikidataId": "Q56272027",
        "historicalGeometryVerified": false
      }
    },
    {
      "type": "Feature",
      "id": "sh-fgj-1M002-01-reference-1",
      "geometry": {
        "type": "Point",
        "coordinates": [
          121.35768889,
          31.19173056
        ]
      },
      "properties": {
        "officialId": "sh-fgj-1M002-01",
        "wikipediaId": "wiki-heritage-t02-r0032",
        "batch": 1,
        "officialCodeRaw": "1M002",
        "name": "沙逊别墅",
        "articleTitle": "沙逊别墅",
        "address": "虹桥路2409号",
        "addressComparison": "exact",
        "coordinateScope": "linked-building-reference-point",
        "coordinateSystem": "WGS84",
        "precisionDegrees": null,
        "origin": "wikipedia-geodata",
        "sourceUrl": "https://zh.wikipedia.org/wiki/%E6%B2%99%E9%80%8A%E5%88%AB%E5%A2%85",
        "wikipediaUrl": "https://zh.wikipedia.org/wiki/%E6%B2%99%E9%80%8A%E5%88%AB%E5%A2%85",
        "wikidataId": "Q11140754",
        "historicalGeometryVerified": false
      }
    },
    {
      "type": "Feature",
      "id": "sh-fgj-1M005-01-reference-1",
      "geometry": {
        "type": "Point",
        "coordinates": [
          121.43056667,
          31.206575
        ]
      },
      "properties": {
        "officialId": "sh-fgj-1M005-01",
        "wikipediaId": "wiki-heritage-t02-r0051",
        "batch": 1,
        "officialCodeRaw": "1M005",
        "name": "泰安路115弄花园里弄住宅",
        "articleTitle": "泰安路115弄",
        "address": "泰安路115弄1-8号",
        "addressComparison": "different-as-listed",
        "coordinateScope": "building-complex-reference-point",
        "coordinateSystem": "WGS84",
        "precisionDegrees": null,
        "origin": "wikipedia-geodata",
        "sourceUrl": "https://zh.wikipedia.org/wiki/%E6%B3%B0%E5%AE%89%E8%B7%AF115%E5%BC%84",
        "wikipediaUrl": "https://zh.wikipedia.org/wiki/%E6%B3%B0%E5%AE%89%E8%B7%AF115%E5%BC%84",
        "wikidataId": "Q19849468",
        "historicalGeometryVerified": false
      }
    },
    {
      "type": "Feature",
      "id": "sh-fgj-1M006-01-reference-1",
      "geometry": {
        "type": "Point",
        "coordinates": [
          121.43062778,
          31.21119722
        ]
      },
      "properties": {
        "officialId": "sh-fgj-1M006-01",
        "wikipediaId": "wiki-heritage-t02-r0059",
        "batch": 1,
        "officialCodeRaw": "1M006",
        "name": "兴国路住宅",
        "articleTitle": "兴国路住宅",
        "address": "兴国路72号",
        "addressComparison": "exact",
        "coordinateScope": "linked-building-reference-point",
        "coordinateSystem": "WGS84",
        "precisionDegrees": null,
        "origin": "wikipedia-geodata",
        "sourceUrl": "https://zh.wikipedia.org/wiki/%E5%85%B4%E5%9B%BD%E8%B7%AF%E4%BD%8F%E5%AE%85",
        "wikipediaUrl": "https://zh.wikipedia.org/wiki/%E5%85%B4%E5%9B%BD%E8%B7%AF%E4%BD%8F%E5%AE%85",
        "wikidataId": "Q56272026",
        "historicalGeometryVerified": false
      }
    },
    {
      "type": "Feature",
      "id": "sh-fgj-1M007-01-reference-1",
      "geometry": {
        "type": "Point",
        "coordinates": [
          121.42251389,
          31.22155278
        ]
      },
      "properties": {
        "officialId": "sh-fgj-1M007-01",
        "wikipediaId": "wiki-heritage-t02-r0036",
        "batch": 1,
        "officialCodeRaw": "1M007",
        "name": "王伯群住宅",
        "articleTitle": "王伯群住宅",
        "address": "愚园路1136弄31号",
        "addressComparison": "exact",
        "coordinateScope": "linked-building-reference-point",
        "coordinateSystem": "WGS84",
        "precisionDegrees": null,
        "origin": "wikipedia-geodata",
        "sourceUrl": "https://zh.wikipedia.org/wiki/%E7%8E%8B%E4%BC%AF%E7%BE%A4%E4%BD%8F%E5%AE%85",
        "wikipediaUrl": "https://zh.wikipedia.org/wiki/%E7%8E%8B%E4%BC%AF%E7%BE%A4%E4%BD%8F%E5%AE%85",
        "wikidataId": "Q15939088",
        "historicalGeometryVerified": false
      }
    },
    {
      "type": "Feature",
      "id": "sh-fgj-2A002-01-reference-1",
      "geometry": {
        "type": "Point",
        "coordinates": [
          121.48638889,
          31.23611111
        ]
      },
      "properties": {
        "officialId": "sh-fgj-2A002-01",
        "wikipediaId": "wiki-heritage-t03-r0043",
        "batch": 2,
        "officialCodeRaw": "2A002",
        "name": "有利银行",
        "articleTitle": "有利大楼",
        "address": "中山东一路3号，广东路17号",
        "addressComparison": "different-as-listed",
        "coordinateScope": "linked-building-reference-point",
        "coordinateSystem": "WGS84",
        "precisionDegrees": null,
        "origin": "wikipedia-geodata",
        "sourceUrl": "https://zh.wikipedia.org/wiki/%E6%9C%89%E5%88%A9%E5%A4%A7%E6%A5%BC",
        "wikipediaUrl": "https://zh.wikipedia.org/wiki/%E6%9C%89%E5%88%A9%E5%A4%A7%E6%A5%BC",
        "wikidataId": "Q23128",
        "historicalGeometryVerified": false
      }
    },
    {
      "type": "Feature",
      "id": "sh-fgj-2A003-01-reference-1",
      "geometry": {
        "type": "Point",
        "coordinates": [
          121.48611111,
          31.23666667
        ]
      },
      "properties": {
        "officialId": "sh-fgj-2A003-01",
        "wikipediaId": "wiki-heritage-t03-r0020",
        "batch": 2,
        "officialCodeRaw": "2A003",
        "name": "中国通商银行",
        "articleTitle": "上海中国通商银行大楼",
        "address": "中山东一路6号",
        "addressComparison": "exact",
        "coordinateScope": "linked-building-reference-point",
        "coordinateSystem": "WGS84",
        "precisionDegrees": null,
        "origin": "wikipedia-geodata",
        "sourceUrl": "https://zh.wikipedia.org/wiki/%E4%B8%8A%E6%B5%B7%E4%B8%AD%E5%9B%BD%E9%80%9A%E5%95%86%E9%93%B6%E8%A1%8C%E5%A4%A7%E6%A5%BC",
        "wikipediaUrl": "https://zh.wikipedia.org/wiki/%E4%B8%8A%E6%B5%B7%E4%B8%AD%E5%9B%BD%E9%80%9A%E5%95%86%E9%93%B6%E8%A1%8C%E5%A4%A7%E6%A5%BC",
        "wikidataId": "Q23149",
        "historicalGeometryVerified": false
      }
    },
    {
      "type": "Feature",
      "id": "sh-fgj-2A005-01-reference-1",
      "geometry": {
        "type": "Point",
        "coordinates": [
          121.4853,
          31.2396
        ]
      },
      "properties": {
        "officialId": "sh-fgj-2A005-01",
        "wikipediaId": "wiki-heritage-t03-r0045",
        "batch": 2,
        "officialCodeRaw": "2A005",
        "name": "华俄道胜银行",
        "articleTitle": "上海华俄道胜银行大楼",
        "address": "中山东一路15号",
        "addressComparison": "exact",
        "coordinateScope": "linked-building-reference-point",
        "coordinateSystem": "WGS84",
        "precisionDegrees": 0.0001,
        "origin": "wikidata-P625",
        "sourceUrl": "https://www.wikidata.org/wiki/Q6125587",
        "wikipediaUrl": "https://zh.wikipedia.org/wiki/%E4%B8%8A%E6%B5%B7%E5%8D%8E%E4%BF%84%E9%81%93%E8%83%9C%E9%93%B6%E8%A1%8C%E5%A4%A7%E6%A5%BC",
        "wikidataId": "Q6125587",
        "historicalGeometryVerified": false
      }
    },
    {
      "type": "Feature",
      "id": "sh-fgj-2A007-01-reference-1",
      "geometry": {
        "type": "Point",
        "coordinates": [
          121.48527778,
          31.24013889
        ]
      },
      "properties": {
        "officialId": "sh-fgj-2A007-01",
        "wikipediaId": "wiki-heritage-t03-r0021",
        "batch": 2,
        "officialCodeRaw": "2A007",
        "name": "字林西报大楼",
        "articleTitle": "字林大楼",
        "address": "中山东一路17号",
        "addressComparison": "exact",
        "coordinateScope": "linked-building-reference-point",
        "coordinateSystem": "WGS84",
        "precisionDegrees": null,
        "origin": "wikipedia-geodata",
        "sourceUrl": "https://zh.wikipedia.org/wiki/%E5%AD%97%E6%9E%97%E5%A4%A7%E6%A5%BC",
        "wikipediaUrl": "https://zh.wikipedia.org/wiki/%E5%AD%97%E6%9E%97%E5%A4%A7%E6%A5%BC",
        "wikidataId": "Q7054807",
        "historicalGeometryVerified": false
      }
    },
    {
      "type": "Feature",
      "id": "sh-fgj-2A008-01-reference-1",
      "geometry": {
        "type": "Point",
        "coordinates": [
          121.48527778,
          31.24036111
        ]
      },
      "properties": {
        "officialId": "sh-fgj-2A008-01",
        "wikipediaId": "wiki-heritage-t03-r0047",
        "batch": 2,
        "officialCodeRaw": "2A008",
        "name": "麦加利银行",
        "articleTitle": "麦加利银行大楼 (上海)",
        "address": "中山东一路18号",
        "addressComparison": "exact",
        "coordinateScope": "linked-building-reference-point",
        "coordinateSystem": "WGS84",
        "precisionDegrees": null,
        "origin": "wikipedia-geodata",
        "sourceUrl": "https://zh.wikipedia.org/wiki/%E9%BA%A6%E5%8A%A0%E5%88%A9%E9%93%B6%E8%A1%8C%E5%A4%A7%E6%A5%BC_(%E4%B8%8A%E6%B5%B7)",
        "wikipediaUrl": "https://zh.wikipedia.org/wiki/%E9%BA%A6%E5%8A%A0%E5%88%A9%E9%93%B6%E8%A1%8C%E5%A4%A7%E6%A5%BC_(%E4%B8%8A%E6%B5%B7)",
        "wikidataId": "Q11175428",
        "historicalGeometryVerified": false
      }
    },
    {
      "type": "Feature",
      "id": "sh-fgj-2A009-01-reference-1",
      "geometry": {
        "type": "Point",
        "coordinates": [
          121.485,
          31.241944444444446
        ]
      },
      "properties": {
        "officialId": "sh-fgj-2A009-01",
        "wikipediaId": "wiki-heritage-t03-r0051",
        "batch": 2,
        "officialCodeRaw": "2A009",
        "name": "横滨正金银行",
        "articleTitle": "横滨正金银行大楼 (上海)",
        "address": "中山东一路24号",
        "addressComparison": "exact",
        "coordinateScope": "linked-building-reference-point",
        "coordinateSystem": "WGS84",
        "precisionDegrees": 0.0002777777777777778,
        "origin": "wikidata-P625",
        "sourceUrl": "https://www.wikidata.org/wiki/Q6123444",
        "wikipediaUrl": "https://zh.wikipedia.org/wiki/%E6%A8%AA%E6%BB%A8%E6%AD%A3%E9%87%91%E9%93%B6%E8%A1%8C%E5%A4%A7%E6%A5%BC_(%E4%B8%8A%E6%B5%B7)",
        "wikidataId": "Q6123444",
        "historicalGeometryVerified": false
      }
    },
    {
      "type": "Feature",
      "id": "sh-fgj-2A010-01-reference-1",
      "geometry": {
        "type": "Point",
        "coordinates": [
          121.48416667,
          31.24430556
        ]
      },
      "properties": {
        "officialId": "sh-fgj-2A010-01",
        "wikipediaId": "wiki-heritage-t03-r0040",
        "batch": 2,
        "officialCodeRaw": "2A010",
        "name": "英国领事馆",
        "articleTitle": "原英国驻上海总领事馆",
        "address": "中山东一路33号1号楼2号楼",
        "addressComparison": "different-as-listed",
        "coordinateScope": "building-complex-reference-point",
        "coordinateSystem": "WGS84",
        "precisionDegrees": null,
        "origin": "wikipedia-geodata",
        "sourceUrl": "https://zh.wikipedia.org/wiki/%E5%8E%9F%E8%8B%B1%E5%9B%BD%E9%A9%BB%E4%B8%8A%E6%B5%B7%E6%80%BB%E9%A2%86%E4%BA%8B%E9%A6%86",
        "wikipediaUrl": "https://zh.wikipedia.org/wiki/%E5%8E%9F%E8%8B%B1%E5%9B%BD%E9%A9%BB%E4%B8%8A%E6%B5%B7%E6%80%BB%E9%A2%86%E4%BA%8B%E9%A6%86",
        "wikidataId": "Q5470093",
        "historicalGeometryVerified": false
      }
    },
    {
      "type": "Feature",
      "id": "sh-fgj-2A011-01-reference-1",
      "geometry": {
        "type": "Point",
        "coordinates": [
          121.4877,
          31.2352
        ]
      },
      "properties": {
        "officialId": "sh-fgj-2A011-01",
        "wikipediaId": "wiki-heritage-t03-r0165",
        "batch": 2,
        "officialCodeRaw": "2A011",
        "name": "外滩信号台",
        "articleTitle": "外滩信号台",
        "address": "中山东二路",
        "addressComparison": "different-as-listed",
        "coordinateScope": "linked-building-reference-point",
        "coordinateSystem": "WGS84",
        "precisionDegrees": null,
        "origin": "wikipedia-geodata",
        "sourceUrl": "https://zh.wikipedia.org/wiki/%E5%A4%96%E6%BB%A9%E4%BF%A1%E5%8F%B7%E5%8F%B0",
        "wikipediaUrl": "https://zh.wikipedia.org/wiki/%E5%A4%96%E6%BB%A9%E4%BF%A1%E5%8F%B7%E5%8F%B0",
        "wikidataId": "Q10932356",
        "historicalGeometryVerified": false
      }
    },
    {
      "type": "Feature",
      "id": "sh-fgj-2A012-01-reference-1",
      "geometry": {
        "type": "Point",
        "coordinates": [
          121.4857,
          31.2453
        ]
      },
      "properties": {
        "officialId": "sh-fgj-2A012-01",
        "wikipediaId": "wiki-heritage-t03-r0164",
        "batch": 2,
        "officialCodeRaw": "2A012",
        "name": "外白渡桥",
        "articleTitle": "外白渡桥",
        "address": "外滩",
        "addressComparison": "different-as-listed",
        "coordinateScope": "linked-building-reference-point",
        "coordinateSystem": "WGS84",
        "precisionDegrees": null,
        "origin": "wikipedia-geodata",
        "sourceUrl": "https://zh.wikipedia.org/wiki/%E5%A4%96%E7%99%BD%E6%B8%A1%E6%A1%A5",
        "wikipediaUrl": "https://zh.wikipedia.org/wiki/%E5%A4%96%E7%99%BD%E6%B8%A1%E6%A1%A5",
        "wikidataId": "Q2121198",
        "historicalGeometryVerified": false
      }
    },
    {
      "type": "Feature",
      "id": "sh-fgj-2A013-01-reference-1",
      "geometry": {
        "type": "Point",
        "coordinates": [
          121.48333333,
          31.24611111
        ]
      },
      "properties": {
        "officialId": "sh-fgj-2A013-01",
        "wikipediaId": "wiki-heritage-t03-r0173",
        "batch": 2,
        "officialCodeRaw": "2A013",
        "name": "乍浦路桥",
        "articleTitle": "乍浦路桥",
        "address": "乍浦路",
        "addressComparison": "exact",
        "coordinateScope": "linked-building-reference-point",
        "coordinateSystem": "WGS84",
        "precisionDegrees": null,
        "origin": "wikipedia-geodata",
        "sourceUrl": "https://zh.wikipedia.org/wiki/%E4%B9%8D%E6%B5%A6%E8%B7%AF%E6%A1%A5",
        "wikipediaUrl": "https://zh.wikipedia.org/wiki/%E4%B9%8D%E6%B5%A6%E8%B7%AF%E6%A1%A5",
        "wikidataId": "Q10878284",
        "historicalGeometryVerified": false
      }
    },
    {
      "type": "Feature",
      "id": "sh-fgj-2A014-01-reference-1",
      "geometry": {
        "type": "Point",
        "coordinates": [
          121.48127778,
          31.246
        ]
      },
      "properties": {
        "officialId": "sh-fgj-2A014-01",
        "wikipediaId": "wiki-heritage-t03-r0166",
        "batch": 2,
        "officialCodeRaw": "2A014",
        "name": "四川路桥",
        "articleTitle": "四川路桥 (上海)",
        "address": "四川中路",
        "addressComparison": "exact",
        "coordinateScope": "linked-building-reference-point",
        "coordinateSystem": "WGS84",
        "precisionDegrees": null,
        "origin": "wikipedia-geodata",
        "sourceUrl": "https://zh.wikipedia.org/wiki/%E5%9B%9B%E5%B7%9D%E8%B7%AF%E6%A1%A5_(%E4%B8%8A%E6%B5%B7)",
        "wikipediaUrl": "https://zh.wikipedia.org/wiki/%E5%9B%9B%E5%B7%9D%E8%B7%AF%E6%A1%A5_(%E4%B8%8A%E6%B5%B7)",
        "wikidataId": "Q10924941",
        "historicalGeometryVerified": false
      }
    },
    {
      "type": "Feature",
      "id": "sh-fgj-2A015-01-reference-1",
      "geometry": {
        "type": "Point",
        "coordinates": [
          121.4855,
          31.2428
        ]
      },
      "properties": {
        "officialId": "sh-fgj-2A015-01",
        "wikipediaId": "wiki-heritage-t03-r0024",
        "batch": 2,
        "officialCodeRaw": "2A015",
        "name": "格林邮船大楼",
        "articleTitle": "格林邮船大楼",
        "address": "北京东路2号",
        "addressComparison": "exact",
        "coordinateScope": "linked-building-reference-point",
        "coordinateSystem": "WGS84",
        "precisionDegrees": 0.0001,
        "origin": "wikidata-P625",
        "sourceUrl": "https://www.wikidata.org/wiki/Q11111157",
        "wikipediaUrl": "https://zh.wikipedia.org/wiki/%E6%A0%BC%E6%9E%97%E9%82%AE%E8%88%B9%E5%A4%A7%E6%A5%BC",
        "wikidataId": "Q11111157",
        "historicalGeometryVerified": false
      }
    },
    {
      "type": "Feature",
      "id": "sh-fgj-2A024-01-reference-1",
      "geometry": {
        "type": "Point",
        "coordinates": [
          121.48373,
          31.24367
        ]
      },
      "properties": {
        "officialId": "sh-fgj-2A024-01",
        "wikipediaId": "wiki-heritage-t03-r0008",
        "batch": 2,
        "officialCodeRaw": "2A024",
        "name": "女青年会大楼",
        "articleTitle": "中华基督教女青年会大楼",
        "address": "圆明园路133号",
        "addressComparison": "exact",
        "coordinateScope": "linked-building-reference-point",
        "coordinateSystem": "WGS84",
        "precisionDegrees": null,
        "origin": "wikipedia-geodata",
        "sourceUrl": "https://zh.wikipedia.org/wiki/%E4%B8%AD%E5%8D%8E%E5%9F%BA%E7%9D%A3%E6%95%99%E5%A5%B3%E9%9D%92%E5%B9%B4%E4%BC%9A%E5%A4%A7%E6%A5%BC",
        "wikipediaUrl": "https://zh.wikipedia.org/wiki/%E4%B8%AD%E5%8D%8E%E5%9F%BA%E7%9D%A3%E6%95%99%E5%A5%B3%E9%9D%92%E5%B9%B4%E4%BC%9A%E5%A4%A7%E6%A5%BC",
        "wikidataId": "Q55360993",
        "historicalGeometryVerified": false
      }
    },
    {
      "type": "Feature",
      "id": "sh-fgj-2A027-01-reference-1",
      "geometry": {
        "type": "Point",
        "coordinates": [
          121.47888889,
          31.22194444
        ]
      },
      "properties": {
        "officialId": "sh-fgj-2A027-01",
        "wikipediaId": "wiki-heritage-t03-r0023",
        "batch": 2,
        "officialCodeRaw": "2A027",
        "name": "慈淑大楼",
        "articleTitle": "东海大楼",
        "address": "南京东路353号",
        "addressComparison": "exact",
        "coordinateScope": "linked-building-reference-point",
        "coordinateSystem": "WGS84",
        "precisionDegrees": null,
        "origin": "wikipedia-geodata",
        "sourceUrl": "https://zh.wikipedia.org/wiki/%E4%B8%9C%E6%B5%B7%E5%A4%A7%E6%A5%BC",
        "wikipediaUrl": "https://zh.wikipedia.org/wiki/%E4%B8%9C%E6%B5%B7%E5%A4%A7%E6%A5%BC",
        "wikidataId": "Q10870657",
        "historicalGeometryVerified": false
      }
    },
    {
      "type": "Feature",
      "id": "sh-fgj-2A029-01-reference-1",
      "geometry": {
        "type": "Point",
        "coordinates": [
          121.4849,
          31.23758
        ]
      },
      "properties": {
        "officialId": "sh-fgj-2A029-01",
        "wikipediaId": "wiki-heritage-t03-r0028",
        "batch": 2,
        "officialCodeRaw": "2A029",
        "name": "正广和公司",
        "articleTitle": "正广和洋行大楼",
        "address": "福州路44号",
        "addressComparison": "exact",
        "coordinateScope": "linked-building-reference-point",
        "coordinateSystem": "WGS84",
        "precisionDegrees": null,
        "origin": "wikipedia-geodata",
        "sourceUrl": "https://zh.wikipedia.org/wiki/%E6%AD%A3%E5%B9%BF%E5%92%8C%E6%B4%8B%E8%A1%8C%E5%A4%A7%E6%A5%BC",
        "wikipediaUrl": "https://zh.wikipedia.org/wiki/%E6%AD%A3%E5%B9%BF%E5%92%8C%E6%B4%8B%E8%A1%8C%E5%A4%A7%E6%A5%BC",
        "wikidataId": "Q60989447",
        "historicalGeometryVerified": false
      }
    },
    {
      "type": "Feature",
      "id": "sh-fgj-2A033-01-reference-1",
      "geometry": {
        "type": "Point",
        "coordinates": [
          121.48472222,
          31.23555556
        ]
      },
      "properties": {
        "officialId": "sh-fgj-2A033-01",
        "wikipediaId": "wiki-heritage-t03-r0032",
        "batch": 2,
        "officialCodeRaw": "2A033",
        "name": "永年人寿保险公司",
        "articleTitle": "永年大楼",
        "address": "广东路93号",
        "addressComparison": "exact",
        "coordinateScope": "linked-building-reference-point",
        "coordinateSystem": "WGS84",
        "precisionDegrees": null,
        "origin": "wikipedia-geodata",
        "sourceUrl": "https://zh.wikipedia.org/wiki/%E6%B0%B8%E5%B9%B4%E5%A4%A7%E6%A5%BC",
        "wikipediaUrl": "https://zh.wikipedia.org/wiki/%E6%B0%B8%E5%B9%B4%E5%A4%A7%E6%A5%BC",
        "wikidataId": "Q11131971",
        "historicalGeometryVerified": false
      }
    },
    {
      "type": "Feature",
      "id": "sh-fgj-2A045-01-reference-1",
      "geometry": {
        "type": "Point",
        "coordinates": [
          121.49027778,
          31.23055556
        ]
      },
      "properties": {
        "officialId": "sh-fgj-2A045-01",
        "wikipediaId": "wiki-heritage-t03-r0078",
        "batch": 2,
        "officialCodeRaw": "2A045",
        "name": "若瑟堂",
        "articleTitle": "洋泾浜圣若瑟堂",
        "address": "四川南路36号",
        "addressComparison": "exact",
        "coordinateScope": "linked-building-reference-point",
        "coordinateSystem": "WGS84",
        "precisionDegrees": null,
        "origin": "wikipedia-geodata",
        "sourceUrl": "https://zh.wikipedia.org/wiki/%E6%B4%8B%E6%B3%BE%E6%B5%9C%E5%9C%A3%E8%8B%A5%E7%91%9F%E5%A0%82",
        "wikipediaUrl": "https://zh.wikipedia.org/wiki/%E6%B4%8B%E6%B3%BE%E6%B5%9C%E5%9C%A3%E8%8B%A5%E7%91%9F%E5%A0%82",
        "wikidataId": "Q2582044",
        "historicalGeometryVerified": false
      }
    },
    {
      "type": "Feature",
      "id": "sh-fgj-2A050-01-reference-1",
      "geometry": {
        "type": "Point",
        "coordinates": [
          121.4731,
          31.23242
        ]
      },
      "properties": {
        "officialId": "sh-fgj-2A050-01",
        "wikipediaId": "wiki-heritage-t03-r0002",
        "batch": 2,
        "officialCodeRaw": "2A050",
        "name": "东方饭店",
        "articleTitle": "东方饭店",
        "address": "西藏中路120号",
        "addressComparison": "exact",
        "coordinateScope": "linked-building-reference-point",
        "coordinateSystem": "WGS84",
        "precisionDegrees": null,
        "origin": "wikipedia-geodata",
        "sourceUrl": "https://zh.wikipedia.org/wiki/%E4%B8%9C%E6%96%B9%E9%A5%AD%E5%BA%97",
        "wikipediaUrl": "https://zh.wikipedia.org/wiki/%E4%B8%9C%E6%96%B9%E9%A5%AD%E5%BA%97",
        "wikidataId": "Q60991031",
        "historicalGeometryVerified": false
      }
    },
    {
      "type": "Feature",
      "id": "sh-fgj-2A052-01-reference-1",
      "geometry": {
        "type": "Point",
        "coordinates": [
          121.48194444,
          31.23222222
        ]
      },
      "properties": {
        "officialId": "sh-fgj-2A052-01",
        "wikipediaId": "wiki-heritage-t03-r0057",
        "batch": 2,
        "officialCodeRaw": "2A052",
        "name": "中汇大楼",
        "articleTitle": "上海中汇大厦",
        "address": "延安东路143号",
        "addressComparison": "different-as-listed",
        "coordinateScope": "linked-building-reference-point",
        "coordinateSystem": "WGS84",
        "precisionDegrees": null,
        "origin": "wikipedia-geodata",
        "sourceUrl": "https://zh.wikipedia.org/wiki/%E4%B8%8A%E6%B5%B7%E4%B8%AD%E6%B1%87%E5%A4%A7%E5%8E%A6",
        "wikipediaUrl": "https://zh.wikipedia.org/wiki/%E4%B8%8A%E6%B5%B7%E4%B8%AD%E6%B1%87%E5%A4%A7%E5%8E%A6",
        "wikidataId": "Q10867630",
        "historicalGeometryVerified": false
      }
    },
    {
      "type": "Feature",
      "id": "sh-fgj-2C004-01-reference-1",
      "geometry": {
        "type": "Point",
        "coordinates": [
          121.45686111,
          31.22
        ]
      },
      "properties": {
        "officialId": "sh-fgj-2C004-01",
        "wikipediaId": "wiki-heritage-t03-r0011",
        "batch": 2,
        "officialCodeRaw": "2C004",
        "name": "国泰大戏院",
        "articleTitle": "国泰电影院",
        "address": "淮海中路870号",
        "addressComparison": "exact",
        "coordinateScope": "linked-building-reference-point",
        "coordinateSystem": "WGS84",
        "precisionDegrees": null,
        "origin": "wikipedia-geodata",
        "sourceUrl": "https://zh.wikipedia.org/wiki/%E5%9B%BD%E6%B3%B0%E7%94%B5%E5%BD%B1%E9%99%A2",
        "wikipediaUrl": "https://zh.wikipedia.org/wiki/%E5%9B%BD%E6%B3%B0%E7%94%B5%E5%BD%B1%E9%99%A2",
        "wikidataId": "Q10926155",
        "historicalGeometryVerified": false
      }
    },
    {
      "type": "Feature",
      "id": "sh-fgj-2C006-01-reference-1",
      "geometry": {
        "type": "Point",
        "coordinates": [
          121.45587,
          31.222825
        ]
      },
      "properties": {
        "officialId": "sh-fgj-2C006-01",
        "wikipediaId": "wiki-heritage-t03-r0012",
        "batch": 2,
        "officialCodeRaw": "2C006",
        "name": "兰心大戏院",
        "articleTitle": "兰心大戏院",
        "address": "茂名南路57号",
        "addressComparison": "exact",
        "coordinateScope": "linked-building-reference-point",
        "coordinateSystem": "WGS84",
        "precisionDegrees": null,
        "origin": "wikipedia-geodata",
        "sourceUrl": "https://zh.wikipedia.org/wiki/%E5%85%B0%E5%BF%83%E5%A4%A7%E6%88%8F%E9%99%A2",
        "wikipediaUrl": "https://zh.wikipedia.org/wiki/%E5%85%B0%E5%BF%83%E5%A4%A7%E6%88%8F%E9%99%A2",
        "wikidataId": "Q10893648",
        "historicalGeometryVerified": false
      }
    },
    {
      "type": "Feature",
      "id": "sh-fgj-2C008-01-reference-1",
      "geometry": {
        "type": "Point",
        "coordinates": [
          121.46416,
          31.22079
        ]
      },
      "properties": {
        "officialId": "sh-fgj-2C008-01",
        "wikipediaId": "wiki-heritage-t03-r0067",
        "batch": 2,
        "officialCodeRaw": "2C008",
        "name": "法国总会（老）",
        "articleTitle": "法国学堂",
        "address": "南昌路47号",
        "addressComparison": "exact",
        "coordinateScope": "linked-building-reference-point",
        "coordinateSystem": "WGS84",
        "precisionDegrees": 0.000001,
        "origin": "wikidata-P625",
        "sourceUrl": "https://www.wikidata.org/wiki/Q11143451",
        "wikipediaUrl": "https://zh.wikipedia.org/wiki/%E6%B3%95%E5%9B%BD%E5%AD%A6%E5%A0%82",
        "wikidataId": "Q11143451",
        "historicalGeometryVerified": false
      }
    },
    {
      "type": "Feature",
      "id": "sh-fgj-2C013-01-reference-1",
      "geometry": {
        "type": "Point",
        "coordinates": [
          121.461501,
          31.219096
        ]
      },
      "properties": {
        "officialId": "sh-fgj-2C013-01",
        "wikipediaId": "wiki-heritage-t03-r0088",
        "batch": 2,
        "officialCodeRaw": "2C013",
        "name": "东正教堂",
        "articleTitle": "上海圣尼古拉堂",
        "address": "皋兰路16号",
        "addressComparison": "exact",
        "coordinateScope": "linked-building-reference-point",
        "coordinateSystem": "WGS84",
        "precisionDegrees": 0.000001,
        "origin": "wikidata-P625",
        "sourceUrl": "https://www.wikidata.org/wiki/Q2384843",
        "wikipediaUrl": "https://zh.wikipedia.org/wiki/%E4%B8%8A%E6%B5%B7%E5%9C%A3%E5%B0%BC%E5%8F%A4%E6%8B%89%E5%A0%82",
        "wikidataId": "Q2384843",
        "historicalGeometryVerified": false
      }
    },
    {
      "type": "Feature",
      "id": "sh-fgj-2C014-01-reference-1",
      "geometry": {
        "type": "Point",
        "coordinates": [
          121.48451,
          31.19754
        ]
      },
      "properties": {
        "officialId": "sh-fgj-2C014-01",
        "wikipediaId": "wiki-heritage-t03-r0161",
        "batch": 2,
        "officialCodeRaw": "2C014",
        "name": "江南制造局",
        "articleTitle": "江南機器製造總局",
        "address": "高雄路2号（总办公楼）/2号船坞/指挥楼/飞机车间",
        "addressComparison": "exact",
        "coordinateScope": "building-complex-reference-point",
        "coordinateSystem": "WGS84",
        "precisionDegrees": null,
        "origin": "wikipedia-geodata",
        "sourceUrl": "https://zh.wikipedia.org/wiki/%E6%B1%9F%E5%8D%97%E6%A9%9F%E5%99%A8%E8%A3%BD%E9%80%A0%E7%B8%BD%E5%B1%80",
        "wikipediaUrl": "https://zh.wikipedia.org/wiki/%E6%B1%9F%E5%8D%97%E6%A9%9F%E5%99%A8%E8%A3%BD%E9%80%A0%E7%B8%BD%E5%B1%80",
        "wikidataId": "Q10377974",
        "historicalGeometryVerified": false
      }
    },
    {
      "type": "Feature",
      "id": "sh-fgj-2B003-01-reference-1",
      "geometry": {
        "type": "Point",
        "coordinates": [
          121.461286,
          31.230652
        ]
      },
      "properties": {
        "officialId": "sh-fgj-2B003-01",
        "wikipediaId": "wiki-heritage-t03-r0046",
        "batch": 2,
        "officialCodeRaw": "2B003",
        "name": "中国银行",
        "articleTitle": "同孚大楼",
        "address": "南京西路801号",
        "addressComparison": "exact",
        "coordinateScope": "linked-building-reference-point",
        "coordinateSystem": "WGS84",
        "precisionDegrees": null,
        "origin": "wikipedia-geodata",
        "sourceUrl": "https://zh.wikipedia.org/wiki/%E5%90%8C%E5%AD%9A%E5%A4%A7%E6%A5%BC",
        "wikipediaUrl": "https://zh.wikipedia.org/wiki/%E5%90%8C%E5%AD%9A%E5%A4%A7%E6%A5%BC",
        "wikidataId": "Q15925640",
        "historicalGeometryVerified": false
      }
    },
    {
      "type": "Feature",
      "id": "sh-fgj-2B014-01-reference-1",
      "geometry": {
        "type": "Point",
        "coordinates": [
          121.45269444,
          31.23152778
        ]
      },
      "properties": {
        "officialId": "sh-fgj-2B014-01",
        "wikipediaId": "wiki-heritage-t03-r0169",
        "batch": 2,
        "officialCodeRaw": "2B014",
        "name": "西摩路会堂",
        "articleTitle": "拉结会堂",
        "address": "陕西北路500号",
        "addressComparison": "exact",
        "coordinateScope": "linked-building-reference-point",
        "coordinateSystem": "WGS84",
        "precisionDegrees": null,
        "origin": "wikipedia-geodata",
        "sourceUrl": "https://zh.wikipedia.org/wiki/%E6%8B%89%E7%BB%93%E4%BC%9A%E5%A0%82",
        "wikipediaUrl": "https://zh.wikipedia.org/wiki/%E6%8B%89%E7%BB%93%E4%BC%9A%E5%A0%82",
        "wikidataId": "Q11077044",
        "historicalGeometryVerified": false
      }
    },
    {
      "type": "Feature",
      "id": "sh-fgj-2H001-01-reference-1",
      "geometry": {
        "type": "Point",
        "coordinates": [
          121.4669,
          31.2421
        ]
      },
      "properties": {
        "officialId": "sh-fgj-2H001-01",
        "wikipediaId": "wiki-heritage-t03-r0163",
        "batch": 2,
        "officialCodeRaw": "2H001",
        "name": "四行仓库",
        "articleTitle": "四行仓库",
        "address": "光复路21号",
        "addressComparison": "different-as-listed",
        "coordinateScope": "linked-building-reference-point",
        "coordinateSystem": "WGS84",
        "precisionDegrees": null,
        "origin": "wikipedia-geodata",
        "sourceUrl": "https://zh.wikipedia.org/wiki/%E5%9B%9B%E8%A1%8C%E4%BB%93%E5%BA%93",
        "wikipediaUrl": "https://zh.wikipedia.org/wiki/%E5%9B%9B%E8%A1%8C%E4%BB%93%E5%BA%93",
        "wikidataId": "Q10925316",
        "historicalGeometryVerified": false
      }
    },
    {
      "type": "Feature",
      "id": "sh-fgj-2D012-01-reference-1",
      "geometry": {
        "type": "Point",
        "coordinates": [
          121.43362104133811,
          31.206272488687574
        ]
      },
      "properties": {
        "officialId": "sh-fgj-2D012-01",
        "wikipediaId": "wiki-heritage-t03-r0140",
        "batch": 2,
        "officialCodeRaw": "2D012",
        "name": "东美特公寓",
        "articleTitle": "武康大楼",
        "address": "淮海中路1842-1858号",
        "addressComparison": "formatting-only",
        "coordinateScope": "linked-building-reference-point",
        "coordinateSystem": "WGS84",
        "precisionDegrees": 1e-8,
        "origin": "wikidata-P625",
        "sourceUrl": "https://www.wikidata.org/wiki/Q11124219",
        "wikipediaUrl": "https://zh.wikipedia.org/wiki/%E6%AD%A6%E5%BA%B7%E5%A4%A7%E6%A5%BC",
        "wikidataId": "Q11124219",
        "historicalGeometryVerified": false
      }
    },
    {
      "type": "Feature",
      "id": "sh-fgj-2D013-01-reference-1",
      "geometry": {
        "type": "Point",
        "coordinates": [
          121.434525,
          31.21388333
        ]
      },
      "properties": {
        "officialId": "sh-fgj-2D013-01",
        "wikipediaId": "wiki-heritage-t03-r0114",
        "batch": 2,
        "officialCodeRaw": "2D013",
        "name": "丁香花园",
        "articleTitle": "丁香花园",
        "address": "华山路849号主楼",
        "addressComparison": "exact",
        "coordinateScope": "building-complex-reference-point",
        "coordinateSystem": "WGS84",
        "precisionDegrees": null,
        "origin": "wikipedia-geodata",
        "sourceUrl": "https://zh.wikipedia.org/wiki/%E4%B8%81%E9%A6%99%E8%8A%B1%E5%9B%AD",
        "wikipediaUrl": "https://zh.wikipedia.org/wiki/%E4%B8%81%E9%A6%99%E8%8A%B1%E5%9B%AD",
        "wikidataId": "Q10864438",
        "historicalGeometryVerified": false
      }
    },
    {
      "type": "Feature",
      "id": "sh-fgj-2D022-01-reference-1",
      "geometry": {
        "type": "Point",
        "coordinates": [
          121.4385,
          31.20232
        ]
      },
      "properties": {
        "officialId": "sh-fgj-2D022-01",
        "wikipediaId": "wiki-heritage-t03-r0149",
        "batch": 2,
        "officialCodeRaw": "2D022",
        "name": "毕卡迪公寓",
        "articleTitle": "衡山宾馆",
        "address": "衡山路534号",
        "addressComparison": "exact",
        "coordinateScope": "linked-building-reference-point",
        "coordinateSystem": "WGS84",
        "precisionDegrees": null,
        "origin": "wikipedia-geodata",
        "sourceUrl": "https://zh.wikipedia.org/wiki/%E8%A1%A1%E5%B1%B1%E5%AE%BE%E9%A6%86",
        "wikipediaUrl": "https://zh.wikipedia.org/wiki/%E8%A1%A1%E5%B1%B1%E5%AE%BE%E9%A6%86",
        "wikidataId": "Q15909474",
        "historicalGeometryVerified": false
      }
    },
    {
      "type": "Feature",
      "id": "sh-fgj-2D041-01-reference-1",
      "geometry": {
        "type": "Point",
        "coordinates": [
          121.450948,
          31.219417
        ]
      },
      "properties": {
        "officialId": "sh-fgj-2D041-01",
        "wikipediaId": "wiki-heritage-t03-r0087",
        "batch": 2,
        "officialCodeRaw": "2D041",
        "name": "东正教堂",
        "articleTitle": "圣母大堂",
        "address": "新乐路55号",
        "addressComparison": "exact",
        "coordinateScope": "linked-building-reference-point",
        "coordinateSystem": "WGS84",
        "precisionDegrees": null,
        "origin": "wikipedia-geodata",
        "sourceUrl": "https://zh.wikipedia.org/wiki/%E5%9C%A3%E6%AF%8D%E5%A4%A7%E5%A0%82",
        "wikipediaUrl": "https://zh.wikipedia.org/wiki/%E5%9C%A3%E6%AF%8D%E5%A4%A7%E5%A0%82",
        "wikidataId": "Q1055130",
        "historicalGeometryVerified": false
      }
    },
    {
      "type": "Feature",
      "id": "sh-fgj-2F007-01-reference-1",
      "geometry": {
        "type": "Point",
        "coordinates": [
          121.48491091914507,
          31.245015043543855
        ]
      },
      "properties": {
        "officialId": "sh-fgj-2F007-01",
        "wikipediaId": "wiki-heritage-t03-r0004",
        "batch": 2,
        "officialCodeRaw": "2F007",
        "name": "新亚酒楼",
        "articleTitle": "上海新亚大酒店",
        "address": "天潼路422号",
        "addressComparison": "exact",
        "coordinateScope": "linked-building-reference-point",
        "coordinateSystem": "WGS84",
        "precisionDegrees": 1e-8,
        "origin": "wikidata-P625",
        "sourceUrl": "https://www.wikidata.org/wiki/Q10867930",
        "wikipediaUrl": "https://zh.wikipedia.org/wiki/%E4%B8%8A%E6%B5%B7%E6%96%B0%E4%BA%9A%E5%A4%A7%E9%85%92%E5%BA%97",
        "wikidataId": "Q10867930",
        "historicalGeometryVerified": false
      }
    },
    {
      "type": "Feature",
      "id": "sh-fgj-2F009-01-reference-1",
      "geometry": {
        "type": "Point",
        "coordinates": [
          121.48027778,
          31.25222222
        ]
      },
      "properties": {
        "officialId": "sh-fgj-2F009-01",
        "wikipediaId": "wiki-heritage-t03-r0050",
        "batch": 2,
        "officialCodeRaw": "2F009",
        "name": "中国银行大楼",
        "articleTitle": "中国银行虹口大楼",
        "address": "四川北路894号",
        "addressComparison": "exact",
        "coordinateScope": "linked-building-reference-point",
        "coordinateSystem": "WGS84",
        "precisionDegrees": null,
        "origin": "wikipedia-geodata",
        "sourceUrl": "https://zh.wikipedia.org/wiki/%E4%B8%AD%E5%9B%BD%E9%93%B6%E8%A1%8C%E8%99%B9%E5%8F%A3%E5%A4%A7%E6%A5%BC",
        "wikipediaUrl": "https://zh.wikipedia.org/wiki/%E4%B8%AD%E5%9B%BD%E9%93%B6%E8%A1%8C%E8%99%B9%E5%8F%A3%E5%A4%A7%E6%A5%BC",
        "wikidataId": "Q15932446",
        "historicalGeometryVerified": false
      }
    },
    {
      "type": "Feature",
      "id": "sh-fgj-2G003-01-reference-1",
      "geometry": {
        "type": "Point",
        "coordinates": [
          121.52361111,
          31.31083333
        ]
      },
      "properties": {
        "officialId": "sh-fgj-2G003-01",
        "wikipediaId": "wiki-heritage-t03-r0013",
        "batch": 2,
        "officialCodeRaw": "2G003",
        "name": "旧市博物馆",
        "articleTitle": "上海市立博物馆",
        "address": "长海路174号",
        "addressComparison": "exact",
        "coordinateScope": "linked-building-reference-point",
        "coordinateSystem": "WGS84",
        "precisionDegrees": null,
        "origin": "wikipedia-geodata",
        "sourceUrl": "https://zh.wikipedia.org/wiki/%E4%B8%8A%E6%B5%B7%E5%B8%82%E7%AB%8B%E5%8D%9A%E7%89%A9%E9%A6%86",
        "wikipediaUrl": "https://zh.wikipedia.org/wiki/%E4%B8%8A%E6%B5%B7%E5%B8%82%E7%AB%8B%E5%8D%9A%E7%89%A9%E9%A6%86",
        "wikidataId": "Q10867887",
        "historicalGeometryVerified": false
      }
    },
    {
      "type": "Feature",
      "id": "sh-fgj-2G004-01-reference-1",
      "geometry": {
        "type": "Point",
        "coordinates": [
          121.51888889,
          31.31083333
        ]
      },
      "properties": {
        "officialId": "sh-fgj-2G004-01",
        "wikipediaId": "wiki-heritage-t03-r0015",
        "batch": 2,
        "officialCodeRaw": "2G004",
        "name": "旧市图书馆",
        "articleTitle": "上海市立图书馆",
        "address": "黑山路181号",
        "addressComparison": "exact",
        "coordinateScope": "linked-building-reference-point",
        "coordinateSystem": "WGS84",
        "precisionDegrees": null,
        "origin": "wikipedia-geodata",
        "sourceUrl": "https://zh.wikipedia.org/wiki/%E4%B8%8A%E6%B5%B7%E5%B8%82%E7%AB%8B%E5%9B%BE%E4%B9%A6%E9%A6%86",
        "wikipediaUrl": "https://zh.wikipedia.org/wiki/%E4%B8%8A%E6%B5%B7%E5%B8%82%E7%AB%8B%E5%9B%BE%E4%B9%A6%E9%A6%86",
        "wikidataId": "Q10867888",
        "historicalGeometryVerified": false
      }
    },
    {
      "type": "Feature",
      "id": "sh-fgj-2M010-01-reference-1",
      "geometry": {
        "type": "Point",
        "coordinates": [
          121.36200786,
          31.20649874
        ]
      },
      "properties": {
        "officialId": "sh-fgj-2M010-01",
        "wikipediaId": "wiki-heritage-t03-r0081",
        "batch": 2,
        "officialCodeRaw": "2M010",
        "name": "安息堂",
        "articleTitle": "息焉堂",
        "address": "虹桥路2381号",
        "addressComparison": "different-as-listed",
        "coordinateScope": "linked-building-reference-point",
        "coordinateSystem": "WGS84",
        "precisionDegrees": 1e-8,
        "origin": "wikidata-P625",
        "sourceUrl": "https://www.wikidata.org/wiki/Q4504910",
        "wikipediaUrl": "https://zh.wikipedia.org/wiki/%E6%81%AF%E7%84%89%E5%A0%82",
        "wikidataId": "Q4504910",
        "historicalGeometryVerified": false
      }
    },
    {
      "type": "Feature",
      "id": "sh-fgj-2N002-01-reference-1",
      "geometry": {
        "type": "Point",
        "coordinates": [
          121.44052778,
          31.24319167
        ]
      },
      "properties": {
        "officialId": "sh-fgj-2N002-01",
        "wikipediaId": "wiki-heritage-t03-r0085",
        "batch": 2,
        "officialCodeRaw": "2N002",
        "name": "玉佛寺",
        "articleTitle": "玉佛寺 (上海)",
        "address": "安远路170号",
        "addressComparison": "exact",
        "coordinateScope": "building-complex-reference-point",
        "coordinateSystem": "WGS84",
        "precisionDegrees": null,
        "origin": "wikipedia-geodata",
        "sourceUrl": "https://zh.wikipedia.org/wiki/%E7%8E%89%E4%BD%9B%E5%AF%BA_(%E4%B8%8A%E6%B5%B7)",
        "wikipediaUrl": "https://zh.wikipedia.org/wiki/%E7%8E%89%E4%BD%9B%E5%AF%BA_(%E4%B8%8A%E6%B5%B7)",
        "wikidataId": "Q967601",
        "historicalGeometryVerified": false
      }
    },
    {
      "type": "Feature",
      "id": "sh-fgj-3A001-01-reference-1",
      "geometry": {
        "type": "Point",
        "coordinates": [
          121.48527778,
          31.242
        ]
      },
      "properties": {
        "officialId": "sh-fgj-3A001-01",
        "wikipediaId": "wiki-heritage-t04-r0002",
        "batch": 3,
        "officialCodeRaw": "3A001",
        "name": "扬子大楼/扬子水火保险公司",
        "articleTitle": "扬子大楼",
        "address": "中山东一路26号",
        "addressComparison": "exact",
        "coordinateScope": "linked-building-reference-point",
        "coordinateSystem": "WGS84",
        "precisionDegrees": null,
        "origin": "wikipedia-geodata",
        "sourceUrl": "https://zh.wikipedia.org/wiki/%E6%89%AC%E5%AD%90%E5%A4%A7%E6%A5%BC",
        "wikipediaUrl": "https://zh.wikipedia.org/wiki/%E6%89%AC%E5%AD%90%E5%A4%A7%E6%A5%BC",
        "wikidataId": "Q5970342",
        "historicalGeometryVerified": false
      }
    },
    {
      "type": "Feature",
      "id": "sh-fgj-3A002-01-reference-1",
      "geometry": {
        "type": "Point",
        "coordinates": [
          121.48544444,
          31.23905556
        ]
      },
      "properties": {
        "officialId": "sh-fgj-3A002-01",
        "wikipediaId": "wiki-heritage-t04-r0003",
        "batch": 3,
        "officialCodeRaw": "3A002",
        "name": "交通银行/交通银行",
        "articleTitle": "交通银行大楼 (上海)",
        "address": "中山东一路14号",
        "addressComparison": "exact",
        "coordinateScope": "linked-building-reference-point",
        "coordinateSystem": "WGS84",
        "precisionDegrees": null,
        "origin": "wikipedia-geodata",
        "sourceUrl": "https://zh.wikipedia.org/wiki/%E4%BA%A4%E9%80%9A%E9%93%B6%E8%A1%8C%E5%A4%A7%E6%A5%BC_(%E4%B8%8A%E6%B5%B7)",
        "wikipediaUrl": "https://zh.wikipedia.org/wiki/%E4%BA%A4%E9%80%9A%E9%93%B6%E8%A1%8C%E5%A4%A7%E6%A5%BC_(%E4%B8%8A%E6%B5%B7)",
        "wikidataId": "Q5099581",
        "historicalGeometryVerified": false
      }
    },
    {
      "type": "Feature",
      "id": "sh-fgj-3A003-01-reference-1",
      "geometry": {
        "type": "Point",
        "coordinates": [
          121.48628056,
          31.23643056
        ]
      },
      "properties": {
        "officialId": "sh-fgj-3A003-01",
        "wikipediaId": "wiki-heritage-t04-r0004",
        "batch": 3,
        "officialCodeRaw": "3A003",
        "name": "日清大楼/日清汽船株式会社",
        "articleTitle": "日清大楼 (上海)",
        "address": "中山东一路5号",
        "addressComparison": "exact",
        "coordinateScope": "linked-building-reference-point",
        "coordinateSystem": "WGS84",
        "precisionDegrees": null,
        "origin": "wikipedia-geodata",
        "sourceUrl": "https://zh.wikipedia.org/wiki/%E6%97%A5%E6%B8%85%E5%A4%A7%E6%A5%BC_(%E4%B8%8A%E6%B5%B7)",
        "wikipediaUrl": "https://zh.wikipedia.org/wiki/%E6%97%A5%E6%B8%85%E5%A4%A7%E6%A5%BC_(%E4%B8%8A%E6%B5%B7)",
        "wikidataId": "Q1187116",
        "historicalGeometryVerified": false
      }
    },
    {
      "type": "Feature",
      "id": "sh-fgj-3C014-01-reference-1",
      "geometry": {
        "type": "Point",
        "coordinates": [
          121.46921,
          31.21746
        ]
      },
      "properties": {
        "officialId": "sh-fgj-3C014-01",
        "wikipediaId": "wiki-heritage-t04-r0064",
        "batch": 3,
        "officialCodeRaw": "3C014",
        "name": "诸圣堂",
        "articleTitle": "诸圣堂 (上海)",
        "address": "复兴中路425号",
        "addressComparison": "exact",
        "coordinateScope": "linked-building-reference-point",
        "coordinateSystem": "WGS84",
        "precisionDegrees": null,
        "origin": "wikipedia-geodata",
        "sourceUrl": "https://zh.wikipedia.org/wiki/%E8%AF%B8%E5%9C%A3%E5%A0%82_(%E4%B8%8A%E6%B5%B7)",
        "wikipediaUrl": "https://zh.wikipedia.org/wiki/%E8%AF%B8%E5%9C%A3%E5%A0%82_(%E4%B8%8A%E6%B5%B7)",
        "wikidataId": "Q16322342",
        "historicalGeometryVerified": false
      }
    },
    {
      "type": "Feature",
      "id": "sh-fgj-3B001-01-reference-1",
      "geometry": {
        "type": "Point",
        "coordinates": [
          121.4593525,
          31.2291778
        ]
      },
      "properties": {
        "officialId": "sh-fgj-3B001-01",
        "wikipediaId": "wiki-heritage-t04-r0023",
        "batch": 3,
        "officialCodeRaw": "3B001",
        "name": "邱氏住宅",
        "articleTitle": "查公館",
        "address": "威海路412号",
        "addressComparison": "exact",
        "coordinateScope": "linked-building-reference-point",
        "coordinateSystem": "WGS84",
        "precisionDegrees": null,
        "origin": "wikipedia-geodata",
        "sourceUrl": "https://zh.wikipedia.org/wiki/%E6%9F%A5%E5%85%AC%E9%A4%A8",
        "wikipediaUrl": "https://zh.wikipedia.org/wiki/%E6%9F%A5%E5%85%AC%E9%A4%A8",
        "wikidataId": "Q51534563",
        "historicalGeometryVerified": false
      }
    },
    {
      "type": "Feature",
      "id": "sh-fgj-3F001-01-reference-1",
      "geometry": {
        "type": "Point",
        "coordinates": [
          121.484561,
          31.266028
        ]
      },
      "properties": {
        "officialId": "sh-fgj-3F001-01",
        "wikipediaId": "wiki-heritage-t04-r0139",
        "batch": 3,
        "officialCodeRaw": "3F001",
        "name": "大陆新村/文华新村/淞云别墅/留青小筑",
        "articleTitle": "大陆新村",
        "address": "山阴路30、44、64、112、124、132、144、156、168、180、192、208、210弄，甜爱路59号、40号，山阴路2弄1-43号，四川北路2044-2058号",
        "addressComparison": "formatting-only",
        "coordinateScope": "building-complex-reference-point",
        "coordinateSystem": "WGS84",
        "precisionDegrees": null,
        "origin": "wikipedia-geodata",
        "sourceUrl": "https://zh.wikipedia.org/wiki/%E5%A4%A7%E9%99%86%E6%96%B0%E6%9D%91",
        "wikipediaUrl": "https://zh.wikipedia.org/wiki/%E5%A4%A7%E9%99%86%E6%96%B0%E6%9D%91",
        "wikidataId": "Q19852274",
        "historicalGeometryVerified": false
      }
    },
    {
      "type": "Feature",
      "id": "sh-fgj-3F005-01-reference-1",
      "geometry": {
        "type": "Point",
        "coordinates": [
          121.48656,
          31.24623
        ]
      },
      "properties": {
        "officialId": "sh-fgj-3F005-01",
        "wikipediaId": "wiki-heritage-t04-r0144",
        "batch": 3,
        "officialCodeRaw": "3F005",
        "name": "礼查饭店",
        "articleTitle": "浦江饭店",
        "address": "黄浦路15号",
        "addressComparison": "exact",
        "coordinateScope": "linked-building-reference-point",
        "coordinateSystem": "WGS84",
        "precisionDegrees": null,
        "origin": "wikipedia-geodata",
        "sourceUrl": "https://zh.wikipedia.org/wiki/%E6%B5%A6%E6%B1%9F%E9%A5%AD%E5%BA%97",
        "wikipediaUrl": "https://zh.wikipedia.org/wiki/%E6%B5%A6%E6%B1%9F%E9%A5%AD%E5%BA%97",
        "wikidataId": "Q877527",
        "historicalGeometryVerified": false
      }
    },
    {
      "type": "Feature",
      "id": "sh-fgj-3G006-01-reference-1",
      "geometry": {
        "type": "Point",
        "coordinates": [
          121.515932,
          31.260991
        ]
      },
      "properties": {
        "officialId": "sh-fgj-3G006-01",
        "wikipediaId": "wiki-heritage-t04-r0164",
        "batch": 3,
        "officialCodeRaw": "3G006",
        "name": "正广和汽水厂",
        "articleTitle": "正广和汽水厂",
        "address": "通北路400号",
        "addressComparison": "exact",
        "coordinateScope": "building-complex-reference-point",
        "coordinateSystem": "WGS84",
        "precisionDegrees": null,
        "origin": "wikipedia-geodata",
        "sourceUrl": "https://zh.wikipedia.org/wiki/%E6%AD%A3%E5%B9%BF%E5%92%8C%E6%B1%BD%E6%B0%B4%E5%8E%82",
        "wikipediaUrl": "https://zh.wikipedia.org/wiki/%E6%AD%A3%E5%B9%BF%E5%92%8C%E6%B1%BD%E6%B0%B4%E5%8E%82",
        "wikidataId": "Q28415968",
        "historicalGeometryVerified": false
      }
    },
    {
      "type": "Feature",
      "id": "sh-fgj-3W001-01-reference-1",
      "geometry": {
        "type": "Point",
        "coordinates": [
          121.657,
          31.2099
        ]
      },
      "properties": {
        "officialId": "sh-fgj-3W001-01",
        "wikipediaId": "wiki-heritage-t04-r0168",
        "batch": 3,
        "officialCodeRaw": "3W001",
        "name": "唐墓桥露德圣母堂",
        "articleTitle": "唐墓桥露德圣母堂",
        "address": "浦东唐墓桥",
        "addressComparison": "different-as-listed",
        "coordinateScope": "linked-building-reference-point",
        "coordinateSystem": "WGS84",
        "precisionDegrees": 0.00010503236485526414,
        "origin": "wikidata-P625",
        "sourceUrl": "https://www.wikidata.org/wiki/Q4504911",
        "wikipediaUrl": "https://zh.wikipedia.org/wiki/%E5%94%90%E5%A2%93%E6%A1%A5%E9%9C%B2%E5%BE%B7%E5%9C%A3%E6%AF%8D%E5%A0%82",
        "wikidataId": "Q4504911",
        "historicalGeometryVerified": false
      }
    },
    {
      "type": "Feature",
      "id": "sh-fgj-3J001-01-reference-1",
      "geometry": {
        "type": "Point",
        "coordinates": [
          121.36857,
          31.12805
        ]
      },
      "properties": {
        "officialId": "sh-fgj-3J001-01",
        "wikipediaId": "wiki-heritage-t04-r0170",
        "batch": 3,
        "officialCodeRaw": "3J001",
        "name": "天主堂",
        "articleTitle": "南张圣若瑟善终主保堂",
        "address": "闵行区七莘路9号桥",
        "addressComparison": "different-as-listed",
        "coordinateScope": "linked-building-reference-point",
        "coordinateSystem": "WGS84",
        "precisionDegrees": null,
        "origin": "wikipedia-geodata",
        "sourceUrl": "https://zh.wikipedia.org/wiki/%E5%8D%97%E5%BC%A0%E5%9C%A3%E8%8B%A5%E7%91%9F%E5%96%84%E7%BB%88%E4%B8%BB%E4%BF%9D%E5%A0%82",
        "wikipediaUrl": "https://zh.wikipedia.org/wiki/%E5%8D%97%E5%BC%A0%E5%9C%A3%E8%8B%A5%E7%91%9F%E5%96%84%E7%BB%88%E4%B8%BB%E4%BF%9D%E5%A0%82",
        "wikidataId": "Q65047712",
        "historicalGeometryVerified": false
      }
    },
    {
      "type": "Feature",
      "id": "sh-fgj-4A016-01-reference-1",
      "geometry": {
        "type": "Point",
        "coordinates": [
          121.47772,
          31.2393
        ]
      },
      "properties": {
        "officialId": "sh-fgj-4A016-01",
        "wikipediaId": "wiki-heritage-t05-r0017",
        "batch": 4,
        "officialCodeRaw": "4A016",
        "name": "南京饭店",
        "articleTitle": "南京饭店 (上海市)",
        "address": "山西南路182-200号",
        "addressComparison": "different-as-listed",
        "coordinateScope": "linked-building-reference-point",
        "coordinateSystem": "WGS84",
        "precisionDegrees": null,
        "origin": "wikipedia-geodata",
        "sourceUrl": "https://zh.wikipedia.org/wiki/%E5%8D%97%E4%BA%AC%E9%A5%AD%E5%BA%97_(%E4%B8%8A%E6%B5%B7%E5%B8%82)",
        "wikipediaUrl": "https://zh.wikipedia.org/wiki/%E5%8D%97%E4%BA%AC%E9%A5%AD%E5%BA%97_(%E4%B8%8A%E6%B5%B7%E5%B8%82)",
        "wikidataId": "Q59607456",
        "historicalGeometryVerified": false
      }
    },
    {
      "type": "Feature",
      "id": "sh-fgj-4A038-01-reference-1",
      "geometry": {
        "type": "Point",
        "coordinates": [
          121.49344,
          31.21789
        ]
      },
      "properties": {
        "officialId": "sh-fgj-4A038-01",
        "wikipediaId": "wiki-heritage-t05-r0039",
        "batch": 4,
        "officialCodeRaw": "4A038",
        "name": "小南门警钟楼",
        "articleTitle": "小南门警钟楼",
        "address": "中华路581号",
        "addressComparison": "exact",
        "coordinateScope": "linked-building-reference-point",
        "coordinateSystem": "WGS84",
        "precisionDegrees": null,
        "origin": "wikipedia-geodata",
        "sourceUrl": "https://zh.wikipedia.org/wiki/%E5%B0%8F%E5%8D%97%E9%97%A8%E8%AD%A6%E9%92%9F%E6%A5%BC",
        "wikipediaUrl": "https://zh.wikipedia.org/wiki/%E5%B0%8F%E5%8D%97%E9%97%A8%E8%AD%A6%E9%92%9F%E6%A5%BC",
        "wikidataId": "Q47500617",
        "historicalGeometryVerified": false
      }
    },
    {
      "type": "Feature",
      "id": "sh-fgj-4C022-01-reference-1",
      "geometry": {
        "type": "Point",
        "coordinates": [
          121.461923,
          31.20904
        ]
      },
      "properties": {
        "officialId": "sh-fgj-4C022-01",
        "wikipediaId": "wiki-heritage-t05-r0087",
        "batch": 4,
        "officialCodeRaw": "4C022",
        "name": "明复图书馆",
        "articleTitle": "中国科学社暨明复图书馆旧址",
        "address": "陕西南路235号",
        "addressComparison": "exact",
        "coordinateScope": "building-complex-reference-point",
        "coordinateSystem": "WGS84",
        "precisionDegrees": null,
        "origin": "wikipedia-geodata",
        "sourceUrl": "https://zh.wikipedia.org/wiki/%E4%B8%AD%E5%9B%BD%E7%A7%91%E5%AD%A6%E7%A4%BE%E6%9A%A8%E6%98%8E%E5%A4%8D%E5%9B%BE%E4%B9%A6%E9%A6%86%E6%97%A7%E5%9D%80",
        "wikipediaUrl": "https://zh.wikipedia.org/wiki/%E4%B8%AD%E5%9B%BD%E7%A7%91%E5%AD%A6%E7%A4%BE%E6%9A%A8%E6%98%8E%E5%A4%8D%E5%9B%BE%E4%B9%A6%E9%A6%86%E6%97%A7%E5%9D%80",
        "wikidataId": "Q48901119",
        "historicalGeometryVerified": false
      }
    },
    {
      "type": "Feature",
      "id": "sh-fgj-4B001-01-reference-1",
      "geometry": {
        "type": "Point",
        "coordinates": [
          121.44805556,
          31.22666667
        ]
      },
      "properties": {
        "officialId": "sh-fgj-4B001-01",
        "wikipediaId": "wiki-heritage-t05-r0041",
        "batch": 4,
        "officialCodeRaw": "4B001",
        "name": "中苏友好大厦",
        "articleTitle": "上海展览中心",
        "address": "延安中路1000号",
        "addressComparison": "exact",
        "coordinateScope": "building-complex-reference-point",
        "coordinateSystem": "WGS84",
        "precisionDegrees": null,
        "origin": "wikipedia-geodata",
        "sourceUrl": "https://zh.wikipedia.org/wiki/%E4%B8%8A%E6%B5%B7%E5%B1%95%E8%A7%88%E4%B8%AD%E5%BF%83",
        "wikipediaUrl": "https://zh.wikipedia.org/wiki/%E4%B8%8A%E6%B5%B7%E5%B1%95%E8%A7%88%E4%B8%AD%E5%BF%83",
        "wikidataId": "Q3481394",
        "historicalGeometryVerified": false
      }
    },
    {
      "type": "Feature",
      "id": "sh-fgj-4D023-01-reference-1",
      "geometry": {
        "type": "Point",
        "coordinates": [
          121.434525,
          31.21388333
        ]
      },
      "properties": {
        "officialId": "sh-fgj-4D023-01",
        "wikipediaId": "wiki-heritage-t05-r0116",
        "batch": 4,
        "officialCodeRaw": "4D023",
        "name": "花园住宅",
        "articleTitle": "丁香花园",
        "address": "华山路849号",
        "addressComparison": "exact",
        "coordinateScope": "building-complex-reference-point",
        "coordinateSystem": "WGS84",
        "precisionDegrees": null,
        "origin": "wikipedia-geodata",
        "sourceUrl": "https://zh.wikipedia.org/wiki/%E4%B8%81%E9%A6%99%E8%8A%B1%E5%9B%AD",
        "wikipediaUrl": "https://zh.wikipedia.org/wiki/%E4%B8%81%E9%A6%99%E8%8A%B1%E5%9B%AD",
        "wikidataId": "Q10864438",
        "historicalGeometryVerified": false
      }
    },
    {
      "type": "Feature",
      "id": "sh-fgj-4D047-01-reference-1",
      "geometry": {
        "type": "Point",
        "coordinates": [
          121.4366948,
          31.1908472
        ]
      },
      "properties": {
        "officialId": "sh-fgj-4D047-01",
        "wikipediaId": "wiki-heritage-t05-r0142",
        "batch": 4,
        "officialCodeRaw": "4D047",
        "name": "徐家汇观象（天文）台",
        "articleTitle": "徐家汇观象台",
        "address": "蒲西路166号",
        "addressComparison": "exact",
        "coordinateScope": "linked-building-reference-point",
        "coordinateSystem": "WGS84",
        "precisionDegrees": null,
        "origin": "wikipedia-geodata",
        "sourceUrl": "https://zh.wikipedia.org/wiki/%E5%BE%90%E5%AE%B6%E6%B1%87%E8%A7%82%E8%B1%A1%E5%8F%B0",
        "wikipediaUrl": "https://zh.wikipedia.org/wiki/%E5%BE%90%E5%AE%B6%E6%B1%87%E8%A7%82%E8%B1%A1%E5%8F%B0",
        "wikidataId": "Q16077881",
        "historicalGeometryVerified": false
      }
    },
    {
      "type": "Feature",
      "id": "sh-fgj-4F002-01-reference-1",
      "geometry": {
        "type": "Point",
        "coordinates": [
          121.48073889,
          31.24813889
        ]
      },
      "properties": {
        "officialId": "sh-fgj-4F002-01",
        "wikipediaId": "wiki-heritage-t05-r0145",
        "batch": 4,
        "officialCodeRaw": "4F002",
        "name": "大桥公寓",
        "articleTitle": "大桥大楼",
        "address": "四川北路85号",
        "addressComparison": "exact",
        "coordinateScope": "linked-building-reference-point",
        "coordinateSystem": "WGS84",
        "precisionDegrees": null,
        "origin": "wikipedia-geodata",
        "sourceUrl": "https://zh.wikipedia.org/wiki/%E5%A4%A7%E6%A1%A5%E5%A4%A7%E6%A5%BC",
        "wikipediaUrl": "https://zh.wikipedia.org/wiki/%E5%A4%A7%E6%A1%A5%E5%A4%A7%E6%A5%BC",
        "wikidataId": "Q15910925",
        "historicalGeometryVerified": false
      }
    },
    {
      "type": "Feature",
      "id": "sh-fgj-4F011-01-reference-1",
      "geometry": {
        "type": "Point",
        "coordinates": [
          121.48785,
          31.25663333
        ]
      },
      "properties": {
        "officialId": "sh-fgj-4F011-01",
        "wikipediaId": "wiki-heritage-t05-r0154",
        "batch": 4,
        "officialCodeRaw": "4F011",
        "name": "工部局宰牲场（宰牛场）/新亚集团产业",
        "articleTitle": "上海公共租界工部局宰牲场",
        "address": "沙泾路10号、29号",
        "addressComparison": "exact",
        "coordinateScope": "building-complex-reference-point",
        "coordinateSystem": "WGS84",
        "precisionDegrees": 0.000001,
        "origin": "wikidata-P625",
        "sourceUrl": "https://www.wikidata.org/wiki/Q11056843",
        "wikipediaUrl": "https://zh.wikipedia.org/wiki/%E4%B8%8A%E6%B5%B7%E5%85%AC%E5%85%B1%E7%A7%9F%E7%95%8C%E5%B7%A5%E9%83%A8%E5%B1%80%E5%AE%B0%E7%89%B2%E5%9C%BA",
        "wikidataId": "Q11056843",
        "historicalGeometryVerified": false
      }
    },
    {
      "type": "Feature",
      "id": "sh-fgj-4F025-01-reference-1",
      "geometry": {
        "type": "Point",
        "coordinates": [
          121.505,
          31.256166666666665
        ]
      },
      "properties": {
        "officialId": "sh-fgj-4F025-01",
        "wikipediaId": "wiki-heritage-t05-r0171",
        "batch": 4,
        "officialCodeRaw": "4F025",
        "name": "摩西会堂",
        "articleTitle": "摩西会堂",
        "address": "长阳路62号",
        "addressComparison": "exact",
        "coordinateScope": "linked-building-reference-point",
        "coordinateSystem": "WGS84",
        "precisionDegrees": 0.00002777777777777778,
        "origin": "wikidata-P625",
        "sourceUrl": "https://www.wikidata.org/wiki/Q11078482",
        "wikipediaUrl": "https://zh.wikipedia.org/wiki/%E6%91%A9%E8%A5%BF%E4%BC%9A%E5%A0%82",
        "wikidataId": "Q11078482",
        "historicalGeometryVerified": false
      }
    },
    {
      "type": "Feature",
      "id": "sh-fgj-4M004-01-reference-1",
      "geometry": {
        "type": "Point",
        "coordinates": [
          121.42375,
          31.2251
        ]
      },
      "properties": {
        "officialId": "sh-fgj-4M004-01",
        "wikipediaId": "wiki-heritage-t05-r0221",
        "batch": 4,
        "officialCodeRaw": "4M004",
        "name": "中一村/中央一村",
        "articleTitle": "中一村",
        "address": "江苏路46弄、54弄、62弄、70弄、78弄",
        "addressComparison": "different-as-listed",
        "coordinateScope": "building-complex-reference-point",
        "coordinateSystem": "WGS84",
        "precisionDegrees": null,
        "origin": "wikipedia-geodata",
        "sourceUrl": "https://zh.wikipedia.org/wiki/%E4%B8%AD%E4%B8%80%E6%9D%91",
        "wikipediaUrl": "https://zh.wikipedia.org/wiki/%E4%B8%AD%E4%B8%80%E6%9D%91",
        "wikidataId": "Q48934581",
        "historicalGeometryVerified": false
      }
    },
    {
      "type": "Feature",
      "id": "sh-fgj-4M006-01-reference-1",
      "geometry": {
        "type": "Point",
        "coordinates": [
          121.42568,
          31.22202
        ]
      },
      "properties": {
        "officialId": "sh-fgj-4M006-01",
        "wikipediaId": "wiki-heritage-t05-r0223",
        "batch": 4,
        "officialCodeRaw": "4M006",
        "name": "安定坊",
        "articleTitle": "安定坊",
        "address": "江苏路284弄3号、5号、7号、9号、10号、11号、12号、14号、15号、16号、17号、18号、19号、27号",
        "addressComparison": "exact",
        "coordinateScope": "building-complex-reference-point",
        "coordinateSystem": "WGS84",
        "precisionDegrees": null,
        "origin": "wikipedia-geodata",
        "sourceUrl": "https://zh.wikipedia.org/wiki/%E5%AE%89%E5%AE%9A%E5%9D%8A",
        "wikipediaUrl": "https://zh.wikipedia.org/wiki/%E5%AE%89%E5%AE%9A%E5%9D%8A",
        "wikidataId": "Q48934535",
        "historicalGeometryVerified": false
      }
    },
    {
      "type": "Feature",
      "id": "sh-fgj-4M007-01-reference-1",
      "geometry": {
        "type": "Point",
        "coordinates": [
          121.42636,
          31.21907
        ]
      },
      "properties": {
        "officialId": "sh-fgj-4M007-01",
        "wikipediaId": "wiki-heritage-t05-r0224",
        "batch": 4,
        "officialCodeRaw": "4M007",
        "name": "月村",
        "articleTitle": "月村",
        "address": "江苏路480弄54、56、58、60、62、66、68、72号，除去90号新公房",
        "addressComparison": "different-as-listed",
        "coordinateScope": "building-complex-reference-point",
        "coordinateSystem": "WGS84",
        "precisionDegrees": null,
        "origin": "wikipedia-geodata",
        "sourceUrl": "https://zh.wikipedia.org/wiki/%E6%9C%88%E6%9D%91",
        "wikipediaUrl": "https://zh.wikipedia.org/wiki/%E6%9C%88%E6%9D%91",
        "wikidataId": "Q48934643",
        "historicalGeometryVerified": false
      }
    },
    {
      "type": "Feature",
      "id": "sh-fgj-4M008-01-reference-1",
      "geometry": {
        "type": "Point",
        "coordinates": [
          121.42765,
          31.21914
        ]
      },
      "properties": {
        "officialId": "sh-fgj-4M008-01",
        "wikipediaId": "wiki-heritage-t05-r0225",
        "batch": 4,
        "officialCodeRaw": "4M008",
        "name": "忆定村",
        "articleTitle": "忆定村",
        "address": "江苏路495弄",
        "addressComparison": "exact",
        "coordinateScope": "building-complex-reference-point",
        "coordinateSystem": "WGS84",
        "precisionDegrees": 0.00001,
        "origin": "wikidata-P625",
        "sourceUrl": "https://www.wikidata.org/wiki/Q48934647",
        "wikipediaUrl": "https://zh.wikipedia.org/wiki/%E5%BF%86%E5%AE%9A%E6%9D%91",
        "wikidataId": "Q48934647",
        "historicalGeometryVerified": false
      }
    },
    {
      "type": "Feature",
      "id": "sh-fgj-4M028-01-reference-1",
      "geometry": {
        "type": "Point",
        "coordinates": [
          121.41799,
          31.21188
        ]
      },
      "properties": {
        "officialId": "sh-fgj-4M028-01",
        "wikipediaId": "wiki-heritage-t05-r0246",
        "batch": 4,
        "officialCodeRaw": "4M028",
        "name": "大西别墅",
        "articleTitle": "大西别墅",
        "address": "延安西路1453弄",
        "addressComparison": "exact",
        "coordinateScope": "building-complex-reference-point",
        "coordinateSystem": "WGS84",
        "precisionDegrees": 0.00001,
        "origin": "wikidata-P625",
        "sourceUrl": "https://www.wikidata.org/wiki/Q54983399",
        "wikipediaUrl": "https://zh.wikipedia.org/wiki/%E5%A4%A7%E8%A5%BF%E5%88%AB%E5%A2%85",
        "wikidataId": "Q54983399",
        "historicalGeometryVerified": false
      }
    },
    {
      "type": "Feature",
      "id": "sh-fgj-5A007-01-reference-1",
      "geometry": {
        "type": "Point",
        "coordinates": [
          121.48166,
          31.24455
        ]
      },
      "properties": {
        "officialId": "sh-fgj-5A007-01",
        "wikipediaId": "wiki-heritage-t06-r0008",
        "batch": 5,
        "officialCodeRaw": "5A007",
        "name": "海青大楼/美国陆海军青年会",
        "articleTitle": "海青大楼",
        "address": "四川中路630号",
        "addressComparison": "exact",
        "coordinateScope": "linked-building-reference-point",
        "coordinateSystem": "WGS84",
        "precisionDegrees": null,
        "origin": "wikipedia-geodata",
        "sourceUrl": "https://zh.wikipedia.org/wiki/%E6%B5%B7%E9%9D%92%E5%A4%A7%E6%A5%BC",
        "wikipediaUrl": "https://zh.wikipedia.org/wiki/%E6%B5%B7%E9%9D%92%E5%A4%A7%E6%A5%BC",
        "wikidataId": "Q55367943",
        "historicalGeometryVerified": false
      }
    },
    {
      "type": "Feature",
      "id": "sh-fgj-5D114-01-reference-1",
      "geometry": {
        "type": "Point",
        "coordinates": [
          121.4573,
          31.16955
        ]
      },
      "properties": {
        "officialId": "sh-fgj-5D114-01",
        "wikipediaId": "wiki-heritage-t07-r0116",
        "batch": 5,
        "officialCodeRaw": "5D114",
        "name": "西岸艺术中心",
        "articleTitle": "西岸艺术中心",
        "address": "龙腾大道2555号",
        "addressComparison": "exact",
        "coordinateScope": "linked-building-reference-point",
        "coordinateSystem": "WGS84",
        "precisionDegrees": null,
        "origin": "wikipedia-geodata",
        "sourceUrl": "https://zh.wikipedia.org/wiki/%E8%A5%BF%E5%B2%B8%E8%89%BA%E6%9C%AF%E4%B8%AD%E5%BF%83",
        "wikipediaUrl": "https://zh.wikipedia.org/wiki/%E8%A5%BF%E5%B2%B8%E8%89%BA%E6%9C%AF%E4%B8%AD%E5%BF%83",
        "wikidataId": "Q24835672",
        "historicalGeometryVerified": false
      }
    },
    {
      "type": "Feature",
      "id": "sh-fgj-5F032-01-reference-1",
      "geometry": {
        "type": "Point",
        "coordinates": [
          121.478,
          31.2526
        ]
      },
      "properties": {
        "officialId": "sh-fgj-5F032-01",
        "wikipediaId": "wiki-heritage-t12-r0036",
        "batch": 5,
        "officialCodeRaw": "5F032",
        "name": "扆虹园",
        "articleTitle": "扆虹园",
        "address": "武进路453-457号(单号)",
        "addressComparison": "different-as-listed",
        "coordinateScope": "linked-building-reference-point",
        "coordinateSystem": "WGS84",
        "precisionDegrees": 0.0001,
        "origin": "wikidata-P625",
        "sourceUrl": "https://www.wikidata.org/wiki/Q131321701",
        "wikipediaUrl": "https://zh.wikipedia.org/wiki/%E6%89%86%E8%99%B9%E5%9B%AD",
        "wikidataId": "Q131321701",
        "historicalGeometryVerified": false
      }
    }
  ]
}
