{
  "type": "FeatureCollection",
  "features": [
    {
      "type": "Feature",
      "geometry": {
        "type": "Point",
        "coordinates": [
          121.452087,
          31.219055
        ]
      },
      "properties": {
        "id": "park-parc-ravinel",
        "featureGroupId": "park-parc-ravinel",
        "kind": "landmark",
        "historicalName": "Parc Ravinel",
        "modernNameZh": "襄阳公园",
        "modernNameEn": "Xiangyang Park",
        "historicalChinese": "蘭維納公園",
        "aliases": [
          "Square Yves de Ravinel",
          "Ravinel Park",
          "杜美公园",
          "泰山公园",
          "林森公园"
        ],
        "jurisdiction": "french-concession",
        "language": "fr",
        "labelYear": 1942,
        "sourceIds": [
          "vs-foreign-parks-history"
        ],
        "category": "现存公园",
        "historicalUse": "park",
        "priority": 1,
        "currentUse": "公园 / 公共开放空间",
        "currentNameZh": "襄阳公园",
        "currentUseMatch": "documented-current-place"
      }
    },
    {
      "type": "Feature",
      "geometry": {
        "type": "Point",
        "coordinates": [
          121.464651,
          31.218665
        ]
      },
      "properties": {
        "id": "park-french-park",
        "featureGroupId": "park-french-park",
        "kind": "landmark",
        "historicalName": "Parc français",
        "modernNameZh": "复兴公园",
        "modernNameEn": "Fuxing Park",
        "historicalChinese": "法國公園",
        "aliases": [
          "French Park",
          "Koukaza Park",
          "Parc de Koukaza",
          "顾家宅公园"
        ],
        "jurisdiction": "french-concession",
        "language": "fr",
        "labelYear": 1909,
        "sourceIds": [
          "stanford-map-1928",
          "vs-parks",
          "vs-foreign-parks-history"
        ],
        "category": "现存公园",
        "historicalUse": "park",
        "priority": 1,
        "currentUse": "公园 / 公共开放空间",
        "currentNameZh": "复兴公园",
        "currentUseMatch": "documented-current-place"
      }
    },
    {
      "type": "Feature",
      "geometry": {
        "type": "Point",
        "coordinates": [
          121.437453,
          31.202519
        ]
      },
      "properties": {
        "id": "park-edan-park",
        "featureGroupId": "park-edan-park",
        "kind": "landmark",
        "historicalName": "Parc Edan",
        "modernNameZh": "衡山公园",
        "modernNameEn": "Hengshan Park",
        "historicalChinese": "愛棠公園",
        "aliases": [
          "Edan Park",
          "Pétain Park",
          "Parc Pétain",
          "貝當公園"
        ],
        "jurisdiction": "french-concession",
        "language": "fr",
        "labelYear": 1926,
        "sourceIds": [
          "vs-parks",
          "vs-foreign-parks-history"
        ],
        "category": "现存公园",
        "historicalUse": "park",
        "priority": 1,
        "currentUse": "公园 / 公共开放空间",
        "currentNameZh": "衡山公园",
        "currentAddress": "广元路、衡山路、宛平路交会处",
        "currentUseNote": "贝当公园于1943年改称衡山公园，园址和公园用途延续至今。",
        "currentUseSourceId": "verified-landmark-current-uses",
        "currentUseSourceUri": "https://zh.wikipedia.org/zh-cn/衡山公园",
        "currentUseMatch": "verified-online-research"
      }
    },
    {
      "type": "Feature",
      "geometry": {
        "type": "Point",
        "coordinates": [
          121.415625,
          31.223321
        ]
      },
      "properties": {
        "id": "park-jessfield-park",
        "featureGroupId": "park-jessfield-park",
        "kind": "landmark",
        "historicalName": "Jessfield Park",
        "modernNameZh": "上海中山公园",
        "modernNameEn": "Zhongshan Park",
        "historicalChinese": "兆豐公園",
        "aliases": [
          "極司非爾公園",
          "兆丰公园",
          "Zhaofeng Park"
        ],
        "jurisdiction": "international-settlement",
        "language": "en",
        "labelYear": 1914,
        "sourceIds": [
          "vs-parks",
          "vs-foreign-parks-history"
        ],
        "category": "现存公园",
        "historicalUse": "park",
        "priority": 1,
        "currentUse": "公园 / 公共开放空间",
        "currentNameZh": "上海中山公园",
        "currentUseMatch": "documented-current-place"
      }
    },
    {
      "type": "Feature",
      "geometry": {
        "type": "Point",
        "coordinates": [
          121.486344,
          31.243691
        ]
      },
      "properties": {
        "id": "park-public-gardens",
        "featureGroupId": "park-public-gardens",
        "kind": "landmark",
        "historicalName": "Public Gardens",
        "modernNameZh": "黄浦公园",
        "modernNameEn": "Huangpu Park",
        "historicalChinese": "外灘公園",
        "aliases": [
          "Public Garden",
          "Bund Gardens",
          "外滩公园"
        ],
        "jurisdiction": "international-settlement",
        "language": "en",
        "labelYear": 1868,
        "sourceIds": [
          "stanford-map-1928",
          "vs-parks",
          "vs-foreign-parks-history"
        ],
        "category": "现存公园",
        "historicalUse": "park",
        "priority": 1,
        "currentUse": "公园 / 公共开放空间",
        "currentNameZh": "黄浦公园",
        "currentUseMatch": "documented-current-place"
      }
    },
    {
      "type": "Feature",
      "geometry": {
        "type": "Point",
        "coordinates": [
          121.478158,
          31.273971
        ]
      },
      "properties": {
        "id": "park-hongkew-park",
        "featureGroupId": "park-hongkew-park",
        "kind": "landmark",
        "historicalName": "Hongkew Park",
        "modernNameZh": "鲁迅公园",
        "modernNameEn": "Lu Xun Park",
        "historicalChinese": "虹口公園",
        "aliases": [
          "New Shooting Range Park",
          "新靶子場公園"
        ],
        "jurisdiction": "international-settlement",
        "language": "en",
        "labelYear": 1922,
        "sourceIds": [
          "sh-hongkew-park-history",
          "vs-foreign-parks-history"
        ],
        "category": "现存公园",
        "historicalUse": "park",
        "priority": 1,
        "currentUse": "公园 / 公共开放空间",
        "currentNameZh": "鲁迅公园",
        "currentUseMatch": "documented-current-place"
      }
    },
    {
      "type": "Feature",
      "geometry": {
        "type": "Point",
        "coordinates": [
          121.468803,
          31.234009
        ]
      },
      "properties": {
        "id": "park-race-course-north",
        "featureGroupId": "park-race-course-north",
        "kind": "landmark",
        "historicalName": "Race Course",
        "modernNameZh": "人民公园",
        "modernNameEn": "People's Park",
        "historicalChinese": "跑馬廳",
        "aliases": [
          "Shanghai Race Course",
          "跑马厅"
        ],
        "jurisdiction": "international-settlement",
        "language": "en",
        "labelYear": 1928,
        "sourceIds": [
          "stanford-map-1928",
          "sh-race-course-history"
        ],
        "category": "现存公园",
        "historicalUse": "racecourse",
        "priority": 1,
        "currentUse": "公园 / 公共开放空间",
        "currentNameZh": "人民公园",
        "currentUseMatch": "documented-current-place"
      }
    },
    {
      "type": "Feature",
      "geometry": {
        "type": "Point",
        "coordinates": [
          121.471544,
          31.231927
        ]
      },
      "properties": {
        "id": "park-race-course-south",
        "featureGroupId": "park-race-course-south",
        "kind": "landmark",
        "historicalName": "Race Course",
        "modernNameZh": "人民广场",
        "modernNameEn": "People's Square",
        "historicalChinese": "跑馬廳",
        "aliases": [
          "Shanghai Race Course",
          "跑马厅"
        ],
        "jurisdiction": "international-settlement",
        "language": "en",
        "labelYear": 1928,
        "sourceIds": [
          "stanford-map-1928",
          "sh-race-course-history"
        ],
        "category": "现存公园",
        "historicalUse": "racecourse",
        "priority": 1,
        "currentUse": "公园 / 公共开放空间",
        "currentNameZh": "人民广场",
        "currentUseMatch": "documented-current-place"
      }
    },
    {
      "type": "Feature",
      "geometry": {
        "type": "Point",
        "coordinates": [
          121.482224,
          31.25091
        ]
      },
      "properties": {
        "id": "park-kunshan-park",
        "featureGroupId": "park-kunshan-park",
        "kind": "landmark",
        "historicalName": "Kunshan Park",
        "modernNameZh": "昆山公园",
        "modernNameEn": "Kunshan Park",
        "historicalChinese": "崑山公園",
        "aliases": [
          "Kunshan Gardens"
        ],
        "jurisdiction": "international-settlement",
        "language": "en",
        "labelYear": 1898,
        "sourceIds": [
          "vs-parks",
          "vs-buildings"
        ],
        "category": "现存公园",
        "historicalUse": "park",
        "priority": 1,
        "sourceUrls": {
          "vs-buildings": "https://www.virtualshanghai.net/数据/建筑?ID=1645"
        },
        "currentUse": "公园 / 公共开放空间",
        "currentNameZh": "昆山公园",
        "currentUseMatch": "documented-current-place"
      }
    },
    {
      "type": "Feature",
      "geometry": {
        "type": "Point",
        "coordinates": [
          121.506692,
          31.255469
        ]
      },
      "properties": {
        "id": "park-studley-park",
        "featureGroupId": "park-studley-park",
        "kind": "landmark",
        "historicalName": "Studley Park",
        "modernNameZh": "霍山公园",
        "modernNameEn": "Huoshan Park",
        "historicalChinese": "斯塔德利公園",
        "aliases": [
          "舟山公園",
          "Zhoushan Park"
        ],
        "jurisdiction": "international-settlement",
        "language": "en",
        "labelYear": 1917,
        "sourceIds": [
          "vs-parks",
          "vs-foreign-parks-history"
        ],
        "category": "现存公园",
        "historicalUse": "park",
        "priority": 1,
        "currentUse": "公园 / 公共开放空间",
        "currentNameZh": "霍山公园",
        "currentUseMatch": "documented-current-place"
      }
    },
    {
      "type": "Feature",
      "geometry": {
        "type": "Point",
        "coordinates": [
          121.455166,
          31.272416
        ]
      },
      "properties": {
        "id": "park-song-park",
        "featureGroupId": "park-song-park",
        "kind": "landmark",
        "historicalName": "Song Park",
        "modernNameZh": "闸北公园",
        "modernNameEn": "Zhabei Park",
        "historicalChinese": "宋公園",
        "aliases": [
          "宋公园",
          "宋教仁墓園",
          "Sung Chiao-jen Cemetery",
          "Sung Park"
        ],
        "jurisdiction": "chinese-administered",
        "language": "en",
        "labelYear": 1924,
        "sourceIds": [
          "sh-song-park-history"
        ],
        "category": "现存公园",
        "historicalUse": "cemetery",
        "namingBasis": "translated",
        "priority": 1,
        "currentUse": "公园 / 公共开放空间",
        "currentNameZh": "闸北公园",
        "currentUseMatch": "documented-current-place"
      }
    },
    {
      "type": "Feature",
      "geometry": {
        "type": "Point",
        "coordinates": [
          121.429975,
          31.191543
        ]
      },
      "properties": {
        "id": "park-xu-guangqi-tomb",
        "featureGroupId": "park-xu-guangqi-tomb",
        "kind": "landmark",
        "historicalName": "Hsü Kuang-ch'i's Tomb",
        "modernNameZh": "光启公园",
        "modernNameEn": "Guangqi Park",
        "historicalChinese": "徐光啟墓",
        "aliases": [
          "徐光启墓",
          "Xu Guangqi's Tomb"
        ],
        "jurisdiction": "chinese-administered",
        "language": "en",
        "labelYear": 1928,
        "sourceIds": [
          "stanford-map-1928",
          "sh-xu-guangqi-tomb-history"
        ],
        "category": "现存公园",
        "historicalUse": "cemetery",
        "namingBasis": "translated",
        "priority": 1,
        "currentUse": "公园 / 公共开放空间",
        "currentNameZh": "光启公园",
        "currentUseMatch": "documented-current-place"
      }
    },
    {
      "type": "Feature",
      "geometry": {
        "type": "Point",
        "coordinates": [
          121.457655,
          31.213834
        ]
      },
      "properties": {
        "id": "park-canidrome",
        "featureGroupId": "park-canidrome",
        "kind": "landmark",
        "historicalName": "Le Canidrome",
        "modernNameZh": "上海文化广场",
        "modernNameEn": "Shanghai Culture Square",
        "historicalChinese": "逸園跑狗場",
        "aliases": [
          "Canidrome",
          "Canidrome Club",
          "Champ de Courses Français",
          "逸园跑狗场",
          "逸園"
        ],
        "jurisdiction": "french-concession",
        "language": "fr",
        "labelYear": 1928,
        "sourceIds": [
          "sh-canidrome-history"
        ],
        "category": "现存公园",
        "historicalUse": "recreation",
        "priority": 1,
        "currentUse": "文化演艺设施 / 公共空间",
        "currentNameZh": "上海文化广场",
        "currentUseMatch": "documented-current-place"
      }
    },
    {
      "type": "Feature",
      "geometry": {
        "type": "Point",
        "coordinates": [
          121.406152,
          31.197344
        ]
      },
      "properties": {
        "id": "park-international-cemetery",
        "featureGroupId": "park-international-cemetery",
        "kind": "landmark",
        "historicalName": "International Cemetery",
        "modernNameZh": "宋庆龄陵园",
        "modernNameEn": "Soong Ching Ling Mausoleum",
        "historicalChinese": "萬國公墓",
        "aliases": [
          "Shanghai International Cemetery",
          "万国公墓"
        ],
        "jurisdiction": "international-settlement",
        "language": "en",
        "labelYear": 1916,
        "sourceIds": [
          "sh-international-cemetery-history",
          "vs-parks"
        ],
        "category": "现存公园",
        "historicalUse": "cemetery",
        "priority": 1,
        "currentUse": "纪念设施 / 陵园",
        "currentNameZh": "宋庆龄陵园",
        "currentUseMatch": "documented-current-place"
      }
    },
    {
      "type": "Feature",
      "geometry": {
        "type": "Point",
        "coordinates": [
          121.413297,
          31.16726
        ]
      },
      "properties": {
        "id": "park-huang-family-garden",
        "featureGroupId": "park-huang-family-garden",
        "kind": "landmark",
        "historicalName": "Huang Family Garden",
        "modernNameZh": "桂林公园",
        "modernNameEn": "Guilin Park",
        "historicalChinese": "黃家花園",
        "aliases": [
          "黄家花园",
          "Whang Family Garden"
        ],
        "jurisdiction": "chinese-administered",
        "language": "en",
        "labelYear": 1931,
        "sourceIds": [
          "sh-huang-family-garden-history"
        ],
        "category": "现存公园",
        "historicalUse": "garden",
        "namingBasis": "translated",
        "priority": 1,
        "currentUse": "公园 / 公共开放空间",
        "currentNameZh": "桂林公园",
        "currentUseMatch": "documented-current-place"
      }
    },
    {
      "type": "Feature",
      "geometry": {
        "type": "Point",
        "coordinates": [
          121.55811,
          31.288586
        ]
      },
      "properties": {
        "id": "park-junpu-athletic-club",
        "featureGroupId": "park-junpu-athletic-club",
        "kind": "landmark",
        "historicalName": "Whangpoo Conservancy Board Club",
        "modernNameZh": "复兴岛公园",
        "modernNameEn": "Fuxing Island Park",
        "historicalChinese": "浚浦局體育會",
        "aliases": [
          "浚浦局体育会",
          "浚浦局職員俱樂部",
          "Whangpoo Conservancy Board Athletic Club",
          "Whangpoo Conservancy Board Recreation Ground"
        ],
        "jurisdiction": "chinese-administered",
        "language": "en",
        "labelYear": 1930,
        "sourceIds": [
          "sh-junpu-club-history",
          "vs-whangpoo-board-1920"
        ],
        "category": "现存公园",
        "historicalUse": "recreation",
        "namingBasis": "translated",
        "priority": 1,
        "currentUse": "公园 / 公共开放空间",
        "currentNameZh": "复兴岛公园",
        "currentUseMatch": "documented-current-place"
      }
    },
    {
      "type": "Feature",
      "geometry": {
        "type": "Point",
        "coordinates": [
          121.444266,
          31.177661
        ]
      },
      "properties": {
        "id": "park-longhua-garrison",
        "featureGroupId": "park-longhua-garrison",
        "kind": "landmark",
        "historicalName": "Songhu Garrison Command",
        "modernNameZh": "龙华烈士陵园",
        "modernNameEn": "Longhua Martyrs Cemetery",
        "historicalChinese": "淞滬警備司令部",
        "aliases": [
          "淞沪警备司令部",
          "Longhua Garrison Command",
          "Shanghai-Woosung Garrison Command",
          "龍華就義地"
        ],
        "jurisdiction": "chinese-administered",
        "language": "en",
        "labelYear": 1927,
        "sourceIds": [
          "sh-longhua-garrison-history"
        ],
        "category": "现存公园",
        "historicalUse": "military",
        "namingBasis": "translated",
        "priority": 1,
        "currentUse": "纪念设施 / 陵园",
        "currentNameZh": "龙华烈士陵园",
        "currentUseMatch": "documented-current-place"
      }
    },
    {
      "type": "Feature",
      "geometry": {
        "type": "Point",
        "coordinates": [
          121.487975,
          31.228927
        ]
      },
      "properties": {
        "id": "park-yu-garden",
        "featureGroupId": "park-yu-garden",
        "kind": "landmark",
        "historicalName": "Yu Garden",
        "modernNameZh": "豫园",
        "modernNameEn": "Yu Garden",
        "historicalChinese": "豫園",
        "aliases": [
          "Yu Yuan Garden",
          "豫園"
        ],
        "jurisdiction": "old-city",
        "language": "en",
        "labelYear": 1928,
        "sourceIds": [
          "stanford-map-1928"
        ],
        "category": "现存公园",
        "historicalUse": "garden",
        "namingBasis": "translated",
        "priority": 1,
        "currentUse": "历史园林 / 旅游景点",
        "currentNameZh": "豫园",
        "currentUseMatch": "documented-current-place"
      }
    },
    {
      "type": "Feature",
      "geometry": {
        "type": "Point",
        "coordinates": [
          121.487058,
          31.20831
        ]
      },
      "properties": {
        "id": "park-tatung-school-grounds",
        "featureGroupId": "park-tatung-school-grounds",
        "kind": "landmark",
        "historicalName": "Tatung School Grounds",
        "modernNameZh": "蓬莱公园",
        "modernNameEn": "Penglai Park",
        "historicalChinese": "大同中學校園",
        "aliases": [
          "Tatung School",
          "大同中学"
        ],
        "jurisdiction": "chinese-administered",
        "language": "en",
        "labelYear": 1928,
        "sourceIds": [
          "sh-penglai-park-history"
        ],
        "category": "现存公园",
        "historicalUse": "school",
        "namingBasis": "translated",
        "priority": 1,
        "currentUse": "公园 / 公共开放空间",
        "currentNameZh": "蓬莱公园",
        "currentUseMatch": "documented-current-place"
      }
    },
    {
      "type": "Feature",
      "geometry": {
        "type": "Point",
        "coordinates": [
          121.431434,
          31.174003
        ]
      },
      "properties": {
        "id": "park-tsao-family-garden",
        "featureGroupId": "park-tsao-family-garden",
        "kind": "landmark",
        "historicalName": "Tsao Family Garden",
        "modernNameZh": "漕溪公园",
        "modernNameEn": "Caoxi Park",
        "historicalChinese": "曹家花園",
        "aliases": [
          "Cao Family Garden",
          "曹家花园",
          "曹氏祖茔"
        ],
        "jurisdiction": "chinese-administered",
        "language": "en",
        "labelYear": 1935,
        "sourceIds": [
          "sh-caoxi-park-history"
        ],
        "category": "现存公园",
        "historicalUse": "garden",
        "namingBasis": "translated",
        "priority": 1,
        "currentUse": "公园 / 公共开放空间",
        "currentNameZh": "漕溪公园",
        "currentUseMatch": "documented-current-place"
      }
    },
    {
      "type": "Feature",
      "geometry": {
        "type": "Point",
        "coordinates": [
          121.417809,
          31.165833
        ]
      },
      "properties": {
        "id": "park-kang-chien-garden",
        "featureGroupId": "park-kang-chien-garden",
        "kind": "landmark",
        "historicalName": "Kang Chien Garden",
        "modernNameZh": "康健园",
        "modernNameEn": "Kangjian Garden",
        "historicalChinese": "康健園",
        "aliases": [
          "Kangjian Garden",
          "康健园农场",
          "科普公园"
        ],
        "jurisdiction": "chinese-administered",
        "language": "en",
        "labelYear": 1937,
        "sourceIds": [
          "sh-kangchien-garden-history"
        ],
        "category": "现存公园",
        "historicalUse": "garden",
        "namingBasis": "translated",
        "priority": 1,
        "currentUse": "公园 / 公共开放空间",
        "currentNameZh": "康健园",
        "currentUseMatch": "documented-current-place"
      }
    },
    {
      "type": "Feature",
      "geometry": {
        "type": "Point",
        "coordinates": [
          121.437662,
          31.217825
        ]
      },
      "properties": {
        "id": "park-chow-family-garden",
        "featureGroupId": "park-chow-family-garden",
        "kind": "landmark",
        "historicalName": "Jardin de la famille Chow",
        "modernNameZh": "华山花园",
        "modernNameEn": "Huashan Garden",
        "historicalChinese": "周家花園（純廬）",
        "aliases": [
          "Chow Family Garden",
          "Chou Family Garden",
          "Chun Lu",
          "周家花园",
          "纯庐"
        ],
        "jurisdiction": "french-concession",
        "language": "fr",
        "labelYear": 1928,
        "sourceIds": [
          "sh-chow-family-garden-history"
        ],
        "category": "现存私家花园",
        "historicalUse": "garden",
        "namingBasis": "translated",
        "priority": 1,
        "currentUse": "历史花园",
        "currentNameZh": "华山花园",
        "currentUseMatch": "documented-current-place"
      }
    },
    {
      "type": "Feature",
      "geometry": {
        "type": "Point",
        "coordinates": [
          121.44254,
          31.21214
        ]
      },
      "properties": {
        "id": "park-paul-brunat-square",
        "featureGroupId": "park-paul-brunat-square",
        "kind": "landmark",
        "historicalName": "Square Paul Brunat",
        "modernNameZh": "聂耳音乐广场",
        "modernNameEn": "Nie Er Music Square",
        "historicalChinese": "寶昌公園",
        "aliases": [
          "Paul Brunat Square",
          "宝昌公园",
          "聂耳绿地"
        ],
        "jurisdiction": "french-concession",
        "language": "fr",
        "labelYear": 1924,
        "sourceIds": [
          "vs-parks",
          "sh-paul-brunat-square-history"
        ],
        "category": "现存公园",
        "historicalUse": "park",
        "labelFromFeature": true,
        "priority": 1,
        "currentUse": "公园 / 公共开放空间",
        "currentNameZh": "聂耳音乐广场",
        "currentUseMatch": "documented-current-place"
      }
    }
  ]
}
