{"type":"FeatureCollection","features":[{"type":"Feature","geometry":{"type":"Polygon","coordinates":[[[121.458369,31.226121],[121.458373,31.225922],[121.457153,31.22586],[121.456831,31.225843],[121.456002,31.225814],[121.454118,31.225893],[121.451831,31.225915],[121.451187,31.225907],[121.450447,31.225856],[121.449533,31.225626],[121.448941,31.22544],[121.44666,31.224523],[121.444767,31.223835],[121.444416,31.223669],[121.443705,31.223408],[121.44304,31.223226],[121.442246,31.223068],[121.441452,31.22295],[121.44075,31.222847],[121.43997,31.222695],[121.439614,31.222625],[121.439302,31.22243],[121.438387,31.221858],[121.438372,31.221922],[121.438328,31.222116],[121.438027,31.223437],[121.437621,31.224124],[121.437363,31.224772],[121.437067,31.225229],[121.436541,31.225577],[121.435987,31.226106],[121.435497,31.226659],[121.435738,31.226927],[121.436088,31.227203],[121.435756,31.227306],[121.434747,31.227442],[121.435394,31.227837],[121.435892,31.228034],[121.43677,31.228484],[121.437462,31.229274],[121.438434,31.229848],[121.441722,31.231379],[121.443122,31.232358],[121.445135,31.23322],[121.447121,31.234169],[121.448765,31.234699],[121.450852,31.235165],[121.45245,31.235505],[121.452681,31.235608],[121.453521,31.236122],[121.454927,31.236894],[121.455226,31.237471],[121.455712,31.236578],[121.456451,31.23485],[121.457074,31.233357],[121.45727,31.233039],[121.456808,31.23296],[121.456503,31.232857],[121.456741,31.232226],[121.458188,31.228867],[121.458345,31.22724],[121.458369,31.226121]]]},"properties":{"id":"international-settlement-0","jurisdiction":"international-settlement","sourceId":"vs-is-districts-1928"}},{"type":"Feature","geometry":{"type":"Polygon","coordinates":[[[121.486431,31.237822],[121.486529,31.237577],[121.487063,31.236601],[121.48748,31.235839],[121.487718,31.23553],[121.487051,31.235281],[121.486688,31.235118],[121.485965,31.234866],[121.485381,31.234495],[121.485199,31.234354],[121.484956,31.234189],[121.484588,31.234036],[121.484035,31.233934],[121.483534,31.233768],[121.48316,31.233616],[121.482444,31.233081],[121.482176,31.232991],[121.481788,31.232991],[121.481555,31.233004],[121.481187,31.23308],[121.480292,31.233187],[121.480275,31.233292],[121.48025,31.233443],[121.480176,31.23389],[121.480158,31.234002],[121.480058,31.234606],[121.480023,31.234848],[121.479973,31.235137],[121.47979,31.235791],[121.479742,31.2364],[121.478816,31.236123],[121.478387,31.237346],[121.477971,31.238026],[121.477747,31.238642],[121.477504,31.239007],[121.477193,31.23979],[121.476755,31.240636],[121.476503,31.241181],[121.47626,31.241735],[121.476215,31.242049],[121.476189,31.24216],[121.476134,31.242393],[121.476905,31.242809],[121.477578,31.243351],[121.478174,31.243996],[121.479561,31.245274],[121.4802,31.24571],[121.480927,31.246069],[121.481888,31.246304],[121.482951,31.246262],[121.484455,31.245828],[121.485463,31.245491],[121.487367,31.244853],[121.486977,31.244415],[121.486674,31.243885],[121.486291,31.242903],[121.486247,31.242699],[121.486001,31.24156],[121.485996,31.241315],[121.485993,31.241173],[121.485974,31.240308],[121.485996,31.240113],[121.486106,31.239152],[121.486133,31.23892],[121.486159,31.238502],[121.486431,31.237822]]]},"properties":{"id":"international-settlement-1","jurisdiction":"international-settlement","sourceId":"vs-is-districts-1928"}},{"type":"Feature","geometry":{"type":"Polygon","coordinates":[[[121.452154,31.239963],[121.452514,31.239929],[121.452989,31.240013],[121.453583,31.240209],[121.453865,31.240379],[121.453963,31.240154],[121.453987,31.240099],[121.454209,31.239597],[121.454274,31.239413],[121.454579,31.238781],[121.455226,31.237471],[121.454927,31.236894],[121.453521,31.236122],[121.452681,31.235608],[121.45245,31.235505],[121.450852,31.235165],[121.448765,31.234699],[121.447121,31.234169],[121.445135,31.23322],[121.443122,31.232358],[121.441722,31.231379],[121.438434,31.229848],[121.437462,31.229274],[121.436466,31.230519],[121.436363,31.230648],[121.435874,31.231255],[121.435536,31.231675],[121.434812,31.232574],[121.434295,31.233229],[121.433131,31.234919],[121.431802,31.236853],[121.431349,31.237635],[121.432365,31.238172],[121.432947,31.238938],[121.433797,31.23938],[121.435099,31.239893],[121.435699,31.240146],[121.436909,31.240919],[121.437796,31.241409],[121.439357,31.242381],[121.439447,31.242437],[121.441017,31.243384],[121.442301,31.24389],[121.444277,31.244458],[121.444785,31.244931],[121.444856,31.245029],[121.445009,31.245243],[121.445509,31.244914],[121.446943,31.244029],[121.447924,31.243425],[121.448451,31.243014],[121.448929,31.242477],[121.449984,31.241379],[121.45086,31.240607],[121.451461,31.240227],[121.451889,31.240029],[121.452154,31.239963]]]},"properties":{"id":"international-settlement-2","jurisdiction":"international-settlement","sourceId":"vs-is-districts-1928"}},{"type":"Feature","geometry":{"type":"Polygon","coordinates":[[[121.474121,31.24231],[121.475147,31.24216],[121.475623,31.242218],[121.476134,31.242393],[121.476189,31.24216],[121.476215,31.242049],[121.47626,31.241735],[121.476503,31.241181],[121.476755,31.240636],[121.477193,31.23979],[121.477504,31.239007],[121.477747,31.238642],[121.477971,31.238026],[121.478387,31.237346],[121.478816,31.236123],[121.479742,31.2364],[121.47979,31.235791],[121.479973,31.235137],[121.480023,31.234848],[121.480058,31.234606],[121.480158,31.234002],[121.480176,31.23389],[121.48025,31.233443],[121.480275,31.233292],[121.480292,31.233187],[121.479587,31.233131],[121.479172,31.233047],[121.478498,31.232854],[121.477961,31.232726],[121.477479,31.232565],[121.476838,31.23225],[121.475955,31.231835],[121.475377,31.231524],[121.474649,31.231114],[121.473916,31.230671],[121.473671,31.230494],[121.473562,31.230657],[121.473468,31.230797],[121.472365,31.232438],[121.472013,31.233035],[121.471784,31.233356],[121.471597,31.233619],[121.470708,31.234971],[121.470286,31.235663],[121.469591,31.236652],[121.469095,31.238386],[121.468826,31.238979],[121.468688,31.239768],[121.468563,31.240091],[121.468264,31.240796],[121.467607,31.24182],[121.467555,31.241895],[121.467382,31.242144],[121.468852,31.243038],[121.469342,31.243229],[121.469883,31.243465],[121.470493,31.243532],[121.470962,31.243523],[121.471689,31.243459],[121.472812,31.243003],[121.474121,31.24231]]]},"properties":{"id":"international-settlement-3","jurisdiction":"international-settlement","sourceId":"vs-is-districts-1928"}},{"type":"Feature","geometry":{"type":"Polygon","coordinates":[[[121.43857,31.251558],[121.438985,31.25156],[121.439522,31.25159],[121.440397,31.251675],[121.441349,31.251784],[121.442186,31.251892],[121.442922,31.252047],[121.443704,31.252388],[121.444618,31.252804],[121.445013,31.252891],[121.445408,31.252899],[121.445717,31.252759],[121.445818,31.252581],[121.445841,31.251226],[121.445764,31.25032],[121.445493,31.249607],[121.445143,31.249043],[121.444463,31.248264],[121.443533,31.247388],[121.443353,31.246983],[121.443355,31.246688],[121.443557,31.246362],[121.444129,31.245821],[121.445009,31.245243],[121.444856,31.245029],[121.444785,31.244931],[121.444277,31.244458],[121.442301,31.24389],[121.441017,31.243384],[121.439447,31.242437],[121.439357,31.242381],[121.437796,31.241409],[121.436909,31.240919],[121.435699,31.240146],[121.435099,31.239893],[121.433797,31.23938],[121.432947,31.238938],[121.431928,31.239523],[121.43086,31.240138],[121.431562,31.241196],[121.431892,31.241642],[121.432704,31.242343],[121.431157,31.244572],[121.429349,31.247058],[121.429055,31.24725],[121.428886,31.247361],[121.429022,31.247594],[121.429058,31.247662],[121.429116,31.247929],[121.429018,31.24887],[121.428895,31.250201],[121.428855,31.250742],[121.428855,31.250946],[121.428917,31.251102],[121.429015,31.251232],[121.429185,31.251328],[121.429414,31.251384],[121.429607,31.251378],[121.42985,31.251319],[121.430351,31.251102],[121.431524,31.250332],[121.432178,31.2499],[121.432352,31.249829],[121.432541,31.249795],[121.432697,31.249813],[121.43285,31.249894],[121.432926,31.249966],[121.433218,31.250611],[121.433907,31.252135],[121.434371,31.253166],[121.434644,31.254072],[121.434745,31.254493],[121.434891,31.254699],[121.435103,31.254924],[121.435537,31.254986],[121.435988,31.25492],[121.436428,31.254607],[121.436725,31.254175],[121.436978,31.253685],[121.437073,31.253191],[121.437095,31.252743],[121.437197,31.252334],[121.437335,31.252045],[121.437542,31.251865],[121.43797,31.251651],[121.438254,31.251583],[121.43857,31.251558]]]},"properties":{"id":"international-settlement-4","jurisdiction":"international-settlement","sourceId":"vs-is-districts-1928"}},{"type":"Feature","geometry":{"type":"Polygon","coordinates":[[[121.494533,31.259656],[121.495041,31.258662],[121.495457,31.257942],[121.495826,31.257305],[121.495863,31.256453],[121.494971,31.256078],[121.494533,31.255893],[121.493812,31.255554],[121.492842,31.255294],[121.493263,31.254699],[121.491582,31.253768],[121.49125,31.253498],[121.490325,31.253116],[121.489331,31.253022],[121.488889,31.252891],[121.488481,31.2527],[121.487865,31.252314],[121.487839,31.2523],[121.487746,31.252251],[121.487135,31.252748],[121.48693,31.252994],[121.48692,31.25345],[121.487187,31.254361],[121.487285,31.255047],[121.487216,31.255467],[121.487065,31.255727],[121.486666,31.255942],[121.484928,31.25642],[121.484141,31.256636],[121.483758,31.256903],[121.483528,31.257175],[121.483131,31.257478],[121.483163,31.257543],[121.483183,31.257585],[121.484553,31.258617],[121.48472,31.258743],[121.485662,31.258609],[121.48766,31.259483],[121.487708,31.25948],[121.487786,31.259476],[121.487856,31.259472],[121.487896,31.25947],[121.49055,31.260275],[121.491617,31.260598],[121.492864,31.260966],[121.493764,31.26034],[121.494089,31.260114],[121.494533,31.259656]]]},"properties":{"id":"international-settlement-5","jurisdiction":"international-settlement","sourceId":"vs-is-districts-1928"}},{"type":"Feature","geometry":{"type":"Polygon","coordinates":[[[121.484928,31.25642],[121.486666,31.255942],[121.487065,31.255727],[121.487216,31.255467],[121.487285,31.255047],[121.487187,31.254361],[121.48692,31.25345],[121.48693,31.252994],[121.487135,31.252748],[121.487746,31.252251],[121.487839,31.2523],[121.487865,31.252314],[121.488481,31.2527],[121.488889,31.252891],[121.489331,31.253022],[121.490325,31.253116],[121.49125,31.253498],[121.491582,31.253768],[121.492174,31.252959],[121.49282,31.252048],[121.493342,31.251344],[121.493984,31.250478],[121.49488,31.249145],[121.495021,31.248934],[121.493359,31.248234],[121.491837,31.247617],[121.491299,31.247399],[121.491075,31.247602],[121.490811,31.247489],[121.490736,31.247451],[121.490654,31.247411],[121.490604,31.247384],[121.490066,31.24708],[121.489562,31.246793],[121.488801,31.246236],[121.488387,31.245923],[121.488179,31.245765],[121.487367,31.244853],[121.485463,31.245491],[121.484455,31.245828],[121.482951,31.246262],[121.481888,31.246304],[121.480927,31.246069],[121.4802,31.24571],[121.479561,31.245274],[121.478174,31.243996],[121.478076,31.244236],[121.478055,31.244287],[121.477668,31.24534],[121.477494,31.245782],[121.477131,31.247766],[121.476903,31.248433],[121.476731,31.248826],[121.476491,31.249868],[121.476241,31.250358],[121.475484,31.251084],[121.47469,31.251921],[121.474385,31.252229],[121.474603,31.252392],[121.476083,31.253046],[121.476565,31.253271],[121.47671,31.252986],[121.477835,31.253352],[121.478736,31.253871],[121.479442,31.254298],[121.480453,31.254617],[121.48041,31.254855],[121.480731,31.255132],[121.480688,31.25529],[121.480589,31.255403],[121.480863,31.255641],[121.481543,31.25642],[121.481997,31.256098],[121.482535,31.257193],[121.482711,31.257563],[121.482774,31.257698],[121.482934,31.258035],[121.482916,31.257784],[121.483131,31.257478],[121.483528,31.257175],[121.483758,31.256903],[121.484141,31.256636],[121.484928,31.25642]]]},"properties":{"id":"international-settlement-6","jurisdiction":"international-settlement","sourceId":"vs-is-districts-1928"}},{"type":"Feature","geometry":{"type":"Polygon","coordinates":[[[121.463883,31.241324],[121.464785,31.241188],[121.465223,31.24125],[121.465506,31.241284],[121.465696,31.241336],[121.466176,31.241466],[121.467382,31.242144],[121.467555,31.241895],[121.467607,31.24182],[121.468264,31.240796],[121.468563,31.240091],[121.468688,31.239768],[121.468826,31.238979],[121.469095,31.238386],[121.469591,31.236652],[121.470286,31.235663],[121.470708,31.234971],[121.471597,31.233619],[121.471784,31.233356],[121.472013,31.233035],[121.472365,31.232438],[121.473468,31.230797],[121.473562,31.230657],[121.473671,31.230494],[121.472458,31.229826],[121.47125,31.22915],[121.47039,31.228635],[121.469556,31.228316],[121.468288,31.22784],[121.467754,31.227612],[121.468212,31.226566],[121.468464,31.226006],[121.467911,31.225847],[121.467061,31.225636],[121.466066,31.225473],[121.465542,31.225549],[121.465384,31.225582],[121.464953,31.225671],[121.464601,31.225743],[121.464319,31.225834],[121.463713,31.225925],[121.463266,31.225855],[121.462625,31.22578],[121.462158,31.225751],[121.461693,31.225763],[121.460469,31.225793],[121.459405,31.225895],[121.458373,31.225922],[121.458369,31.226121],[121.458345,31.22724],[121.458188,31.228867],[121.456741,31.232226],[121.456503,31.232857],[121.456808,31.23296],[121.45727,31.233039],[121.457074,31.233357],[121.456451,31.23485],[121.455712,31.236578],[121.455226,31.237471],[121.454579,31.238781],[121.454274,31.239413],[121.454209,31.239597],[121.453987,31.240099],[121.453963,31.240154],[121.453865,31.240379],[121.454455,31.240735],[121.455211,31.241525],[121.45584,31.242347],[121.456622,31.242895],[121.457495,31.243191],[121.458128,31.243303],[121.458911,31.243379],[121.459972,31.243225],[121.461157,31.242893],[121.461851,31.242476],[121.462597,31.241971],[121.463179,31.241636],[121.463883,31.241324]]]},"properties":{"id":"international-settlement-7","jurisdiction":"international-settlement","sourceId":"vs-is-districts-1928"}},{"type":"Feature","geometry":{"type":"Polygon","coordinates":[[[121.518918,31.25237],[121.518984,31.251198],[121.518996,31.25098],[121.516973,31.250967],[121.51453,31.251104],[121.51172,31.251209],[121.511202,31.251252],[121.509728,31.251304],[121.507849,31.251335],[121.505286,31.251301],[121.503925,31.251166],[121.502765,31.251055],[121.502172,31.250995],[121.501396,31.250854],[121.500452,31.250655],[121.499179,31.250351],[121.498299,31.250107],[121.497031,31.249701],[121.495021,31.248934],[121.49488,31.249145],[121.493984,31.250478],[121.493342,31.251344],[121.49282,31.252048],[121.492174,31.252959],[121.491582,31.253768],[121.493263,31.254699],[121.492842,31.255294],[121.493812,31.255554],[121.494533,31.255893],[121.494971,31.256078],[121.495863,31.256453],[121.495826,31.257305],[121.495457,31.257942],[121.495041,31.258662],[121.494533,31.259656],[121.494089,31.260114],[121.493764,31.26034],[121.492864,31.260966],[121.494637,31.261517],[121.495212,31.261707],[121.497289,31.262539],[121.499278,31.26335],[121.500972,31.263705],[121.501801,31.264055],[121.503589,31.264809],[121.504786,31.265159],[121.505902,31.265486],[121.508098,31.266037],[121.508646,31.266174],[121.510663,31.26668],[121.511797,31.265691],[121.513164,31.263821],[121.513968,31.262922],[121.514533,31.262088],[121.515122,31.26102],[121.515684,31.260031],[121.515261,31.259825],[121.516103,31.258654],[121.516897,31.257438],[121.518069,31.256096],[121.51876,31.255046],[121.518808,31.25451],[121.518667,31.25449],[121.518918,31.25237]]]},"properties":{"id":"international-settlement-8","jurisdiction":"international-settlement","sourceId":"vs-is-districts-1928"}},{"type":"Feature","geometry":{"type":"Polygon","coordinates":[[[121.478174,31.243996],[121.477578,31.243351],[121.476905,31.242809],[121.476134,31.242393],[121.475623,31.242218],[121.475147,31.24216],[121.474121,31.24231],[121.472812,31.243003],[121.471689,31.243459],[121.470962,31.243523],[121.470493,31.243532],[121.469883,31.243465],[121.469342,31.243229],[121.468852,31.243038],[121.467382,31.242144],[121.467202,31.242402],[121.467145,31.242485],[121.467062,31.242628],[121.466849,31.242991],[121.466683,31.244264],[121.466545,31.245371],[121.466305,31.246912],[121.466429,31.246938],[121.467838,31.247228],[121.468626,31.247387],[121.469215,31.247505],[121.469418,31.247564],[121.468986,31.248499],[121.470102,31.248936],[121.469564,31.249844],[121.469151,31.250541],[121.469953,31.250894],[121.47134,31.251505],[121.473613,31.252058],[121.474057,31.252156],[121.474385,31.252229],[121.47469,31.251921],[121.475484,31.251084],[121.476241,31.250358],[121.476491,31.249868],[121.476731,31.248826],[121.476903,31.248433],[121.477131,31.247766],[121.477494,31.245782],[121.477668,31.24534],[121.478055,31.244287],[121.478076,31.244236],[121.478174,31.243996]]]},"properties":{"id":"international-settlement-9","jurisdiction":"international-settlement","sourceId":"vs-is-districts-1928"}},{"type":"Feature","geometry":{"type":"Polygon","coordinates":[[[121.554002,31.280509],[121.554522,31.279519],[121.554895,31.278749],[121.554959,31.278415],[121.555227,31.277013],[121.555757,31.276583],[121.555672,31.275703],[121.555553,31.27337],[121.555547,31.27177],[121.554365,31.270639],[121.55167,31.268178],[121.549342,31.266291],[121.548105,31.265273],[121.545978,31.263509],[121.54222,31.26077],[121.539039,31.258664],[121.538381,31.258167],[121.536357,31.256914],[121.532743,31.254684],[121.532316,31.254429],[121.531971,31.254239],[121.531755,31.254128],[121.530815,31.253623],[121.529321,31.253055],[121.528365,31.252716],[121.527103,31.252327],[121.525409,31.251905],[121.524144,31.251662],[121.520513,31.251073],[121.518996,31.25098],[121.518984,31.251198],[121.518918,31.25237],[121.518667,31.25449],[121.518808,31.25451],[121.51876,31.255046],[121.518069,31.256096],[121.516897,31.257438],[121.516103,31.258654],[121.515261,31.259825],[121.515684,31.260031],[121.515122,31.26102],[121.514533,31.262088],[121.513968,31.262922],[121.513164,31.263821],[121.511797,31.265691],[121.510663,31.26668],[121.513345,31.267344],[121.515505,31.267892],[121.517608,31.268421],[121.519883,31.269025],[121.521683,31.26954],[121.522239,31.269718],[121.522307,31.269749],[121.522413,31.269799],[121.52306,31.270067],[121.523605,31.270305],[121.524014,31.270476],[121.524496,31.270669],[121.525075,31.270896],[121.525744,31.271198],[121.52635,31.271472],[121.526711,31.271635],[121.527935,31.272188],[121.528052,31.272241],[121.528317,31.272355],[121.533271,31.274266],[121.53351,31.274358],[121.535319,31.275035],[121.539062,31.276532],[121.543365,31.278147],[121.545618,31.278992],[121.548346,31.279768],[121.55069,31.279765],[121.552522,31.280176],[121.554002,31.280509]]]},"properties":{"id":"international-settlement-10","jurisdiction":"international-settlement","sourceId":"vs-is-districts-1928"}},{"type":"Feature","geometry":{"type":"Polygon","coordinates":[[[121.454118,31.225893],[121.456002,31.225814],[121.456831,31.225843],[121.457153,31.22586],[121.458373,31.225922],[121.458301,31.22475],[121.458331,31.224311],[121.45847,31.223222],[121.458678,31.222184],[121.459214,31.220855],[121.459451,31.219556],[121.459737,31.218451],[121.459931,31.217574],[121.460116,31.216753],[121.461059,31.213785],[121.461253,31.212325],[121.461706,31.211014],[121.461845,31.210438],[121.462113,31.20923],[121.462326,31.208325],[121.462584,31.207225],[121.461935,31.206909],[121.461514,31.206704],[121.461191,31.206536],[121.460424,31.206136],[121.459409,31.205622],[121.458006,31.205378],[121.457276,31.205299],[121.455974,31.205039],[121.454783,31.204762],[121.453671,31.204356],[121.451895,31.203902],[121.451326,31.203756],[121.451093,31.203671],[121.44839,31.202683],[121.445454,31.201654],[121.44426,31.201268],[121.44275,31.200889],[121.441557,31.200523],[121.441197,31.200007],[121.44092,31.199881],[121.440468,31.199526],[121.439727,31.199117],[121.438294,31.19823],[121.436531,31.197227],[121.435995,31.196896],[121.435352,31.196538],[121.434519,31.196075],[121.433662,31.195862],[121.433337,31.196801],[121.43308,31.197675],[121.433055,31.19776],[121.432832,31.198444],[121.432777,31.198613],[121.431983,31.200317],[121.431756,31.200976],[121.431636,31.201411],[121.431534,31.201789],[121.431442,31.202255],[121.431423,31.202484],[121.431349,31.202894],[121.431146,31.203352],[121.430259,31.204244],[121.429908,31.204821],[121.429659,31.205231],[121.4294,31.205783],[121.428929,31.206872],[121.428718,31.207425],[121.428505,31.207977],[121.428127,31.2098],[121.428071,31.210298],[121.428064,31.210544],[121.428053,31.210898],[121.428108,31.211276],[121.428598,31.212042],[121.429096,31.212516],[121.429484,31.212839],[121.429853,31.21295],[121.430287,31.213044],[121.431571,31.2131],[121.431717,31.213149],[121.432014,31.21325],[121.432623,31.213439],[121.433574,31.214212],[121.434295,31.215239],[121.434492,31.216269],[121.434513,31.216378],[121.434542,31.216527],[121.434726,31.217387],[121.434967,31.218019],[121.435262,31.218437],[121.435918,31.218776],[121.436933,31.218926],[121.438863,31.219053],[121.439482,31.219187],[121.440912,31.219899],[121.441642,31.220396],[121.441402,31.220902],[121.44119,31.221422],[121.440981,31.222072],[121.44075,31.222847],[121.441452,31.22295],[121.442246,31.223068],[121.44304,31.223226],[121.443705,31.223408],[121.444416,31.223669],[121.444767,31.223835],[121.44666,31.224523],[121.448941,31.22544],[121.449533,31.225626],[121.450447,31.225856],[121.451187,31.225907],[121.451831,31.225915],[121.454118,31.225893]]]},"properties":{"id":"french-concession-0","jurisdiction":"french-concession","sourceId":"vs-fc-districts-1920"}},{"type":"Feature","geometry":{"type":"Polygon","coordinates":[[[121.476335,31.225611],[121.476539,31.224483],[121.476539,31.22411],[121.476704,31.223807],[121.477036,31.223002],[121.477064,31.222678],[121.477971,31.22117],[121.478409,31.220549],[121.478524,31.220113],[121.47856,31.219977],[121.478503,31.219621],[121.47833,31.219368],[121.478056,31.219187],[121.477858,31.219055],[121.476994,31.218786],[121.47636,31.218555],[121.47573,31.218325],[121.476279,31.215922],[121.476385,31.215558],[121.476539,31.21503],[121.476755,31.214291],[121.477032,31.213305],[121.476116,31.213055],[121.475596,31.212772],[121.475031,31.212349],[121.474368,31.212049],[121.473446,31.211766],[121.471661,31.211312],[121.471454,31.21126],[121.470078,31.211007],[121.468498,31.210691],[121.468232,31.210632],[121.468043,31.210587],[121.467117,31.210366],[121.467274,31.210005],[121.467562,31.209346],[121.467843,31.208248],[121.466349,31.207923],[121.464869,31.207552],[121.462584,31.207225],[121.462326,31.208325],[121.462113,31.20923],[121.461845,31.210438],[121.461706,31.211014],[121.461253,31.212325],[121.461059,31.213785],[121.460116,31.216753],[121.459931,31.217574],[121.459737,31.218451],[121.459451,31.219556],[121.459214,31.220855],[121.458678,31.222184],[121.45847,31.223222],[121.458331,31.224311],[121.458301,31.22475],[121.458373,31.225922],[121.459405,31.225895],[121.460469,31.225793],[121.461693,31.225763],[121.462158,31.225751],[121.462625,31.22578],[121.463266,31.225855],[121.463713,31.225925],[121.464319,31.225834],[121.464601,31.225743],[121.464953,31.225671],[121.465384,31.225582],[121.465542,31.225549],[121.466066,31.225473],[121.467061,31.225636],[121.467911,31.225847],[121.468464,31.226006],[121.468212,31.226566],[121.467754,31.227612],[121.468288,31.22784],[121.469556,31.228316],[121.47039,31.228635],[121.47125,31.22915],[121.472458,31.229826],[121.473671,31.230494],[121.474352,31.229535],[121.474978,31.228597],[121.4755,31.227671],[121.475852,31.226757],[121.476335,31.225611]]]},"properties":{"id":"french-concession-1","jurisdiction":"french-concession","sourceId":"vs-fc-districts-1920"}},{"type":"Feature","geometry":{"type":"Polygon","coordinates":[[[121.493246,31.227187],[121.492639,31.227084],[121.492506,31.22736],[121.492359,31.227713],[121.492236,31.228169],[121.492155,31.228505],[121.491976,31.228916],[121.491758,31.229381],[121.491025,31.229858],[121.490777,31.230031],[121.490557,31.230499],[121.490269,31.231002],[121.489973,31.23118],[121.489395,31.231379],[121.489036,31.231408],[121.488549,31.231445],[121.487793,31.23151],[121.487473,31.231526],[121.486538,31.231534],[121.486254,31.232031],[121.485829,31.233302],[121.485381,31.234495],[121.485965,31.234866],[121.486688,31.235118],[121.487051,31.235281],[121.487718,31.23553],[121.488747,31.234197],[121.488868,31.23409],[121.489921,31.233167],[121.490728,31.232459],[121.491243,31.232065],[121.492228,31.231314],[121.492777,31.230894],[121.493604,31.230262],[121.494178,31.229825],[121.494547,31.229543],[121.494688,31.229435],[121.495204,31.229039],[121.495747,31.228621],[121.496294,31.228201],[121.495989,31.228045],[121.495281,31.227684],[121.493753,31.227293],[121.493518,31.227233],[121.493246,31.227187]]]},"properties":{"id":"french-concession-2","jurisdiction":"french-concession","sourceId":"vs-fc-districts-1920"}},{"type":"Feature","geometry":{"type":"Polygon","coordinates":[[[121.485829,31.233302],[121.486254,31.232031],[121.486538,31.231534],[121.485848,31.231538],[121.485166,31.231511],[121.484703,31.231468],[121.484378,31.231421],[121.483984,31.231349],[121.483101,31.231194],[121.482945,31.231166],[121.48234,31.230998],[121.482061,31.230935],[121.481855,31.23099],[121.48154,31.230638],[121.481303,31.230485],[121.481064,31.230397],[121.480823,31.230358],[121.480491,31.230272],[121.480186,31.230098],[121.479973,31.229893],[121.479548,31.229593],[121.478967,31.229017],[121.478579,31.228322],[121.478442,31.228169],[121.478163,31.227856],[121.478043,31.227264],[121.478052,31.226743],[121.478117,31.226278],[121.478052,31.226104],[121.478222,31.22566],[121.478495,31.224944],[121.478901,31.223712],[121.477036,31.223002],[121.476704,31.223807],[121.476539,31.22411],[121.476539,31.224483],[121.476335,31.225611],[121.475852,31.226757],[121.4755,31.227671],[121.474978,31.228597],[121.474352,31.229535],[121.473671,31.230494],[121.473916,31.230671],[121.474649,31.231114],[121.475377,31.231524],[121.475955,31.231835],[121.476838,31.23225],[121.477479,31.232565],[121.477961,31.232726],[121.478498,31.232854],[121.479172,31.233047],[121.479587,31.233131],[121.480292,31.233187],[121.481187,31.23308],[121.481555,31.233004],[121.481788,31.232991],[121.482176,31.232991],[121.482444,31.233081],[121.48316,31.233616],[121.483534,31.233768],[121.484035,31.233934],[121.484588,31.234036],[121.484956,31.234189],[121.485199,31.234354],[121.485381,31.234495],[121.485829,31.233302]]]},"properties":{"id":"french-concession-3","jurisdiction":"french-concession","sourceId":"vs-fc-districts-1920"}},{"type":"Feature","properties":{"id":"old-city-1928","jurisdiction":"old-city","historicalName":"Old City","northernBoundary":"Boulevard des Deux Républiques / Min Kuo Road","southernBoundary":"Chunghwa Road","sourceId":"sh-civil-affairs-renmin-road","geometrySource":"OpenStreetMap contributors"},"geometry":{"type":"Polygon","coordinates":[[[121.4783287,31.2272165],[121.4783887,31.2275174],[121.4792767,31.2290198],[121.4797232,31.2293782],[121.4799313,31.2294782],[121.4802532,31.2297695],[121.4806368,31.2299782],[121.4829919,31.2308533],[121.483547,31.2310081],[121.4847231,31.2312398],[121.4859993,31.2313567],[121.4862999,31.2314635],[121.4895573,31.231378],[121.4900246,31.2312346],[121.4904632,31.2310384],[121.4906857,31.2307486],[121.4909323,31.2302228],[121.4911394,31.2300013],[121.4916822,31.229644],[121.4919354,31.2294232],[121.4921377,31.2291713],[121.4928173,31.2273078],[121.4939017,31.2254069],[121.4945277,31.2238864],[121.4946541,31.2232703],[121.494598,31.2226648],[121.4942624,31.2218216],[121.4941553,31.2214599],[121.4940831,31.2208479],[121.4941164,31.2199748],[121.4940738,31.2190361],[121.4936319,31.2175234],[121.4934602,31.2172356],[121.4933074,31.2171197],[121.492559,31.2169374],[121.4914499,31.2169121],[121.4893082,31.2171794],[121.4887157,31.2171671],[121.4872798,31.2168843],[121.4857764,31.216458],[121.4853291,31.2163788],[121.4850917,31.2164224],[121.4846069,31.2166254],[121.4839135,31.2170953],[121.4820155,31.2185849],[121.4818004,31.2188996],[121.4811682,31.2200036],[121.4802479,31.2214295],[121.4798169,31.2221963],[121.4794679,31.2229641],[121.4791452,31.2238095],[121.4785286,31.2257853],[121.4783287,31.2272165]]]}}]}
