{"type":"FeatureCollection","features":[{"type":"Feature","id":"osm-station-468916502","properties":{"name":"南京东路","name_zh":"南京东路","name:nonlatin":"南京东路","name_en":"East Nanjing Road","class":"railway","subclass":"subway","osmType":"node","osmId":468916502},"geometry":{"type":"Point","coordinates":[121.4792291,31.2391239]}},{"type":"Feature","id":"osm-station-469787970","properties":{"name":"新闸路","name_zh":"新闸路","name:nonlatin":"新闸路","name_en":"Xinzha Road","class":"railway","subclass":"subway","osmType":"node","osmId":469787970},"geometry":{"type":"Point","coordinates":[121.4636467,31.2405472]}},{"type":"Feature","id":"osm-station-469788001","properties":{"name":"中山北路","name_zh":"中山北路","name:nonlatin":"中山北路","name_en":"North Zhongshan Road","class":"railway","subclass":"subway","osmType":"node","osmId":469788001},"geometry":{"type":"Point","coordinates":[121.45447,31.2614891]}},{"type":"Feature","id":"osm-station-470637744","properties":{"name":"张江高科","name_zh":"张江高科","name:nonlatin":"张江高科","name_en":"Zhangjiang Hi-Tech Park","class":"railway","subclass":"subway","osmType":"node","osmId":470637744},"geometry":{"type":"Point","coordinates":[121.5833523,31.2039914]}},{"type":"Feature","id":"osm-station-471013952","properties":{"name":"徐家汇","name_zh":"徐家汇","name:nonlatin":"徐家汇","name_en":"Xujiahui","class":"railway","subclass":"subway","osmType":"node","osmId":471013952},"geometry":{"type":"Point","coordinates":[121.4339035,31.1950755]}},{"type":"Feature","id":"osm-station-471014085","properties":{"name":"衡山路","name_zh":"衡山路","name:nonlatin":"衡山路","name_en":"Hengshan Road","class":"railway","subclass":"subway","osmType":"node","osmId":471014085},"geometry":{"type":"Point","coordinates":[121.4419408,31.2064527]}},{"type":"Feature","id":"osm-station-471015395","properties":{"name":"陕西南路","name_zh":"陕西南路","name:nonlatin":"陕西南路","name_en":"South Shaanxi Road","class":"railway","subclass":"subway","osmType":"node","osmId":471015395},"geometry":{"type":"Point","coordinates":[121.4552697,31.2188995]}},{"type":"Feature","id":"osm-station-471016169","properties":{"name":"一大会址·黄陂南路","name_zh":"一大会址·黄陂南路","name:nonlatin":"一大会址·黄陂南路","name_en":"Site of the First CPC National Congress·South Huangpi Road","class":"railway","subclass":"subway","osmType":"node","osmId":471016169},"geometry":{"type":"Point","coordinates":[121.4693495,31.2249337]}},{"type":"Feature","id":"osm-station-471016943","properties":{"name":"上海科技馆","name_zh":"上海科技馆","name:nonlatin":"上海科技馆","name_en":"Shanghai Science & Technology Museum","class":"railway","subclass":"subway","osmType":"node","osmId":471016943},"geometry":{"type":"Point","coordinates":[121.5386617,31.2218914]}},{"type":"Feature","id":"osm-station-471088265","properties":{"name":"南京西路","name_zh":"南京西路","name:nonlatin":"南京西路","name_en":"West Nanjing Road","class":"railway","subclass":"subway","osmType":"node","osmId":471088265},"geometry":{"type":"Point","coordinates":[121.4560232,31.2318255]}},{"type":"Feature","id":"osm-station-471091952","properties":{"name":"北新泾","name_zh":"北新泾","name:nonlatin":"北新泾","name_en":"Beixinjing","class":"railway","subclass":"subway","osmType":"node","osmId":471091952},"geometry":{"type":"Point","coordinates":[121.3690974,31.2183955]}},{"type":"Feature","id":"osm-station-471092256","properties":{"name":"淞虹路","name_zh":"淞虹路","name:nonlatin":"淞虹路","name_en":"Songhong Road","class":"railway","subclass":"subway","osmType":"node","osmId":471092256},"geometry":{"type":"Point","coordinates":[121.3558076,31.2199749]}},{"type":"Feature","id":"osm-station-605024325","properties":{"name":"金科路","name_zh":"金科路","name:nonlatin":"金科路","name_en":"Jinke Road","class":"railway","subclass":"subway","osmType":"node","osmId":605024325},"geometry":{"type":"Point","coordinates":[121.597836,31.2064028]}},{"type":"Feature","id":"osm-station-622194147","properties":{"name":"枫桥路","name_zh":"枫桥路","name:nonlatin":"枫桥路","name_en":"Fengqiao Road","class":"railway","subclass":"subway","osmType":"node","osmId":622194147},"geometry":{"type":"Point","coordinates":[121.4057154,31.2443442]}},{"type":"Feature","id":"osm-station-622194318","properties":{"name":"真如","name_zh":"真如","name:nonlatin":"真如","name_en":"Zhenru","class":"railway","subclass":"subway","osmType":"node","osmId":622194318},"geometry":{"type":"Point","coordinates":[121.402647,31.2527094]}},{"type":"Feature","id":"osm-station-622196229","properties":{"name":"祁连山路","name_zh":"祁连山路","name:nonlatin":"祁连山路","name_en":"Qilianshan Road","class":"railway","subclass":"subway","osmType":"node","osmId":622196229},"geometry":{"type":"Point","coordinates":[121.3722123,31.273409]}},{"type":"Feature","id":"osm-station-622196496","properties":{"name":"武威路","name_zh":"武威路","name:nonlatin":"武威路","name_en":"Wuwei Road","class":"railway","subclass":"subway","osmType":"node","osmId":622196496},"geometry":{"type":"Point","coordinates":[121.3600778,31.2783683]}},{"type":"Feature","id":"osm-station-622580357","properties":{"name":"桃浦新村","name_zh":"桃浦新村","name:nonlatin":"桃浦新村","name_en":"Taopu Xincun","class":"railway","subclass":"subway","osmType":"node","osmId":622580357},"geometry":{"type":"Point","coordinates":[121.3450707,31.2834828]}},{"type":"Feature","id":"osm-station-1542037120","properties":{"name":"虹桥1号航站楼","name_zh":"虹桥1号航站楼","name:nonlatin":"虹桥1号航站楼","name_en":"Hongqiao Airport Terminal 1","class":"railway","subclass":"subway","osmType":"node","osmId":1542037120},"geometry":{"type":"Point","coordinates":[121.3427146,31.1932684]}},{"type":"Feature","id":"osm-station-2448270609","properties":{"name":"三林东","name_zh":"三林东","name:nonlatin":"三林东","name_en":"East Sanlin","class":"railway","subclass":"subway","osmType":"node","osmId":2448270609},"geometry":{"type":"Point","coordinates":[121.5188767,31.1486404]}},{"type":"Feature","id":"osm-station-2448270613","properties":{"name":"龙华","name_zh":"龙华","name:nonlatin":"龙华","name_en":"Longhua","class":"railway","subclass":"subway","osmType":"node","osmId":2448270613},"geometry":{"type":"Point","coordinates":[121.4486885,31.1748452]}},{"type":"Feature","id":"osm-station-2448270617","properties":{"name":"龙耀路","name_zh":"龙耀路","name:nonlatin":"龙耀路","name_en":"Longyao Road","class":"railway","subclass":"subway","osmType":"node","osmId":2448270617},"geometry":{"type":"Point","coordinates":[121.4551734,31.1615085]}},{"type":"Feature","id":"osm-station-2448270625","properties":{"name":"浦三路","name_zh":"浦三路","name:nonlatin":"浦三路","name_en":"Pusan Road","class":"railway","subclass":"subway","osmType":"node","osmId":2448270625},"geometry":{"type":"Point","coordinates":[121.5350543,31.1531902]}},{"type":"Feature","id":"osm-station-2448270629","properties":{"name":"三林","name_zh":"三林","name:nonlatin":"三林","name_en":"Sanlin","class":"railway","subclass":"subway","osmType":"node","osmId":2448270629},"geometry":{"type":"Point","coordinates":[121.507929,31.1453958]}},{"type":"Feature","id":"osm-station-2448270633","properties":{"name":"上海游泳馆","name_zh":"上海游泳馆","name:nonlatin":"上海游泳馆","name_en":"Shanghai Swimming Center","class":"railway","subclass":"subway","osmType":"node","osmId":2448270633},"geometry":{"type":"Point","coordinates":[121.4367543,31.1812817]}},{"type":"Feature","id":"osm-station-2448270639","properties":{"name":"云锦路","name_zh":"云锦路","name:nonlatin":"云锦路","name_en":"Yunjin Road","class":"railway","subclass":"subway","osmType":"node","osmId":2448270639},"geometry":{"type":"Point","coordinates":[121.4538663,31.1695006]}},{"type":"Feature","id":"osm-station-2914198802","properties":{"name":"秀沿路","name_zh":"秀沿路","name:nonlatin":"秀沿路","name_en":"Xiuyan Road","class":"railway","subclass":"subway","osmType":"node","osmId":2914198802},"geometry":{"type":"Point","coordinates":[121.5942175,31.1403484]}},{"type":"Feature","id":"osm-station-4241260093","properties":{"name":"静安寺","name_zh":"静安寺","name:nonlatin":"静安寺","name_en":"Jing'an Temple","class":"railway","subclass":"subway","osmType":"node","osmId":4241260093},"geometry":{"type":"Point","coordinates":[121.4421389,31.2252923]}},{"type":"Feature","id":"osm-station-4520492425","properties":{"name":"中山公园","name_zh":"中山公园","name:nonlatin":"中山公园","name_en":"Zhongshan Park","class":"railway","subclass":"subway","osmType":"node","osmId":4520492425},"geometry":{"type":"Point","coordinates":[121.4115608,31.2200642]}},{"type":"Feature","id":"osm-station-4520492882","properties":{"name":"威宁路","name_zh":"威宁路","name:nonlatin":"威宁路","name_en":"Weining Road","class":"railway","subclass":"subway","osmType":"node","osmId":4520492882},"geometry":{"type":"Point","coordinates":[121.3826767,31.2167836]}},{"type":"Feature","id":"osm-station-4559664170","properties":{"name":"莲花路","name_zh":"莲花路","name:nonlatin":"莲花路","name_en":"Lianhua Road","class":"railway","subclass":"subway","osmType":"node","osmId":4559664170},"geometry":{"type":"Point","coordinates":[121.3982663,31.1328603]}},{"type":"Feature","id":"osm-station-4559664184","properties":{"name":"锦江乐园","name_zh":"锦江乐园","name:nonlatin":"锦江乐园","name_en":"Jinjiang Park","class":"railway","subclass":"subway","osmType":"node","osmId":4559664184},"geometry":{"type":"Point","coordinates":[121.4095153,31.1440689]}},{"type":"Feature","id":"osm-station-4559664358","properties":{"name":"通河新村","name_zh":"通河新村","name:nonlatin":"通河新村","name_en":"Tonghe Xincun","class":"railway","subclass":"subway","osmType":"node","osmId":4559664358},"geometry":{"type":"Point","coordinates":[121.4369064,31.3329517]}},{"type":"Feature","id":"osm-station-4559664369","properties":{"name":"共康路","name_zh":"共康路","name:nonlatin":"共康路","name_en":"Gongkang Road","class":"railway","subclass":"subway","osmType":"node","osmId":4559664369},"geometry":{"type":"Point","coordinates":[121.4420271,31.3217011]}},{"type":"Feature","id":"osm-station-4559664370","properties":{"name":"彭浦新村","name_zh":"彭浦新村","name:nonlatin":"彭浦新村","name_en":"Pengpu Xincun","class":"railway","subclass":"subway","osmType":"node","osmId":4559664370},"geometry":{"type":"Point","coordinates":[121.4439361,31.3074944]}},{"type":"Feature","id":"osm-station-4559664371","properties":{"name":"汶水路","name_zh":"汶水路","name:nonlatin":"汶水路","name_en":"Wenshui Road","class":"railway","subclass":"subway","osmType":"node","osmId":4559664371},"geometry":{"type":"Point","coordinates":[121.4455881,31.2945322]}},{"type":"Feature","id":"osm-station-4571430228","properties":{"name":"常熟路","name_zh":"常熟路","name:nonlatin":"常熟路","name_en":"Changshu Road","class":"railway","subclass":"subway","osmType":"node","osmId":4571430228},"geometry":{"type":"Point","coordinates":[121.4464856,31.2151666]}},{"type":"Feature","id":"osm-station-5306355590","properties":{"name":"芦恒路","name_zh":"芦恒路","name:nonlatin":"芦恒路","name_en":"Luheng Road","class":"railway","subclass":"subway","osmType":"node","osmId":5306355590},"geometry":{"type":"Point","coordinates":[121.4938183,31.1202135]}},{"type":"Feature","id":"osm-station-5306355592","properties":{"name":"东方体育中心","name_zh":"东方体育中心","name:nonlatin":"东方体育中心","name_en":"Oriental Sports Center","class":"railway","subclass":"subway","osmType":"node","osmId":5306355592},"geometry":{"type":"Point","coordinates":[121.4758296,31.1554593]}},{"type":"Feature","id":"osm-station-5306355593","properties":{"name":"杨思","name_zh":"杨思","name:nonlatin":"杨思","name_en":"Yangsi","class":"railway","subclass":"subway","osmType":"node","osmId":5306355593},"geometry":{"type":"Point","coordinates":[121.4890118,31.1630199]}},{"type":"Feature","id":"osm-station-5306355594","properties":{"name":"成山路","name_zh":"成山路","name:nonlatin":"成山路","name_en":"Chengshan Road","class":"railway","subclass":"subway","osmType":"node","osmId":5306355594},"geometry":{"type":"Point","coordinates":[121.4917772,31.1727623]}},{"type":"Feature","id":"osm-station-5306355596","properties":{"name":"陆家浜路","name_zh":"陆家浜路","name:nonlatin":"陆家浜路","name_en":"Lujiabang Road","class":"railway","subclass":"subway","osmType":"node","osmId":5306355596},"geometry":{"type":"Point","coordinates":[121.4814802,31.2138544]}},{"type":"Feature","id":"osm-station-5306355597","properties":{"name":"老西门","name_zh":"老西门","name:nonlatin":"老西门","name_en":"Laoximen","class":"railway","subclass":"subway","osmType":"node","osmId":5306355597},"geometry":{"type":"Point","coordinates":[121.4784338,31.2208466]}},{"type":"Feature","id":"osm-station-5306355598","properties":{"name":"大世界","name_zh":"大世界","name:nonlatin":"大世界","name_en":"Dashijie","class":"railway","subclass":"subway","osmType":"node","osmId":5306355598},"geometry":{"type":"Point","coordinates":[121.4749289,31.2291468]}},{"type":"Feature","id":"osm-station-5306355599","properties":{"name":"曲阜路","name_zh":"曲阜路","name:nonlatin":"曲阜路","name_en":"Qufu Road","class":"railway","subclass":"subway","osmType":"node","osmId":5306355599},"geometry":{"type":"Point","coordinates":[121.4669569,31.244194]}},{"type":"Feature","id":"osm-station-5306355600","properties":{"name":"中兴路","name_zh":"中兴路","name:nonlatin":"中兴路","name_en":"Zhongxing Road","class":"railway","subclass":"subway","osmType":"node","osmId":5306355600},"geometry":{"type":"Point","coordinates":[121.4643534,31.255078]}},{"type":"Feature","id":"osm-station-5306355601","properties":{"name":"西藏北路","name_zh":"西藏北路","name:nonlatin":"西藏北路","name_en":"North Xizang Road","class":"railway","subclass":"subway","osmType":"node","osmId":5306355601},"geometry":{"type":"Point","coordinates":[121.4645728,31.265566]}},{"type":"Feature","id":"osm-station-5306355602","properties":{"name":"曲阳路","name_zh":"曲阳路","name:nonlatin":"曲阳路","name_en":"Quyang Road","class":"railway","subclass":"subway","osmType":"node","osmId":5306355602},"geometry":{"type":"Point","coordinates":[121.4857918,31.278536]}},{"type":"Feature","id":"osm-station-5306355603","properties":{"name":"四平路","name_zh":"四平路","name:nonlatin":"四平路","name_en":"Siping Road","class":"railway","subclass":"subway","osmType":"node","osmId":5306355603},"geometry":{"type":"Point","coordinates":[121.496992,31.2768579]}},{"type":"Feature","id":"osm-station-5306355604","properties":{"name":"鞍山新村","name_zh":"鞍山新村","name:nonlatin":"鞍山新村","name_en":"Anshan Xincun","class":"railway","subclass":"subway","osmType":"node","osmId":5306355604},"geometry":{"type":"Point","coordinates":[121.5051698,31.2752636]}},{"type":"Feature","id":"osm-station-5306355605","properties":{"name":"江浦路","name_zh":"江浦路","name:nonlatin":"江浦路","name_en":"Jiangpu Road","class":"railway","subclass":"subway","osmType":"node","osmId":5306355605},"geometry":{"type":"Point","coordinates":[121.5141937,31.2769932]}},{"type":"Feature","id":"osm-station-5306355606","properties":{"name":"黄兴路","name_zh":"黄兴路","name:nonlatin":"黄兴路","name_en":"Huangxing Road","class":"railway","subclass":"subway","osmType":"node","osmId":5306355606},"geometry":{"type":"Point","coordinates":[121.5240955,31.2809549]}},{"type":"Feature","id":"osm-station-5306355607","properties":{"name":"延吉中路","name_zh":"延吉中路","name:nonlatin":"延吉中路","name_en":"Middle Yanji Road","class":"railway","subclass":"subway","osmType":"node","osmId":5306355607},"geometry":{"type":"Point","coordinates":[121.5306115,31.2907317]}},{"type":"Feature","id":"osm-station-5306355608","properties":{"name":"黄兴公园","name_zh":"黄兴公园","name:nonlatin":"黄兴公园","name_en":"Huangxing Park","class":"railway","subclass":"subway","osmType":"node","osmId":5306355608},"geometry":{"type":"Point","coordinates":[121.5288185,31.2978586]}},{"type":"Feature","id":"osm-station-5306355609","properties":{"name":"翔殷路","name_zh":"翔殷路","name:nonlatin":"翔殷路","name_en":"Xiangyin Road","class":"railway","subclass":"subway","osmType":"node","osmId":5306355609},"geometry":{"type":"Point","coordinates":[121.5275779,31.3071133]}},{"type":"Feature","id":"osm-station-5306355611","properties":{"name":"市光路","name_zh":"市光路","name:nonlatin":"市光路","name_en":"Shiguang Road","class":"railway","subclass":"subway","osmType":"node","osmId":5306355611},"geometry":{"type":"Point","coordinates":[121.5276336,31.3247936]}},{"type":"Feature","id":"osm-station-5306402950","properties":{"name":"宜山路","name_zh":"宜山路","name:nonlatin":"宜山路","name_en":"Yishan Road","class":"railway","subclass":"subway","osmType":"node","osmId":5306402950},"geometry":{"type":"Point","coordinates":[121.4227293,31.1862088]}},{"type":"Feature","id":"osm-station-5306402951","properties":{"name":"嘉善路","name_zh":"嘉善路","name:nonlatin":"嘉善路","name_en":"Jiashan Road","class":"railway","subclass":"subway","osmType":"node","osmId":5306402951},"geometry":{"type":"Point","coordinates":[121.456367,31.2046319]}},{"type":"Feature","id":"osm-station-5306402952","properties":{"name":"打浦桥","name_zh":"打浦桥","name:nonlatin":"打浦桥","name_en":"Dapuqiao","class":"railway","subclass":"subway","osmType":"node","osmId":5306402952},"geometry":{"type":"Point","coordinates":[121.4640097,31.2082336]}},{"type":"Feature","id":"osm-station-5306402955","properties":{"name":"马当路","name_zh":"马当路","name:nonlatin":"马当路","name_en":"Madang Road","class":"railway","subclass":"subway","osmType":"node","osmId":5306402955},"geometry":{"type":"Point","coordinates":[121.4720292,31.2112829]}},{"type":"Feature","id":"osm-station-5306402956","properties":{"name":"小南门","name_zh":"小南门","name:nonlatin":"小南门","name_en":"Xiaonanmen","class":"railway","subclass":"subway","osmType":"node","osmId":5306402956},"geometry":{"type":"Point","coordinates":[121.4940577,31.2190076]}},{"type":"Feature","id":"osm-station-5306444950","properties":{"name":"龙柏新村","name_zh":"龙柏新村","name:nonlatin":"龙柏新村","name_en":"Longbai Xincun","class":"railway","subclass":"subway","osmType":"node","osmId":5306444950},"geometry":{"type":"Point","coordinates":[121.3659379,31.1792624]}},{"type":"Feature","id":"osm-station-5306444951","properties":{"name":"紫藤路","name_zh":"紫藤路","name:nonlatin":"紫藤路","name_en":"Ziteng Road","class":"railway","subclass":"subway","osmType":"node","osmId":5306444951},"geometry":{"type":"Point","coordinates":[121.3609817,31.1717823]}},{"type":"Feature","id":"osm-station-5306444952","properties":{"name":"航中路","name_zh":"航中路","name:nonlatin":"航中路","name_en":"Hangzhong Road","class":"railway","subclass":"subway","osmType":"node","osmId":5306444952},"geometry":{"type":"Point","coordinates":[121.3491547,31.1671579]}},{"type":"Feature","id":"osm-station-5306444953","properties":{"name":"上海动物园","name_zh":"上海动物园","name:nonlatin":"上海动物园","name_en":"Shanghai Zoo","class":"railway","subclass":"subway","osmType":"node","osmId":5306444953},"geometry":{"type":"Point","coordinates":[121.3634133,31.1920985]}},{"type":"Feature","id":"osm-station-5306444954","properties":{"name":"龙溪路","name_zh":"龙溪路","name:nonlatin":"龙溪路","name_en":"Longxi Road","class":"railway","subclass":"subway","osmType":"node","osmId":5306444954},"geometry":{"type":"Point","coordinates":[121.3757005,31.1963362]}},{"type":"Feature","id":"osm-station-5306444955","properties":{"name":"水城路","name_zh":"水城路","name:nonlatin":"水城路","name_en":"Shuicheng Road","class":"railway","subclass":"subway","osmType":"node","osmId":5306444955},"geometry":{"type":"Point","coordinates":[121.3876028,31.2012461]}},{"type":"Feature","id":"osm-station-5306444956","properties":{"name":"伊犁路","name_zh":"伊犁路","name:nonlatin":"伊犁路","name_en":"Yili Road","class":"railway","subclass":"subway","osmType":"node","osmId":5306444956},"geometry":{"type":"Point","coordinates":[121.3980259,31.2011073]}},{"type":"Feature","id":"osm-station-5306444957","properties":{"name":"宋园路","name_zh":"宋园路","name:nonlatin":"宋园路","name_en":"Songyuan Road","class":"railway","subclass":"subway","osmType":"node","osmId":5306444957},"geometry":{"type":"Point","coordinates":[121.4079018,31.1983438]}},{"type":"Feature","id":"osm-station-5306444958","properties":{"name":"虹桥路","name_zh":"虹桥路","name:nonlatin":"虹桥路","name_en":"Hongqiao Road","class":"railway","subclass":"subway","osmType":"node","osmId":5306444958},"geometry":{"type":"Point","coordinates":[121.4175044,31.198577]}},{"type":"Feature","id":"osm-station-5306444959","properties":{"name":"交通大学","name_zh":"交通大学","name:nonlatin":"交通大学","name_en":"Jiao Tong University","class":"railway","subclass":"subway","osmType":"node","osmId":5306444959},"geometry":{"type":"Point","coordinates":[121.4304645,31.2040391]}},{"type":"Feature","id":"osm-station-5306444960","properties":{"name":"上海图书馆","name_zh":"上海图书馆","name:nonlatin":"上海图书馆","name_en":"Shanghai Library","class":"railway","subclass":"subway","osmType":"node","osmId":5306444960},"geometry":{"type":"Point","coordinates":[121.4396546,31.2100122]}},{"type":"Feature","id":"osm-station-5306444964","properties":{"name":"一大会址·新天地","name_zh":"一大会址·新天地","name:nonlatin":"一大会址·新天地","name_en":"Site of the First CPC National Congress·Xintiandi","class":"railway","subclass":"subway","osmType":"node","osmId":5306444964},"geometry":{"type":"Point","coordinates":[121.4699438,31.2180993]}},{"type":"Feature","id":"osm-station-5306444965","properties":{"name":"豫园","name_zh":"豫园","name:nonlatin":"豫园","name_en":"Yuyuan Garden","class":"railway","subclass":"subway","osmType":"node","osmId":5306444965},"geometry":{"type":"Point","coordinates":[121.4828695,31.2299254]}},{"type":"Feature","id":"osm-station-5306444966","properties":{"name":"天潼路","name_zh":"天潼路","name:nonlatin":"天潼路","name_en":"Tiantong Road","class":"railway","subclass":"subway","osmType":"node","osmId":5306444966},"geometry":{"type":"Point","coordinates":[121.4778075,31.2457501]}},{"type":"Feature","id":"osm-station-5306444967","properties":{"name":"四川北路","name_zh":"四川北路","name:nonlatin":"四川北路","name_en":"North Sichuan Road","class":"railway","subclass":"subway","osmType":"node","osmId":5306444967},"geometry":{"type":"Point","coordinates":[121.4794725,31.2537236]}},{"type":"Feature","id":"osm-station-5306444968","properties":{"name":"邮电新村","name_zh":"邮电新村","name:nonlatin":"邮电新村","name_en":"Youdian Xincun","class":"railway","subclass":"subway","osmType":"node","osmId":5306444968},"geometry":{"type":"Point","coordinates":[121.4898084,31.2704149]}},{"type":"Feature","id":"osm-station-5306444969","properties":{"name":"同济大学","name_zh":"同济大学","name:nonlatin":"同济大学","name_en":"Tongji University","class":"railway","subclass":"subway","osmType":"node","osmId":5306444969},"geometry":{"type":"Point","coordinates":[121.5020648,31.2844191]}},{"type":"Feature","id":"osm-station-5306444970","properties":{"name":"国权路","name_zh":"国权路","name:nonlatin":"国权路","name_en":"Guoquan Road","class":"railway","subclass":"subway","osmType":"node","osmId":5306444970},"geometry":{"type":"Point","coordinates":[121.5055912,31.2912548]}},{"type":"Feature","id":"osm-station-5306444971","properties":{"name":"五角场","name_zh":"五角场","name:nonlatin":"五角场","name_en":"Wujiaochang","class":"railway","subclass":"subway","osmType":"node","osmId":5306444971},"geometry":{"type":"Point","coordinates":[121.5100685,31.2997402]}},{"type":"Feature","id":"osm-station-5306444972","properties":{"name":"江湾体育场","name_zh":"江湾体育场","name:nonlatin":"江湾体育场","name_en":"Jiangwan Stadium","class":"railway","subclass":"subway","osmType":"node","osmId":5306444972},"geometry":{"type":"Point","coordinates":[121.5099408,31.3050228]}},{"type":"Feature","id":"osm-station-5306444974","properties":{"name":"殷高东路","name_zh":"殷高东路","name:nonlatin":"殷高东路","name_en":"East Yingao Road","class":"railway","subclass":"subway","osmType":"node","osmId":5306444974},"geometry":{"type":"Point","coordinates":[121.5024309,31.3238015]}},{"type":"Feature","id":"osm-station-5306444975","properties":{"name":"新江湾城","name_zh":"新江湾城","name:nonlatin":"新江湾城","name_en":"Xinjiangwancheng","class":"railway","subclass":"subway","osmType":"node","osmId":5306444975},"geometry":{"type":"Point","coordinates":[121.5023484,31.3307804]}},{"type":"Feature","id":"osm-station-5306464703","properties":{"name":"虹莘路","name_zh":"虹莘路","name:nonlatin":"虹莘路","name_en":"Hongxin Road","class":"railway","subclass":"subway","osmType":"node","osmId":5306464703},"geometry":{"type":"Point","coordinates":[121.3758226,31.1395765]}},{"type":"Feature","id":"osm-station-5306464704","properties":{"name":"顾戴路","name_zh":"顾戴路","name:nonlatin":"顾戴路","name_en":"Gudai Road","class":"railway","subclass":"subway","osmType":"node","osmId":5306464704},"geometry":{"type":"Point","coordinates":[121.3874729,31.1432364]}},{"type":"Feature","id":"osm-station-5306464705","properties":{"name":"东兰路","name_zh":"东兰路","name:nonlatin":"东兰路","name_en":"Donglan Road","class":"railway","subclass":"subway","osmType":"node","osmId":5306464705},"geometry":{"type":"Point","coordinates":[121.3871482,31.1577076]}},{"type":"Feature","id":"osm-station-5306464706","properties":{"name":"虹梅路","name_zh":"虹梅路","name:nonlatin":"虹梅路","name_en":"Hongmei Road","class":"railway","subclass":"subway","osmType":"node","osmId":5306464706},"geometry":{"type":"Point","coordinates":[121.3926923,31.1622429]}},{"type":"Feature","id":"osm-station-5306464707","properties":{"name":"虹漕路","name_zh":"虹漕路","name:nonlatin":"虹漕路","name_en":"Hongcao Road","class":"railway","subclass":"subway","osmType":"node","osmId":5306464707},"geometry":{"type":"Point","coordinates":[121.4061275,31.1662502]}},{"type":"Feature","id":"osm-station-5306464708","properties":{"name":"桂林公园","name_zh":"桂林公园","name:nonlatin":"桂林公园","name_en":"Guilin Park","class":"railway","subclass":"subway","osmType":"node","osmId":5306464708},"geometry":{"type":"Point","coordinates":[121.4149819,31.1689829]}},{"type":"Feature","id":"osm-station-5306464710","properties":{"name":"龙漕路","name_zh":"龙漕路","name:nonlatin":"龙漕路","name_en":"Longcao Road","class":"railway","subclass":"subway","osmType":"node","osmId":5306464710},"geometry":{"type":"Point","coordinates":[121.4389457,31.1720693]}},{"type":"Feature","id":"osm-station-5306464714","properties":{"name":"国际客运中心","name_zh":"国际客运中心","name:nonlatin":"国际客运中心","name_en":"International Cruise Terminal","class":"railway","subclass":"subway","osmType":"node","osmId":5306464714},"geometry":{"type":"Point","coordinates":[121.4939618,31.2521438]}},{"type":"Feature","id":"osm-station-5306464716","properties":{"name":"江浦公园","name_zh":"江浦公园","name:nonlatin":"江浦公园","name_en":"Jiangpu Park","class":"railway","subclass":"subway","osmType":"node","osmId":5306464716},"geometry":{"type":"Point","coordinates":[121.5193261,31.2665507]}},{"type":"Feature","id":"osm-station-5306464717","properties":{"name":"宁国路","name_zh":"宁国路","name:nonlatin":"宁国路","name_en":"Ningguo Road","class":"railway","subclass":"subway","osmType":"node","osmId":5306464717},"geometry":{"type":"Point","coordinates":[121.5283015,31.2706832]}},{"type":"Feature","id":"osm-station-5306464718","properties":{"name":"隆昌路","name_zh":"隆昌路","name:nonlatin":"隆昌路","name_en":"Longchang Road","class":"railway","subclass":"subway","osmType":"node","osmId":5306464718},"geometry":{"type":"Point","coordinates":[121.5407047,31.2776265]}},{"type":"Feature","id":"osm-station-5306464719","properties":{"name":"爱国路","name_zh":"爱国路","name:nonlatin":"爱国路","name_en":"Aiguo Road","class":"railway","subclass":"subway","osmType":"node","osmId":5306464719},"geometry":{"type":"Point","coordinates":[121.5482806,31.2819802]}},{"type":"Feature","id":"osm-station-5306464720","properties":{"name":"复兴岛","name_zh":"复兴岛","name:nonlatin":"复兴岛","name_en":"Fuxing Island","class":"railway","subclass":"subway","osmType":"node","osmId":5306464720},"geometry":{"type":"Point","coordinates":[121.5569642,31.2830231]}},{"type":"Feature","id":"osm-station-5306468322","properties":{"name":"巨峰路","name_zh":"巨峰路","name:nonlatin":"巨峰路","name_en":"Jufeng Road","class":"railway","subclass":"subway","osmType":"node","osmId":5306468322},"geometry":{"type":"Point","coordinates":[121.5851422,31.2823103]}},{"type":"Feature","id":"osm-station-5306477807","properties":{"name":"丰庄","name_zh":"丰庄","name:nonlatin":"丰庄","name_en":"Fengzhuang","class":"railway","subclass":"subway","osmType":"node","osmId":5306477807},"geometry":{"type":"Point","coordinates":[121.3507104,31.2442808]}},{"type":"Feature","id":"osm-station-5306477808","properties":{"name":"祁连山南路","name_zh":"祁连山南路","name:nonlatin":"祁连山南路","name_en":"South Qilianshan Road","class":"railway","subclass":"subway","osmType":"node","osmId":5306477808},"geometry":{"type":"Point","coordinates":[121.3626932,31.2394924]}},{"type":"Feature","id":"osm-station-5306477809","properties":{"name":"真北路","name_zh":"真北路","name:nonlatin":"真北路","name_en":"Zhenbei Road","class":"railway","subclass":"subway","osmType":"node","osmId":5306477809},"geometry":{"type":"Point","coordinates":[121.3775593,31.2340365]}},{"type":"Feature","id":"osm-station-5306477810","properties":{"name":"大渡河路","name_zh":"大渡河路","name:nonlatin":"大渡河路","name_en":"Daduhe Road","class":"railway","subclass":"subway","osmType":"node","osmId":5306477810},"geometry":{"type":"Point","coordinates":[121.3896185,31.233634]}},{"type":"Feature","id":"osm-station-5306477811","properties":{"name":"金沙江路","name_zh":"金沙江路","name:nonlatin":"金沙江路","name_en":"Jinshajiang Road","class":"railway","subclass":"subway","osmType":"node","osmId":5306477811},"geometry":{"type":"Point","coordinates":[121.4072205,31.2331191]}},{"type":"Feature","id":"osm-station-5306477812","properties":{"name":"隆德路","name_zh":"隆德路","name:nonlatin":"隆德路","name_en":"Longde Road","class":"railway","subclass":"subway","osmType":"node","osmId":5306477812},"geometry":{"type":"Point","coordinates":[121.4189633,31.2324037]}},{"type":"Feature","id":"osm-station-5306477813","properties":{"name":"武宁路","name_zh":"武宁路","name:nonlatin":"武宁路","name_en":"Wuning Road","class":"railway","subclass":"subway","osmType":"node","osmId":5306477813},"geometry":{"type":"Point","coordinates":[121.4260872,31.2363368]}},{"type":"Feature","id":"osm-station-5306477814","properties":{"name":"江宁路","name_zh":"江宁路","name:nonlatin":"江宁路","name_en":"Jiangning Road","class":"railway","subclass":"subway","osmType":"node","osmId":5306477814},"geometry":{"type":"Point","coordinates":[121.4398643,31.2461078]}},{"type":"Feature","id":"osm-station-5306477815","properties":{"name":"自然博物馆","name_zh":"自然博物馆","name:nonlatin":"自然博物馆","name_en":"Shanghai Natural History Museum","class":"railway","subclass":"subway","osmType":"node","osmId":5306477815},"geometry":{"type":"Point","coordinates":[121.457925,31.2377862]}},{"type":"Feature","id":"osm-station-5306477816","properties":{"name":"淮海中路","name_zh":"淮海中路","name:nonlatin":"淮海中路","name_en":"Middle Huaihai Road","class":"railway","subclass":"subway","osmType":"node","osmId":5306477816},"geometry":{"type":"Point","coordinates":[121.4598334,31.2218467]}},{"type":"Feature","id":"osm-station-5306477817","properties":{"name":"世博会博物馆","name_zh":"世博会博物馆","name:nonlatin":"世博会博物馆","name_en":"World Expo Museum","class":"railway","subclass":"subway","osmType":"node","osmId":5306477817},"geometry":{"type":"Point","coordinates":[121.4770974,31.1992369]}},{"type":"Feature","id":"osm-station-5306536045","properties":{"name":"灵岩南路","name_zh":"灵岩南路","name:nonlatin":"灵岩南路","name_en":"South Lingyan Road","class":"railway","subclass":"subway","osmType":"node","osmId":5306536045},"geometry":{"type":"Point","coordinates":[121.4908095,31.1507738]}},{"type":"Feature","id":"osm-station-5306536046","properties":{"name":"上南路","name_zh":"上南路","name:nonlatin":"上南路","name_en":"Shangnan Road","class":"railway","subclass":"subway","osmType":"node","osmId":5306536046},"geometry":{"type":"Point","coordinates":[121.5019944,31.1511939]}},{"type":"Feature","id":"osm-station-5306536047","properties":{"name":"华夏西路","name_zh":"华夏西路","name:nonlatin":"华夏西路","name_en":"West Huaxia Road","class":"railway","subclass":"subway","osmType":"node","osmId":5306536047},"geometry":{"type":"Point","coordinates":[121.5103152,31.1519915]}},{"type":"Feature","id":"osm-station-5306536048","properties":{"name":"高青路","name_zh":"高青路","name:nonlatin":"高青路","name_en":"Gaoqing Road","class":"railway","subclass":"subway","osmType":"node","osmId":5306536048},"geometry":{"type":"Point","coordinates":[121.5113016,31.1614947]}},{"type":"Feature","id":"osm-station-5306536049","properties":{"name":"东明路","name_zh":"东明路","name:nonlatin":"东明路","name_en":"Dongming Road","class":"railway","subclass":"subway","osmType":"node","osmId":5306536049},"geometry":{"type":"Point","coordinates":[121.5065829,31.1747979]}},{"type":"Feature","id":"osm-station-5306536050","properties":{"name":"临沂新村","name_zh":"临沂新村","name:nonlatin":"临沂新村","name_en":"Linyi Xincun","class":"railway","subclass":"subway","osmType":"node","osmId":5306536050},"geometry":{"type":"Point","coordinates":[121.5131584,31.1958017]}},{"type":"Feature","id":"osm-station-5306536051","properties":{"name":"上海儿童医学中心","name_zh":"上海儿童医学中心","name:nonlatin":"上海儿童医学中心","name_en":"Shanghai Children's Medical Center","class":"railway","subclass":"subway","osmType":"node","osmId":5306536051},"geometry":{"type":"Point","coordinates":[121.5195474,31.2061476]}},{"type":"Feature","id":"osm-station-5306536052","properties":{"name":"源深体育中心","name_zh":"源深体育中心","name:nonlatin":"源深体育中心","name_en":"Yuanshen Sports Centre","class":"railway","subclass":"subway","osmType":"node","osmId":5306536052},"geometry":{"type":"Point","coordinates":[121.5298954,31.2350364]}},{"type":"Feature","id":"osm-station-5306536053","properties":{"name":"民生路","name_zh":"民生路","name:nonlatin":"民生路","name_en":"Minsheng Road","class":"railway","subclass":"subway","osmType":"node","osmId":5306536053},"geometry":{"type":"Point","coordinates":[121.5402665,31.2383036]}},{"type":"Feature","id":"osm-station-5306536054","properties":{"name":"北洋泾路","name_zh":"北洋泾路","name:nonlatin":"北洋泾路","name_en":"Beiyangjing Road","class":"railway","subclass":"subway","osmType":"node","osmId":5306536054},"geometry":{"type":"Point","coordinates":[121.5477984,31.2411683]}},{"type":"Feature","id":"osm-station-5306536055","properties":{"name":"德平路","name_zh":"德平路","name:nonlatin":"德平路","name_en":"Deping Road","class":"railway","subclass":"subway","osmType":"node","osmId":5306536055},"geometry":{"type":"Point","coordinates":[121.5600894,31.2476236]}},{"type":"Feature","id":"osm-station-5306536056","properties":{"name":"云山路","name_zh":"云山路","name:nonlatin":"云山路","name_en":"Yunshan Road","class":"railway","subclass":"subway","osmType":"node","osmId":5306536056},"geometry":{"type":"Point","coordinates":[121.5677749,31.252114]}},{"type":"Feature","id":"osm-station-5306536057","properties":{"name":"金桥路","name_zh":"金桥路","name:nonlatin":"金桥路","name_en":"Jinqiao Road","class":"railway","subclass":"subway","osmType":"node","osmId":5306536057},"geometry":{"type":"Point","coordinates":[121.5775913,31.2593229]}},{"type":"Feature","id":"osm-station-5306536058","properties":{"name":"博兴路","name_zh":"博兴路","name:nonlatin":"博兴路","name_en":"Boxing Road","class":"railway","subclass":"subway","osmType":"node","osmId":5306536058},"geometry":{"type":"Point","coordinates":[121.5826511,31.2661406]}},{"type":"Feature","id":"osm-station-5306595215","properties":{"name":"御桥","name_zh":"御桥","name:nonlatin":"御桥","name_en":"Yuqiao","class":"railway","subclass":"subway","osmType":"node","osmId":5306595215},"geometry":{"type":"Point","coordinates":[121.5674635,31.1607277]}},{"type":"Feature","id":"osm-station-5306595216","properties":{"name":"曹杨路","name_zh":"曹杨路","name:nonlatin":"曹杨路","name_en":"Caoyang Road","class":"railway","subclass":"subway","osmType":"node","osmId":5306595216},"geometry":{"type":"Point","coordinates":[121.4122228,31.2403031]}},{"type":"Feature","id":"osm-station-5308162426","properties":{"name":"金桥","name_zh":"金桥","name:nonlatin":"金桥","name_en":"Jinqiao","class":"railway","subclass":"subway","osmType":"node","osmId":5308162426},"geometry":{"type":"Point","coordinates":[121.6072181,31.2631226]}},{"type":"Feature","id":"osm-station-5308162427","properties":{"name":"台儿庄路","name_zh":"台儿庄路","name:nonlatin":"台儿庄路","name_en":"Taierzhuang Road","class":"railway","subclass":"subway","osmType":"node","osmId":5308162427},"geometry":{"type":"Point","coordinates":[121.5931398,31.2544453]}},{"type":"Feature","id":"osm-station-5308162428","properties":{"name":"蓝天路","name_zh":"蓝天路","name:nonlatin":"蓝天路","name_en":"Lantian Road","class":"railway","subclass":"subway","osmType":"node","osmId":5308162428},"geometry":{"type":"Point","coordinates":[121.5736362,31.243219]}},{"type":"Feature","id":"osm-station-5308162429","properties":{"name":"芳甸路","name_zh":"芳甸路","name:nonlatin":"芳甸路","name_en":"Fangdian Road","class":"railway","subclass":"subway","osmType":"node","osmId":5308162429},"geometry":{"type":"Point","coordinates":[121.5544198,31.2343994]}},{"type":"Feature","id":"osm-station-5312024931","properties":{"name":"漕宝路","name_zh":"漕宝路","name:nonlatin":"漕宝路","name_en":"Caobao Road","class":"railway","subclass":"subway","osmType":"node","osmId":5312024931},"geometry":{"type":"Point","coordinates":[121.4291103,31.1704329]}},{"type":"Feature","id":"osm-station-5313309157","properties":{"name":"莘庄","name_zh":"莘庄","name:nonlatin":"莘庄","name_en":"Xinzhuang","class":"railway","subclass":"subway","osmType":"node","osmId":5313309157},"geometry":{"type":"Point","coordinates":[121.3808599,31.1130124]}},{"type":"Feature","id":"osm-station-5314272524","properties":{"name":"江苏路","name_zh":"江苏路","name:nonlatin":"江苏路","name_en":"Jiangsu Road","class":"railway","subclass":"subway","osmType":"node","osmId":5314272524},"geometry":{"type":"Point","coordinates":[121.4262469,31.2215398]}},{"type":"Feature","id":"osm-station-5314277881","properties":{"name":"世纪大道","name_zh":"世纪大道","name:nonlatin":"世纪大道","name_en":"Century Avenue","class":"railway","subclass":"subway","osmType":"node","osmId":5314277881},"geometry":{"type":"Point","coordinates":[121.5229001,31.2306936]}},{"type":"Feature","id":"osm-station-8663954070","properties":{"name":"古浪路","name_zh":"古浪路","name:nonlatin":"古浪路","name_en":"Gulang Road","class":"railway","subclass":"subway","osmType":"node","osmId":8663954070},"geometry":{"type":"Point","coordinates":[121.387452,31.2844541]}},{"type":"Feature","id":"osm-station-8663954072","properties":{"name":"锦秋路","name_zh":"锦秋路","name:nonlatin":"锦秋路","name_en":"Jinqiu Road","class":"railway","subclass":"subway","osmType":"node","osmId":8663954072},"geometry":{"type":"Point","coordinates":[121.377316,31.3221876]}},{"type":"Feature","id":"osm-station-8663954075","properties":{"name":"丰翔路","name_zh":"丰翔路","name:nonlatin":"丰翔路","name_en":"Fengxiang Road","class":"railway","subclass":"subway","osmType":"node","osmId":8663954075},"geometry":{"type":"Point","coordinates":[121.3763776,31.3103095]}},{"type":"Feature","id":"osm-station-8663954077","properties":{"name":"南大路","name_zh":"南大路","name:nonlatin":"南大路","name_en":"Nanda Road","class":"railway","subclass":"subway","osmType":"node","osmId":8663954077},"geometry":{"type":"Point","coordinates":[121.3755576,31.3004988]}},{"type":"Feature","id":"osm-station-8663954080","properties":{"name":"顾村公园","name_zh":"顾村公园","name:nonlatin":"顾村公园","name_en":"Gucun Park","class":"railway","subclass":"subway","osmType":"node","osmId":8663954080},"geometry":{"type":"Point","coordinates":[121.3698399,31.3451773]}},{"type":"Feature","id":"osm-station-8663954081","properties":{"name":"祁安路","name_zh":"祁安路","name:nonlatin":"祁安路","name_en":"Qi'an Road","class":"railway","subclass":"subway","osmType":"node","osmId":8663954081},"geometry":{"type":"Point","coordinates":[121.3802641,31.2934242]}},{"type":"Feature","id":"osm-station-9008134439","properties":{"name":"龙阳路","name_zh":"龙阳路","name:nonlatin":"龙阳路","name_en":"Longyang Road","class":"railway","subclass":"subway","osmType":"node","osmId":9008134439},"geometry":{"type":"Point","coordinates":[121.5534538,31.2052208]}},{"type":"Feature","id":"osm-station-9312201959","properties":{"name":"娄山关路","name_zh":"娄山关路","name:nonlatin":"娄山关路","name_en":"Loushanguan Road","class":"railway","subclass":"subway","osmType":"node","osmId":9312201959},"geometry":{"type":"Point","coordinates":[121.3967585,31.2133704]}},{"type":"Feature","id":"osm-station-9381124225","properties":{"name":"昌邑路","name_zh":"昌邑路","name:nonlatin":"昌邑路","name_en":"Changyi Road","class":"railway","subclass":"subway","osmType":"node","osmId":9381124225},"geometry":{"type":"Point","coordinates":[121.5357325,31.2460058]}},{"type":"Feature","id":"osm-station-9381124227","properties":{"name":"北中路","name_zh":"北中路","name:nonlatin":"北中路","name_en":"Beizhong Road","class":"railway","subclass":"subway","osmType":"node","osmId":9381124227},"geometry":{"type":"Point","coordinates":[121.5571091,31.1852344]}},{"type":"Feature","id":"osm-station-9381124228","properties":{"name":"芳芯路","name_zh":"芳芯路","name:nonlatin":"芳芯路","name_en":"Fangxin Road","class":"railway","subclass":"subway","osmType":"node","osmId":9381124228},"geometry":{"type":"Point","coordinates":[121.5550397,31.193162]}},{"type":"Feature","id":"osm-station-9381124229","properties":{"name":"迎春路","name_zh":"迎春路","name:nonlatin":"迎春路","name_en":"Yingchun Road","class":"railway","subclass":"subway","osmType":"node","osmId":9381124229},"geometry":{"type":"Point","coordinates":[121.5467582,31.2232213]}},{"type":"Feature","id":"osm-station-9381127893","properties":{"name":"丹阳路","name_zh":"丹阳路","name:nonlatin":"丹阳路","name_en":"Danyang Road","class":"railway","subclass":"subway","osmType":"node","osmId":9381127893},"geometry":{"type":"Point","coordinates":[121.5260504,31.2569051]}},{"type":"Feature","id":"osm-station-9381158917","properties":{"name":"平凉路","name_zh":"平凉路","name:nonlatin":"平凉路","name_en":"Pingliang Road","class":"railway","subclass":"subway","osmType":"node","osmId":9381158917},"geometry":{"type":"Point","coordinates":[121.52253,31.2610517]}},{"type":"Feature","id":"osm-station-9381199385","properties":{"name":"抚顺路","name_zh":"抚顺路","name:nonlatin":"抚顺路","name_en":"Fushun Road","class":"railway","subclass":"subway","osmType":"node","osmId":9381199385},"geometry":{"type":"Point","coordinates":[121.5113331,31.2860526]}},{"type":"Feature","id":"osm-station-9381674419","properties":{"name":"殷高路","name_zh":"殷高路","name:nonlatin":"殷高路","name_en":"Yingao Road","class":"railway","subclass":"subway","osmType":"node","osmId":9381674419},"geometry":{"type":"Point","coordinates":[121.4909886,31.3235982]}},{"type":"Feature","id":"osm-station-9381675519","properties":{"name":"复旦大学","name_zh":"复旦大学","name:nonlatin":"复旦大学","name_en":"Fudan University","class":"railway","subclass":"subway","osmType":"node","osmId":9381675519},"geometry":{"type":"Point","coordinates":[121.4953727,31.2982596]}},{"type":"Feature","id":"osm-station-9381749213","properties":{"name":"真光路","name_zh":"真光路","name:nonlatin":"真光路","name_en":"Zhenguang Road","class":"railway","subclass":"subway","osmType":"node","osmId":9381749213},"geometry":{"type":"Point","coordinates":[121.3797034,31.2550635]}},{"type":"Feature","id":"osm-station-9381799811","properties":{"name":"嘉怡路","name_zh":"嘉怡路","name:nonlatin":"嘉怡路","name_en":"Jiayi Road","class":"railway","subclass":"subway","osmType":"node","osmId":9381799811},"geometry":{"type":"Point","coordinates":[121.3407328,31.2612945]}},{"type":"Feature","id":"osm-station-9381801902","properties":{"name":"铜川路","name_zh":"铜川路","name:nonlatin":"铜川路","name_en":"Tongchuan Road","class":"railway","subclass":"subway","osmType":"node","osmId":9381801902},"geometry":{"type":"Point","coordinates":[121.3922945,31.2525788]}},{"type":"Feature","id":"osm-station-9381805998","properties":{"name":"真新新村","name_zh":"真新新村","name:nonlatin":"真新新村","name_en":"Zhenxin Xincun","class":"railway","subclass":"subway","osmType":"node","osmId":9381805998},"geometry":{"type":"Point","coordinates":[121.3674467,31.2572465]}},{"type":"Feature","id":"osm-station-9381856640","properties":{"name":"中宁路","name_zh":"中宁路","name:nonlatin":"中宁路","name_en":"Zhongning Road","class":"railway","subclass":"subway","osmType":"node","osmId":9381856640},"geometry":{"type":"Point","coordinates":[121.4100155,31.2469107]}},{"type":"Feature","id":"osm-station-9381931089","properties":{"name":"武定路","name_zh":"武定路","name:nonlatin":"武定路","name_en":"Wuding Road","class":"railway","subclass":"subway","osmType":"node","osmId":9381931089},"geometry":{"type":"Point","coordinates":[121.4317639,31.2289]}},{"type":"Feature","id":"osm-station-9381985702","properties":{"name":"陆家嘴","name_zh":"陆家嘴","name:nonlatin":"陆家嘴","name_en":"Lujiazui","class":"railway","subclass":"subway","osmType":"node","osmId":9381985702},"geometry":{"type":"Point","coordinates":[121.4979194,31.2369216]}},{"type":"Feature","id":"osm-station-9382030652","properties":{"name":"源深路","name_zh":"源深路","name:nonlatin":"源深路","name_en":"Yuanshen Road","class":"railway","subclass":"subway","osmType":"node","osmId":9382030652},"geometry":{"type":"Point","coordinates":[121.5264996,31.2433745]}},{"type":"Feature","id":"osm-station-9382055039","properties":{"name":"浦东大道","name_zh":"浦东大道","name:nonlatin":"浦东大道","name_en":"Pudong Avenue","class":"railway","subclass":"subway","osmType":"node","osmId":9382055039},"geometry":{"type":"Point","coordinates":[121.5149488,31.2424141]}},{"type":"Feature","id":"osm-station-9382067085","properties":{"name":"黄杨路","name_zh":"黄杨路","name:nonlatin":"黄杨路","name_en":"Huangyang Road","class":"railway","subclass":"subway","osmType":"node","osmId":9382067085},"geometry":{"type":"Point","coordinates":[121.5862834,31.2359808]}},{"type":"Feature","id":"osm-station-9382076276","properties":{"name":"歇浦路","name_zh":"歇浦路","name:nonlatin":"歇浦路","name_en":"Xiepu Road","class":"railway","subclass":"subway","osmType":"node","osmId":9382076276},"geometry":{"type":"Point","coordinates":[121.547042,31.2526656]}},{"type":"Feature","id":"osm-station-9382078474","properties":{"name":"云顺路","name_zh":"云顺路","name:nonlatin":"云顺路","name_en":"Yunshun Road","class":"railway","subclass":"subway","osmType":"node","osmId":9382078474},"geometry":{"type":"Point","coordinates":[121.5964372,31.2392917]}},{"type":"Feature","id":"osm-station-9382082818","properties":{"name":"龙居路","name_zh":"龙居路","name:nonlatin":"龙居路","name_en":"Longju Road","class":"railway","subclass":"subway","osmType":"node","osmId":9382082818},"geometry":{"type":"Point","coordinates":[121.5547025,31.2594736]}},{"type":"Feature","id":"osm-station-9836022368","properties":{"name":"江湾镇","name_zh":"江湾镇","name:nonlatin":"江湾镇","name_en":"Jiangwan Town","class":"railway","subclass":"subway","osmType":"node","osmId":9836022368},"geometry":{"type":"Point","coordinates":[121.4805955,31.3074899]}},{"type":"Feature","id":"osm-station-12042988435","properties":{"name":"三林南","name_zh":"三林南","name:nonlatin":"三林南","name_en":"South Sanlin","class":"railway","subclass":"subway","osmType":"node","osmId":12042988435},"geometry":{"type":"Point","coordinates":[121.4820207,31.1280131]}},{"type":"Feature","id":"osm-station-12042988436","properties":{"name":"景洪路","name_zh":"景洪路","name:nonlatin":"景洪路","name_en":"Jinghong Road","class":"railway","subclass":"subway","osmType":"node","osmId":12042988436},"geometry":{"type":"Point","coordinates":[121.4402352,31.1117628]}},{"type":"Feature","id":"osm-station-12210717559","properties":{"name":"康恒路","name_zh":"康恒路","name:nonlatin":"康恒路","name_en":"Kangheng Road","class":"railway","subclass":"subway","osmType":"node","osmId":12210717559},"geometry":{"type":"Point","coordinates":[121.5492931,31.1564411]}},{"type":"Feature","id":"osm-station-12222691485","properties":{"name":"高斯路","name_zh":"高斯路","name:nonlatin":"高斯路","name_en":"Gaosi Road","class":"railway","subclass":"subway","osmType":"node","osmId":12222691485},"geometry":{"type":"Point","coordinates":[121.6090151,31.2021249]}},{"type":"Feature","id":"osm-station-12222691486","properties":{"name":"张衡路","name_zh":"张衡路","name:nonlatin":"张衡路","name_en":"Zhangheng Road","class":"railway","subclass":"subway","osmType":"node","osmId":12222691486},"geometry":{"type":"Point","coordinates":[121.6080916,31.1940038]}},{"type":"Feature","id":"osm-station-12303959813","properties":{"name":"上海大学","name_zh":"上海大学","name:nonlatin":"上海大学","name_en":"Shanghai University","class":"railway","subclass":"subway","osmType":"node","osmId":12303959813},"geometry":{"type":"Point","coordinates":[121.3839347,31.3223633]}},{"type":"Feature","id":"osm-station-12519546106","properties":{"name":"学林路","name_zh":"学林路","name:nonlatin":"学林路","name_en":"Xuelin Road","class":"railway","subclass":"subway","osmType":"node","osmId":12519546106},"geometry":{"type":"Point","coordinates":[121.6088323,31.1860407]}},{"type":"Feature","id":"osm-station-12735998360","properties":{"name":"东陆路","name_zh":"东陆路","name:nonlatin":"东陆路","name_en":"Donglu Road","class":"railway","subclass":"subway","osmType":"node","osmId":12735998360},"geometry":{"type":"Point","coordinates":[121.5746438,31.2846873]}},{"type":"Feature","id":"osm-station-12913835981","properties":{"name":"外环路","name_zh":"外环路","name:nonlatin":"外环路","name_en":"Waihuanlu","class":"railway","subclass":"subway","osmType":"node","osmId":12913835981},"geometry":{"type":"Point","coordinates":[121.3883624,31.1228126]}},{"type":"Feature","id":"osm-station-13444650643","properties":{"name":"周家嘴路（在建）","name_zh":"周家嘴路（在建）","name:nonlatin":"周家嘴路（在建）","name_en":"","class":"railway","subclass":"subway","osmType":"node","osmId":13444650643},"geometry":{"type":"Point","coordinates":[121.4963909,31.2608032]}},{"type":"Feature","id":"osm-station-13444650644","properties":{"name":"海伦路（在建）","name_zh":"海伦路（在建）","name:nonlatin":"海伦路（在建）","name_en":"","class":"railway","subclass":"subway","osmType":"node","osmId":13444650644},"geometry":{"type":"Point","coordinates":[121.4863657,31.2620274]}},{"type":"Feature","id":"osm-station-13444650645","properties":{"name":"海伦路","name_zh":"海伦路","name:nonlatin":"海伦路","name_en":"","class":"railway","subclass":"subway","osmType":"node","osmId":13444650645},"geometry":{"type":"Point","coordinates":[121.4853312,31.2609723]}},{"type":"Feature","id":"osm-station-13444650647","properties":{"name":"提篮桥（在建）","name_zh":"提篮桥（在建）","name:nonlatin":"提篮桥（在建）","name_en":"","class":"railway","subclass":"subway","osmType":"node","osmId":13444650647},"geometry":{"type":"Point","coordinates":[121.5007603,31.2560964]}},{"type":"Feature","id":"osm-station-13444650648","properties":{"name":"浦东南路（在建）","name_zh":"浦东南路（在建）","name:nonlatin":"浦东南路（在建）","name_en":"","class":"railway","subclass":"subway","osmType":"node","osmId":13444650648},"geometry":{"type":"Point","coordinates":[121.507915,31.2377494]}},{"type":"Feature","id":"osm-station-13444650649","properties":{"name":"商城路（在建）","name_zh":"商城路（在建）","name:nonlatin":"商城路（在建）","name_en":"","class":"railway","subclass":"subway","osmType":"node","osmId":13444650649},"geometry":{"type":"Point","coordinates":[121.5105065,31.2330094]}},{"type":"Feature","id":"osm-station-13444650650","properties":{"name":"潍坊路（在建）","name_zh":"潍坊路（在建）","name:nonlatin":"潍坊路（在建）","name_en":"","class":"railway","subclass":"subway","osmType":"node","osmId":13444650650},"geometry":{"type":"Point","coordinates":[121.5137128,31.2242322]}},{"type":"Feature","id":"osm-station-13444650651","properties":{"name":"塘桥（在建）","name_zh":"塘桥（在建）","name:nonlatin":"塘桥（在建）","name_en":"","class":"railway","subclass":"subway","osmType":"node","osmId":13444650651},"geometry":{"type":"Point","coordinates":[121.5131896,31.2135352]}},{"type":"Feature","id":"osm-station-13444650652","properties":{"name":"南码头路（在建）","name_zh":"南码头路（在建）","name:nonlatin":"南码头路（在建）","name_en":"","class":"railway","subclass":"subway","osmType":"node","osmId":13444650652},"geometry":{"type":"Point","coordinates":[121.5050916,31.1986898]}},{"type":"Feature","id":"osm-station-13444650653","properties":{"name":"华丰路（在建）","name_zh":"华丰路（在建）","name:nonlatin":"华丰路（在建）","name_en":"","class":"railway","subclass":"subway","osmType":"node","osmId":13444650653},"geometry":{"type":"Point","coordinates":[121.5015367,31.1930039]}},{"type":"Feature","id":"osm-station-13444650654","properties":{"name":"中华艺术宫南（在建）","name_zh":"中华艺术宫南（在建）","name:nonlatin":"中华艺术宫南（在建）","name_en":"","class":"railway","subclass":"subway","osmType":"node","osmId":13444650654},"geometry":{"type":"Point","coordinates":[121.4916911,31.1856591]}},{"type":"Feature","id":"osm-station-13444650655","properties":{"name":"世博大道（在建）","name_zh":"世博大道（在建）","name:nonlatin":"世博大道（在建）","name_en":"","class":"railway","subclass":"subway","osmType":"node","osmId":13444650655},"geometry":{"type":"Point","coordinates":[121.4772501,31.1831258]}},{"type":"Feature","id":"osm-station-13444650656","properties":{"name":"后滩（在建）","name_zh":"后滩（在建）","name:nonlatin":"后滩（在建）","name_en":"","class":"railway","subclass":"subway","osmType":"node","osmId":13444650656},"geometry":{"type":"Point","coordinates":[121.4693654,31.1764998]}},{"type":"Feature","id":"osm-station-13444650657","properties":{"name":"德州路（在建）","name_zh":"德州路（在建）","name:nonlatin":"德州路（在建）","name_en":"","class":"railway","subclass":"subway","osmType":"node","osmId":13444650657},"geometry":{"type":"Point","coordinates":[121.473579,31.1663375]}},{"type":"Feature","id":"osm-station-13444650658","properties":{"name":"东方体育中心（在建）","name_zh":"东方体育中心（在建）","name:nonlatin":"东方体育中心（在建）","name_en":"","class":"railway","subclass":"subway","osmType":"node","osmId":13444650658},"geometry":{"type":"Point","coordinates":[121.4767061,31.1582463]}},{"type":"Feature","id":"osm-station-13444650659","properties":{"name":"凌兆新村（在建）","name_zh":"凌兆新村（在建）","name:nonlatin":"凌兆新村（在建）","name_en":"","class":"railway","subclass":"subway","osmType":"node","osmId":13444650659},"geometry":{"type":"Point","coordinates":[121.4825061,31.1427274]}},{"type":"Feature","id":"osm-station-13444650660","properties":{"name":"三林南（在建）","name_zh":"三林南（在建）","name:nonlatin":"三林南（在建）","name_en":"","class":"railway","subclass":"subway","osmType":"node","osmId":13444650660},"geometry":{"type":"Point","coordinates":[121.4837803,31.1284152]}},{"type":"Feature","id":"osm-station-13444650661","properties":{"name":"华泾路（在建）","name_zh":"华泾路（在建）","name:nonlatin":"华泾路（在建）","name_en":"","class":"railway","subclass":"subway","osmType":"node","osmId":13444650661},"geometry":{"type":"Point","coordinates":[121.4507552,31.1221636]}},{"type":"Feature","id":"osm-station-13444650662","properties":{"name":"景洪路（在建）","name_zh":"景洪路（在建）","name:nonlatin":"景洪路（在建）","name_en":"","class":"railway","subclass":"subway","osmType":"node","osmId":13444650662},"geometry":{"type":"Point","coordinates":[121.4364794,31.1135138]}},{"type":"Feature","id":"osm-station-71799647","properties":{"name":"漕溪路","name_zh":"漕溪路","name:nonlatin":"漕溪路","name_en":"Caoxi Road","class":"railway","subclass":"subway","osmType":"way","osmId":71799647},"geometry":{"type":"Point","coordinates":[121.4338149,31.1786074]}},{"type":"Feature","id":"osm-station-71799648","properties":{"name":"镇坪路","name_zh":"镇坪路","name:nonlatin":"镇坪路","name_en":"Zhenping Road","class":"railway","subclass":"subway","osmType":"way","osmId":71799648},"geometry":{"type":"Point","coordinates":[121.4251551,31.2481995]}},{"type":"Feature","id":"osm-station-71799655","properties":{"name":"延安西路","name_zh":"延安西路","name:nonlatin":"延安西路","name_en":"West Yan'an Road","class":"railway","subclass":"subway","osmType":"way","osmId":71799655},"geometry":{"type":"Point","coordinates":[121.4124439,31.21142]}},{"type":"Feature","id":"osm-station-95222724","properties":{"name":"石龙路","name_zh":"石龙路","name:nonlatin":"石龙路","name_en":"Shilong Road","class":"railway","subclass":"subway","osmType":"way","osmId":95222724},"geometry":{"type":"Point","coordinates":[121.4386219,31.1598584]}},{"type":"Feature","id":"osm-station-95222731","properties":{"name":"上海南站","name_zh":"上海南站","name:nonlatin":"上海南站","name_en":"Shanghai South Railway Station","class":"railway","subclass":"subway","osmType":"way","osmId":95222731},"geometry":{"type":"Point","coordinates":[121.4265913,31.1552726]}},{"type":"Feature","id":"osm-station-97533050","properties":{"name":"中潭路","name_zh":"中潭路","name:nonlatin":"中潭路","name_en":"Zhongtan Road","class":"railway","subclass":"subway","osmType":"way","osmId":97533050},"geometry":{"type":"Point","coordinates":[121.436407,31.2564321]}},{"type":"Feature","id":"osm-station-97546596","properties":{"name":"上海火车站","name_zh":"上海火车站","name:nonlatin":"上海火车站","name_en":"Shanghai Railway Station","class":"railway","subclass":"subway","osmType":"way","osmId":97546596},"geometry":{"type":"Point","coordinates":[121.4531892,31.251705]}},{"type":"Feature","id":"osm-station-97550426","properties":{"name":"宝山路","name_zh":"宝山路","name:nonlatin":"宝山路","name_en":"Baoshan Road","class":"railway","subclass":"subway","osmType":"way","osmId":97550426},"geometry":{"type":"Point","coordinates":[121.4717878,31.2534974]}},{"type":"Feature","id":"osm-station-97666199","properties":{"name":"殷高西路","name_zh":"殷高西路","name:nonlatin":"殷高西路","name_en":"West Yin'gao Road","class":"railway","subclass":"subway","osmType":"way","osmId":97666199},"geometry":{"type":"Point","coordinates":[121.4804318,31.3219502]}},{"type":"Feature","id":"osm-station-97666208","properties":{"name":"长江南路","name_zh":"长江南路","name:nonlatin":"长江南路","name_en":"South Changjiang Road","class":"railway","subclass":"subway","osmType":"way","osmId":97666208},"geometry":{"type":"Point","coordinates":[121.4870594,31.3340133]}},{"type":"Feature","id":"osm-station-97671076","properties":{"name":"赤峰路","name_zh":"赤峰路","name:nonlatin":"赤峰路","name_en":"Chifeng Road","class":"railway","subclass":"subway","osmType":"way","osmId":97671076},"geometry":{"type":"Point","coordinates":[121.4779161,31.2831792]}},{"type":"Feature","id":"osm-station-97671079","properties":{"name":"大柏树","name_zh":"大柏树","name:nonlatin":"大柏树","name_en":"Dabaishu","class":"railway","subclass":"subway","osmType":"way","osmId":97671079},"geometry":{"type":"Point","coordinates":[121.4786881,31.291411]}},{"type":"Feature","id":"osm-station-144554239","properties":{"name":"东宝兴路","name_zh":"东宝兴路","name:nonlatin":"东宝兴路","name_en":"Dongbaoxing Road","class":"railway","subclass":"subway","osmType":"way","osmId":144554239},"geometry":{"type":"Point","coordinates":[121.475705,31.2618273]}},{"type":"Feature","id":"osm-station-144554242","properties":{"name":"虹口足球场","name_zh":"虹口足球场","name:nonlatin":"虹口足球场","name_en":"Hongkou Football Stadium","class":"railway","subclass":"subway","osmType":"way","osmId":144554242},"geometry":{"type":"Point","coordinates":[121.4747472,31.2732251]}},{"type":"Feature","id":"osm-station-146701242","properties":{"name":"东靖路","name_zh":"东靖路","name:nonlatin":"东靖路","name_en":"Dongjing Road","class":"railway","subclass":"subway","osmType":"way","osmId":146701242},"geometry":{"type":"Point","coordinates":[121.5846216,31.2928062]}},{"type":"Feature","id":"osm-station-146701243","properties":{"name":"五洲大道","name_zh":"五洲大道","name:nonlatin":"五洲大道","name_en":"Wuzhou Avenue","class":"railway","subclass":"subway","osmType":"way","osmId":146701243},"geometry":{"type":"Point","coordinates":[121.5851041,31.3046922]}},{"type":"Feature","id":"osm-station-146701244","properties":{"name":"五莲路","name_zh":"五莲路","name:nonlatin":"五莲路","name_en":"Wulian Road","class":"railway","subclass":"subway","osmType":"way","osmId":146701244},"geometry":{"type":"Point","coordinates":[121.5837533,31.274151]}},{"type":"Feature","id":"osm-station-146701286","properties":{"name":"外高桥保税区北","name_zh":"外高桥保税区北","name:nonlatin":"外高桥保税区北","name_en":"North Waigaoqiao Free Trade Zone","class":"railway","subclass":"subway","osmType":"way","osmId":146701286},"geometry":{"type":"Point","coordinates":[121.5826967,31.3499474]}},{"type":"Feature","id":"osm-station-146701287","properties":{"name":"外高桥保税区南","name_zh":"外高桥保税区南","name:nonlatin":"外高桥保税区南","name_en":"South Waigaoqiao Free Trade Zone","class":"railway","subclass":"subway","osmType":"way","osmId":146701287},"geometry":{"type":"Point","coordinates":[121.5977257,31.3237655]}},{"type":"Feature","id":"osm-station-146701289","properties":{"name":"洲海路","name_zh":"洲海路","name:nonlatin":"洲海路","name_en":"Zhouhai Road","class":"railway","subclass":"subway","osmType":"way","osmId":146701289},"geometry":{"type":"Point","coordinates":[121.585197,31.3143994]}},{"type":"Feature","id":"osm-station-146701290","properties":{"name":"航津路","name_zh":"航津路","name:nonlatin":"航津路","name_en":"Hangjin Road","class":"railway","subclass":"subway","osmType":"way","osmId":146701290},"geometry":{"type":"Point","coordinates":[121.5897812,31.3375153]}},{"type":"Feature","id":"osm-station-264109694","properties":{"name":"上海体育馆","name_zh":"上海体育馆","name:nonlatin":"上海体育馆","name_en":"Shanghai Indoor Stadium","class":"railway","subclass":"subway","osmType":"way","osmId":264109694},"geometry":{"type":"Point","coordinates":[121.4316237,31.1837286]}},{"type":"Feature","id":"osm-station-264602662","properties":{"name":"浦东南路","name_zh":"浦东南路","name:nonlatin":"浦东南路","name_en":"South Pudong Road","class":"railway","subclass":"subway","osmType":"way","osmId":264602662},"geometry":{"type":"Point","coordinates":[121.511115,31.2353829]}},{"type":"Feature","id":"osm-station-406423633","properties":{"name":"淞发路","name_zh":"淞发路","name:nonlatin":"淞发路","name_en":"Songfa Road","class":"railway","subclass":"subway","osmType":"way","osmId":406423633},"geometry":{"type":"Point","coordinates":[121.4959577,31.3471701]}},{"type":"Feature","id":"osm-station-446115662","properties":{"name":"罗山路","name_zh":"罗山路","name:nonlatin":"罗山路","name_en":"Luoshan Road","class":"railway","subclass":"subway","osmType":"way","osmId":446115662},"geometry":{"type":"Point","coordinates":[121.5888673,31.1555212]}},{"type":"Feature","id":"osm-station-460289575","properties":{"name":"呼兰路","name_zh":"呼兰路","name:nonlatin":"呼兰路","name_en":"Hulan Road","class":"railway","subclass":"subway","osmType":"way","osmId":460289575},"geometry":{"type":"Point","coordinates":[121.4330794,31.3415745]}},{"type":"Feature","id":"osm-station-460592049","properties":{"name":"华夏中路","name_zh":"华夏中路","name:nonlatin":"华夏中路","name_en":"Middle Huaxia Road","class":"railway","subclass":"subway","osmType":"way","osmId":460592049},"geometry":{"type":"Point","coordinates":[121.5789171,31.1780284]}},{"type":"Feature","id":"osm-station-460592056","properties":{"name":"周浦东","name_zh":"周浦东","name:nonlatin":"周浦东","name_en":"East Zhoupu","class":"railway","subclass":"subway","osmType":"way","osmId":460592056},"geometry":{"type":"Point","coordinates":[121.6027294,31.1123526]}},{"type":"Feature","id":"osm-station-461892472","properties":{"name":"芳华路","name_zh":"芳华路","name:nonlatin":"芳华路","name_en":"Fanghua Road","class":"railway","subclass":"subway","osmType":"way","osmId":461892472},"geometry":{"type":"Point","coordinates":[121.5457808,31.1953299]}},{"type":"Feature","id":"osm-station-478613740","properties":{"name":"锦绣路","name_zh":"锦绣路","name:nonlatin":"锦绣路","name_en":"Jinxiu Road","class":"railway","subclass":"subway","osmType":"way","osmId":478613740},"geometry":{"type":"Point","coordinates":[121.5356397,31.1897121]}},{"type":"Feature","id":"osm-station-478643154","properties":{"name":"长清路","name_zh":"长清路","name:nonlatin":"长清路","name_en":"Changqing Road","class":"railway","subclass":"subway","osmType":"way","osmId":478643154},"geometry":{"type":"Point","coordinates":[121.4817087,31.1766451]}},{"type":"Feature","id":"osm-station-481982627","properties":{"name":"祁华路","name_zh":"祁华路","name:nonlatin":"祁华路","name_en":"Qihua Road","class":"railway","subclass":"subway","osmType":"way","osmId":481982627},"geometry":{"type":"Point","coordinates":[121.3688336,31.3241778]}},{"type":"Feature","id":"osm-station-481982629","properties":{"name":"南陈路","name_zh":"南陈路","name:nonlatin":"南陈路","name_en":"Nanchen Road","class":"railway","subclass":"subway","osmType":"way","osmId":481982629},"geometry":{"type":"Point","coordinates":[121.3936629,31.3235583]}},{"type":"Feature","id":"osm-station-481982631","properties":{"name":"上大路","name_zh":"上大路","name:nonlatin":"上大路","name_en":"Shangda Road","class":"railway","subclass":"subway","osmType":"way","osmId":481982631},"geometry":{"type":"Point","coordinates":[121.4038689,31.3169815]}},{"type":"Feature","id":"osm-station-481992272","properties":{"name":"场中路","name_zh":"场中路","name:nonlatin":"场中路","name_en":"Changzhong Road","class":"railway","subclass":"subway","osmType":"way","osmId":481992272},"geometry":{"type":"Point","coordinates":[121.4086121,31.3056307]}},{"type":"Feature","id":"osm-station-481992273","properties":{"name":"大场镇","name_zh":"大场镇","name:nonlatin":"大场镇","name_en":"Dachang Town","class":"railway","subclass":"subway","osmType":"way","osmId":481992273},"geometry":{"type":"Point","coordinates":[121.4115867,31.2951955]}},{"type":"Feature","id":"osm-station-481992274","properties":{"name":"行知路","name_zh":"行知路","name:nonlatin":"行知路","name_en":"Xingzhi Road","class":"railway","subclass":"subway","osmType":"way","osmId":481992274},"geometry":{"type":"Point","coordinates":[121.4171585,31.2859284]}},{"type":"Feature","id":"osm-station-481992275","properties":{"name":"大华三路","name_zh":"大华三路","name:nonlatin":"大华三路","name_en":"Dahuasan Road","class":"railway","subclass":"subway","osmType":"way","osmId":481992275},"geometry":{"type":"Point","coordinates":[121.4185025,31.2756155]}},{"type":"Feature","id":"osm-station-481992276","properties":{"name":"新村路","name_zh":"新村路","name:nonlatin":"新村路","name_en":"Xincun Road","class":"railway","subclass":"subway","osmType":"way","osmId":481992276},"geometry":{"type":"Point","coordinates":[121.4182,31.2652861]}},{"type":"Feature","id":"osm-station-481992277","properties":{"name":"岚皋路","name_zh":"岚皋路","name:nonlatin":"岚皋路","name_en":"Lan'gao Road","class":"railway","subclass":"subway","osmType":"way","osmId":481992277},"geometry":{"type":"Point","coordinates":[121.4171405,31.2580255]}},{"type":"Feature","id":"osm-station-481992279","properties":{"name":"花木路","name_zh":"花木路","name:nonlatin":"花木路","name_en":"Huamu Road","class":"railway","subclass":"subway","osmType":"way","osmId":481992279},"geometry":{"type":"Point","coordinates":[121.5585663,31.2131883]}},{"type":"Feature","id":"osm-station-481992281","properties":{"name":"杨高南路","name_zh":"杨高南路","name:nonlatin":"杨高南路","name_en":"South Yanggao Road","class":"railway","subclass":"subway","osmType":"way","osmId":481992281},"geometry":{"type":"Point","coordinates":[121.5201071,31.1896768]}},{"type":"Feature","id":"osm-station-481992283","properties":{"name":"高科西路","name_zh":"高科西路","name:nonlatin":"高科西路","name_en":"West Gaoke Road","class":"railway","subclass":"subway","osmType":"way","osmId":481992283},"geometry":{"type":"Point","coordinates":[121.5051689,31.1876786]}},{"type":"Feature","id":"osm-station-481992285","properties":{"name":"云台路","name_zh":"云台路","name:nonlatin":"云台路","name_en":"Yuntai Road","class":"railway","subclass":"subway","osmType":"way","osmId":481992285},"geometry":{"type":"Point","coordinates":[121.4959095,31.1842127]}},{"type":"Feature","id":"osm-station-481992286","properties":{"name":"耀华路","name_zh":"耀华路","name:nonlatin":"耀华路","name_en":"Yaohua Road","class":"railway","subclass":"subway","osmType":"way","osmId":481992286},"geometry":{"type":"Point","coordinates":[121.4903049,31.1805254]}},{"type":"Feature","id":"osm-station-481992287","properties":{"name":"后滩","name_zh":"后滩","name:nonlatin":"后滩","name_en":"Houtan","class":"railway","subclass":"subway","osmType":"way","osmId":481992287},"geometry":{"type":"Point","coordinates":[121.4693795,31.1740516]}},{"type":"Feature","id":"osm-station-482002481","properties":{"name":"龙华中路","name_zh":"龙华中路","name:nonlatin":"龙华中路","name_en":"Middle Longhua Road","class":"railway","subclass":"subway","osmType":"way","osmId":482002481},"geometry":{"type":"Point","coordinates":[121.4526968,31.1860139]}},{"type":"Feature","id":"osm-station-482002482","properties":{"name":"东安路","name_zh":"东安路","name:nonlatin":"东安路","name_en":"Dong'an Road","class":"railway","subclass":"subway","osmType":"way","osmId":482002482},"geometry":{"type":"Point","coordinates":[121.4499645,31.1925179]}},{"type":"Feature","id":"osm-station-482002483","properties":{"name":"肇嘉浜路","name_zh":"肇嘉浜路","name:nonlatin":"肇嘉浜路","name_en":"Zhaojiabang Road","class":"railway","subclass":"subway","osmType":"way","osmId":482002483},"geometry":{"type":"Point","coordinates":[121.4458283,31.2012875]}},{"type":"Feature","id":"osm-station-482002489","properties":{"name":"昌平路","name_zh":"昌平路","name:nonlatin":"昌平路","name_en":"Changping Road","class":"railway","subclass":"subway","osmType":"way","osmId":482002489},"geometry":{"type":"Point","coordinates":[121.4381473,31.2354606]}},{"type":"Feature","id":"osm-station-482002493","properties":{"name":"长寿路","name_zh":"长寿路","name:nonlatin":"长寿路","name_en":"Changshou Road","class":"railway","subclass":"subway","osmType":"way","osmId":482002493},"geometry":{"type":"Point","coordinates":[121.4339192,31.2427822]}},{"type":"Feature","id":"osm-station-513228698","properties":{"name":"上海体育场","name_zh":"上海体育场","name:nonlatin":"上海体育场","name_en":"Shanghai Stadium","class":"railway","subclass":"subway","osmType":"way","osmId":513228698},"geometry":{"type":"Point","coordinates":[121.4391614,31.1874159]}},{"type":"Feature","id":"osm-station-513237661","properties":{"name":"临平路","name_zh":"临平路","name:nonlatin":"临平路","name_en":"Linping Road","class":"railway","subclass":"subway","osmType":"way","osmId":513237661},"geometry":{"type":"Point","coordinates":[121.4964839,31.2629886]}},{"type":"Feature","id":"osm-station-513237662","properties":{"name":"大连路","name_zh":"大连路","name:nonlatin":"大连路","name_en":"Dalian Road","class":"railway","subclass":"subway","osmType":"way","osmId":513237662},"geometry":{"type":"Point","coordinates":[121.5083891,31.260165]}},{"type":"Feature","id":"osm-station-513237663","properties":{"name":"杨树浦路","name_zh":"杨树浦路","name:nonlatin":"杨树浦路","name_en":"Yangshupu Road","class":"railway","subclass":"subway","osmType":"way","osmId":513237663},"geometry":{"type":"Point","coordinates":[121.5125161,31.2541829]}},{"type":"Feature","id":"osm-station-513247378","properties":{"name":"向城路","name_zh":"向城路","name:nonlatin":"向城路","name_en":"Xiangcheng Road","class":"railway","subclass":"subway","osmType":"way","osmId":513247378},"geometry":{"type":"Point","coordinates":[121.5277708,31.2246257]}},{"type":"Feature","id":"osm-station-513247379","properties":{"name":"浦电路","name_zh":"浦电路","name:nonlatin":"浦电路","name_en":"Pudian Road","class":"railway","subclass":"subway","osmType":"way","osmId":513247379},"geometry":{"type":"Point","coordinates":[121.5246396,31.222202]}},{"type":"Feature","id":"osm-station-513247380","properties":{"name":"蓝村路","name_zh":"蓝村路","name:nonlatin":"蓝村路","name_en":"Lancun Road","class":"railway","subclass":"subway","osmType":"way","osmId":513247380},"geometry":{"type":"Point","coordinates":[121.5236643,31.2136095]}},{"type":"Feature","id":"osm-station-513247381","properties":{"name":"塘桥","name_zh":"塘桥","name:nonlatin":"塘桥","name_en":"Tangqiao","class":"railway","subclass":"subway","osmType":"way","osmId":513247381},"geometry":{"type":"Point","coordinates":[121.514395,31.2118426]}},{"type":"Feature","id":"osm-station-513247382","properties":{"name":"南浦大桥","name_zh":"南浦大桥","name:nonlatin":"南浦大桥","name_en":"Nanpu Bridge","class":"railway","subclass":"subway","osmType":"way","osmId":513247382},"geometry":{"type":"Point","coordinates":[121.4950192,31.2104023]}},{"type":"Feature","id":"osm-station-513247383","properties":{"name":"鲁班路","name_zh":"鲁班路","name:nonlatin":"鲁班路","name_en":"Luban Road","class":"railway","subclass":"subway","osmType":"way","osmId":513247383},"geometry":{"type":"Point","coordinates":[121.4705633,31.2010784]}},{"type":"Feature","id":"osm-station-513247384","properties":{"name":"西藏南路","name_zh":"西藏南路","name:nonlatin":"西藏南路","name_en":"South Xizang Road","class":"railway","subclass":"subway","osmType":"way","osmId":513247384},"geometry":{"type":"Point","coordinates":[121.4851146,31.2036065]}},{"type":"Feature","id":"osm-station-513247385","properties":{"name":"大木桥路","name_zh":"大木桥路","name:nonlatin":"大木桥路","name_en":"Damuqiao Road","class":"railway","subclass":"subway","osmType":"way","osmId":513247385},"geometry":{"type":"Point","coordinates":[121.459003,31.1959981]}},{"type":"Feature","id":"osm-station-513764717","properties":{"name":"人民广场","name_zh":"人民广场","name:nonlatin":"人民广场","name_en":"People's Square","class":"railway","subclass":"subway","osmType":"way","osmId":513764717},"geometry":{"type":"Point","coordinates":[121.4705235,31.2344272]}},{"type":"Feature","id":"osm-station-513798338","properties":{"name":"汉中路","name_zh":"汉中路","name:nonlatin":"汉中路","name_en":"Hanzhong Road","class":"railway","subclass":"subway","osmType":"way","osmId":513798338},"geometry":{"type":"Point","coordinates":[121.4545361,31.242627]}},{"type":"Feature","id":"osm-station-514379251","properties":{"name":"杨高中路","name_zh":"杨高中路","name:nonlatin":"杨高中路","name_en":"Middle Yanggao Road","class":"railway","subclass":"subway","osmType":"way","osmId":514379251},"geometry":{"type":"Point","coordinates":[121.544055,31.2295266]}},{"type":"Feature","id":"osm-station-593786640","properties":{"name":"中华艺术宫","name_zh":"中华艺术宫","name:nonlatin":"中华艺术宫","name_en":"China Art Museum","class":"railway","subclass":"subway","osmType":"way","osmId":593786640},"geometry":{"type":"Point","coordinates":[121.4893244,31.1872227]}},{"type":"Feature","id":"osm-station-594098993","properties":{"name":"世博大道","name_zh":"世博大道","name:nonlatin":"世博大道","name_en":"Shibo Avenue","class":"railway","subclass":"subway","osmType":"way","osmId":594098993},"geometry":{"type":"Point","coordinates":[121.479838,31.1846372]}},{"type":"Feature","id":"osm-station-619428333","properties":{"name":"世纪公园","name_zh":"世纪公园","name:nonlatin":"世纪公园","name_en":"Century Park","class":"railway","subclass":"subway","osmType":"way","osmId":619428333},"geometry":{"type":"Point","coordinates":[121.5466162,31.2114184]}},{"type":"Feature","id":"osm-station-659455437","properties":{"name":"陈春路","name_zh":"陈春路","name:nonlatin":"陈春路","name_en":"Chenchun Road","class":"railway","subclass":"subway","osmType":"way","osmId":659455437},"geometry":{"type":"Point","coordinates":[121.5538662,31.176986]}},{"type":"Feature","id":"osm-station-659455438","properties":{"name":"北蔡","name_zh":"北蔡","name:nonlatin":"北蔡","name_en":"Beicai","class":"railway","subclass":"subway","osmType":"way","osmId":659455438},"geometry":{"type":"Point","coordinates":[121.5478098,31.182163]}},{"type":"Feature","id":"osm-station-659455439","properties":{"name":"下南路","name_zh":"下南路","name:nonlatin":"下南路","name_en":"Xianan Road","class":"railway","subclass":"subway","osmType":"way","osmId":659455439},"geometry":{"type":"Point","coordinates":[121.5362495,31.1814746]}},{"type":"Feature","id":"osm-station-659455440","properties":{"name":"华鹏路","name_zh":"华鹏路","name:nonlatin":"华鹏路","name_en":"Huapeng Road","class":"railway","subclass":"subway","osmType":"way","osmId":659455440},"geometry":{"type":"Point","coordinates":[121.5222605,31.1784416]}},{"type":"Feature","id":"osm-station-659461032","properties":{"name":"中科路","name_zh":"中科路","name:nonlatin":"中科路","name_en":"Zhongke Road","class":"railway","subclass":"subway","osmType":"way","osmId":659461032},"geometry":{"type":"Point","coordinates":[121.5975394,31.1810277]}},{"type":"Feature","id":"osm-station-765739894","properties":{"name":"国帆路","name_zh":"国帆路","name:nonlatin":"国帆路","name_en":"Guofan Road","class":"railway","subclass":"subway","osmType":"way","osmId":765739894},"geometry":{"type":"Point","coordinates":[121.5087823,31.3416315]}},{"type":"Feature","id":"osm-station-900800809","properties":{"name":"朱梅路","name_zh":"朱梅路","name:nonlatin":"朱梅路","name_en":"Zhumei Road","class":"railway","subclass":"subway","osmType":"way","osmId":900800809},"geometry":{"type":"Point","coordinates":[121.4333425,31.1262981]}},{"type":"Feature","id":"osm-station-900800810","properties":{"name":"罗秀路","name_zh":"罗秀路","name:nonlatin":"罗秀路","name_en":"Luoxiu Road","class":"railway","subclass":"subway","osmType":"way","osmId":900800810},"geometry":{"type":"Point","coordinates":[121.4311874,31.1337004]}},{"type":"Feature","id":"osm-station-900800811","properties":{"name":"华东理工大学","name_zh":"华东理工大学","name:nonlatin":"华东理工大学","name_en":"East China University of Science & Technology","class":"railway","subclass":"subway","osmType":"way","osmId":900800811},"geometry":{"type":"Point","coordinates":[121.4241171,31.1461157]}},{"type":"Feature","id":"osm-station-900800814","properties":{"name":"桂林路","name_zh":"桂林路","name:nonlatin":"桂林路","name_en":"Guilin Road","class":"railway","subclass":"subway","osmType":"way","osmId":900800814},"geometry":{"type":"Point","coordinates":[121.411221,31.1771926]}},{"type":"Feature","id":"osm-station-900800815","properties":{"name":"姚虹路","name_zh":"姚虹路","name:nonlatin":"姚虹路","name_en":"Yaohong Road","class":"railway","subclass":"subway","osmType":"way","osmId":900800815},"geometry":{"type":"Point","coordinates":[121.401447,31.1933467]}},{"type":"Feature","id":"osm-station-900800816","properties":{"name":"吴中路","name_zh":"吴中路","name:nonlatin":"吴中路","name_en":"Wuzhong Road","class":"railway","subclass":"subway","osmType":"way","osmId":900800816},"geometry":{"type":"Point","coordinates":[121.409253,31.1860595]}},{"type":"Feature","id":"osm-station-900800817","properties":{"name":"红宝石路","name_zh":"红宝石路","name:nonlatin":"红宝石路","name_en":"Hongbaoshi Road","class":"railway","subclass":"subway","osmType":"way","osmId":900800817},"geometry":{"type":"Point","coordinates":[121.3935935,31.2005785]}},{"type":"Feature","id":"osm-station-900800819","properties":{"name":"长风公园","name_zh":"长风公园","name:nonlatin":"长风公园","name_en":"Changfeng Park","class":"railway","subclass":"subway","osmType":"way","osmId":900800819},"geometry":{"type":"Point","coordinates":[121.3913599,31.2271864]}},{"type":"Feature","id":"osm-station-900800821","properties":{"name":"梅岭北路","name_zh":"梅岭北路","name:nonlatin":"梅岭北路","name_en":"North Meiling Road","class":"railway","subclass":"subway","osmType":"way","osmId":900800821},"geometry":{"type":"Point","coordinates":[121.3921022,31.2457461]}},{"type":"Feature","id":"osm-station-900800823","properties":{"name":"上海西站","name_zh":"上海西站","name:nonlatin":"上海西站","name_en":"Shanghai West Railway Station","class":"railway","subclass":"subway","osmType":"way","osmId":900800823},"geometry":{"type":"Point","coordinates":[121.39667,31.2651065]}},{"type":"Feature","id":"osm-station-900800824","properties":{"name":"武威东路","name_zh":"武威东路","name:nonlatin":"武威东路","name_en":"East Wuwei Road","class":"railway","subclass":"subway","osmType":"way","osmId":900800824},"geometry":{"type":"Point","coordinates":[121.387403,31.2771479]}},{"type":"Feature","id":"osm-station-900814441","properties":{"name":"康桥","name_zh":"康桥","name:nonlatin":"康桥","name_en":"Kangqiao","class":"railway","subclass":"subway","osmType":"way","osmId":900814441},"geometry":{"type":"Point","coordinates":[121.5630877,31.1365059]}},{"type":"Feature","id":"osm-station-900814442","properties":{"name":"周浦","name_zh":"周浦","name:nonlatin":"周浦","name_en":"Zhoupu","class":"railway","subclass":"subway","osmType":"way","osmId":900814442},"geometry":{"type":"Point","coordinates":[121.563431,31.1167416]}},{"type":"Feature","id":"osm-station-1350825377","properties":{"name":"漕河泾开发区","name_zh":"漕河泾开发区","name:nonlatin":"漕河泾开发区","name_en":"Caohejing Hi-Tech Park","class":"railway","subclass":"subway","osmType":"way","osmId":1350825377},"geometry":{"type":"Point","coordinates":[121.3930551,31.1724448]}},{"type":"Feature","id":"osm-station-1350825378","properties":{"name":"合川路","name_zh":"合川路","name:nonlatin":"合川路","name_en":"Hechuan Road","class":"railway","subclass":"subway","osmType":"way","osmId":1350825378},"geometry":{"type":"Point","coordinates":[121.3801556,31.1684275]}},{"type":"Feature","id":"osm-station-1350825379","properties":{"name":"星中路","name_zh":"星中路","name:nonlatin":"星中路","name_en":"Xingzhong Road","class":"railway","subclass":"subway","osmType":"way","osmId":1350825379},"geometry":{"type":"Point","coordinates":[121.3640688,31.1599995]}},{"type":"Feature","id":"osm-station-1350825380","properties":{"name":"七宝","name_zh":"七宝","name:nonlatin":"七宝","name_en":"Qibao","class":"railway","subclass":"subway","osmType":"way","osmId":1350825380},"geometry":{"type":"Point","coordinates":[121.3450601,31.1574038]}},{"type":"Feature","id":"osm-station-1354602377","properties":{"name":"长江西路","name_zh":"长江西路","name:nonlatin":"长江西路","name_en":"","class":"railway","subclass":"subway","osmType":"way","osmId":1354602377},"geometry":{"type":"Point","coordinates":[121.4705382,31.3481133]}},{"type":"Feature","id":"osm-station-1354602378","properties":{"name":"通南路","name_zh":"通南路","name:nonlatin":"通南路","name_en":"","class":"railway","subclass":"subway","osmType":"way","osmId":1354602378},"geometry":{"type":"Point","coordinates":[121.4752177,31.3395488]}},{"type":"Feature","id":"osm-station-1354602380","properties":{"name":"爱辉路","name_zh":"爱辉路","name:nonlatin":"爱辉路","name_en":"","class":"railway","subclass":"subway","osmType":"way","osmId":1354602380},"geometry":{"type":"Point","coordinates":[121.4446366,31.34601]}},{"type":"Feature","id":"osm-station-1354602382","properties":{"name":"康文路","name_zh":"康文路","name:nonlatin":"康文路","name_en":"Kangwen Road","class":"railway","subclass":"subway","osmType":"way","osmId":1354602382},"geometry":{"type":"Point","coordinates":[121.4144065,31.3372125]}},{"type":"Feature","id":"osm-station-1354660046","properties":{"name":"七莘路","name_zh":"七莘路","name:nonlatin":"七莘路","name_en":"Qixin Road","class":"railway","subclass":"subway","osmType":"way","osmId":1354660046},"geometry":{"type":"Point","coordinates":[121.3572069,31.1329965]}},{"type":"Feature","id":"osm-station-1359266588","properties":{"name":"凌兆新村","name_zh":"凌兆新村","name:nonlatin":"凌兆新村","name_en":"Lingzhao Xincun","class":"railway","subclass":"subway","osmType":"way","osmId":1359266588},"geometry":{"type":"Point","coordinates":[121.4848877,31.1430265]}},{"type":"Feature","id":"osm-station-1359488781","properties":{"name":"商城路","name_zh":"商城路","name:nonlatin":"商城路","name_en":"Shangcheng Road","class":"railway","subclass":"subway","osmType":"way","osmId":1359488781},"geometry":{"type":"Point","coordinates":[121.512502,31.2325381]}},{"type":"Feature","id":"osm-station-1359591070","properties":{"name":"提篮桥","name_zh":"提篮桥","name:nonlatin":"提篮桥","name_en":"Tilanqiao","class":"railway","subclass":"subway","osmType":"way","osmId":1359591070},"geometry":{"type":"Point","coordinates":[121.5023557,31.2554264]}},{"type":"Feature","id":"osm-station-1363229597","properties":{"name":"定边路","name_zh":"定边路","name:nonlatin":"定边路","name_en":"Dingbian Road","class":"railway","subclass":"subway","osmType":"way","osmId":1363229597},"geometry":{"type":"Point","coordinates":[121.3577078,31.2582645]}},{"type":"Feature","id":"osm-station-1383725119","properties":{"name":"嫩江路","name_zh":"嫩江路","name:nonlatin":"嫩江路","name_en":"Nenjiang Road","class":"railway","subclass":"subway","osmType":"way","osmId":1383725119},"geometry":{"type":"Point","coordinates":[121.5274809,31.316777]}},{"type":"Feature","id":"osm-station-1383725132","properties":{"name":"三门路","name_zh":"三门路","name:nonlatin":"三门路","name_en":"Sanmen Road","class":"railway","subclass":"subway","osmType":"way","osmId":1383725132},"geometry":{"type":"Point","coordinates":[121.5038915,31.3152515]}},{"type":"Feature","id":"osm-station-1383725143","properties":{"name":"上海财经大学","name_zh":"上海财经大学","name:nonlatin":"上海财经大学","name_en":"Shanghai University of Finance and Economics","class":"railway","subclass":"subway","osmType":"way","osmId":1383725143},"geometry":{"type":"Point","coordinates":[121.4918856,31.3105857]}},{"type":"Feature","id":"osm-station-1383725162","properties":{"name":"延长路","name_zh":"延长路","name:nonlatin":"延长路","name_en":"Yanchang Road","class":"railway","subclass":"subway","osmType":"way","osmId":1383725162},"geometry":{"type":"Point","coordinates":[121.4506814,31.2733596]}},{"type":"Feature","id":"osm-station-1383725164","properties":{"name":"上海马戏城","name_zh":"上海马戏城","name:nonlatin":"上海马戏城","name_en":"Shanghai Circus World","class":"railway","subclass":"subway","osmType":"way","osmId":1383725164},"geometry":{"type":"Point","coordinates":[121.4473028,31.2817822]}},{"type":"Feature","id":"osm-station-1383748444","properties":{"name":"真华路","name_zh":"真华路","name:nonlatin":"真华路","name_en":"","class":"railway","subclass":"subway","osmType":"way","osmId":1383748444},"geometry":{"type":"Point","coordinates":[121.407574,31.2636642]}},{"type":"Feature","id":"osm-station-1383748455","properties":{"name":"金昌路","name_zh":"金昌路","name:nonlatin":"金昌路","name_en":"","class":"railway","subclass":"subway","osmType":"way","osmId":1383748455},"geometry":{"type":"Point","coordinates":[121.3830592,31.2684172]}},{"type":"Feature","id":"osm-station-1383762152","properties":{"name":"李子园","name_zh":"李子园","name:nonlatin":"李子园","name_en":"Liziyuan","class":"railway","subclass":"subway","osmType":"way","osmId":1383762152},"geometry":{"type":"Point","coordinates":[121.3852558,31.2707095]}},{"type":"Feature","id":"osm-station-1394177940","properties":{"name":"杨高北路","name_zh":"杨高北路","name:nonlatin":"杨高北路","name_en":"North Yanggao Road","class":"railway","subclass":"subway","osmType":"way","osmId":1394177940},"geometry":{"type":"Point","coordinates":[121.6005286,31.2833827]}},{"type":"Feature","id":"osm-station-1394177943","properties":{"name":"佳林路","name_zh":"佳林路","name:nonlatin":"佳林路","name_en":"Jialin Road","class":"railway","subclass":"subway","osmType":"way","osmId":1394177943},"geometry":{"type":"Point","coordinates":[121.6005196,31.2742661]}},{"type":"Feature","id":"osm-station-1394177953","properties":{"name":"云桥路","name_zh":"云桥路","name:nonlatin":"云桥路","name_en":"Yunqiao Road","class":"railway","subclass":"subway","osmType":"way","osmId":1394177953},"geometry":{"type":"Point","coordinates":[121.61017,31.2526296]}},{"type":"Feature","id":"osm-station-1475449217","properties":{"name":"上海体育场（在建）","name_zh":"上海体育场（在建）","name:nonlatin":"上海体育场（在建）","name_en":"","class":"railway","subclass":"subway","osmType":"way","osmId":1475449217},"geometry":{"type":"Point","coordinates":[121.4389472,31.1848709]}},{"type":"Feature","id":"osm-station-1475449218","properties":{"name":"龙漕路（在建）","name_zh":"龙漕路（在建）","name:nonlatin":"龙漕路（在建）","name_en":"","class":"railway","subclass":"subway","osmType":"way","osmId":1475449218},"geometry":{"type":"Point","coordinates":[121.4403598,31.1709779]}},{"type":"Feature","id":"osm-station-1475449219","properties":{"name":"龙启路（在建）","name_zh":"龙启路（在建）","name:nonlatin":"龙启路（在建）","name_en":"","class":"railway","subclass":"subway","osmType":"way","osmId":1475449219},"geometry":{"type":"Point","coordinates":[121.4440206,31.1621448]}},{"type":"Feature","id":"osm-station-1475449220","properties":{"name":"上海植物园（在建）","name_zh":"上海植物园（在建）","name:nonlatin":"上海植物园（在建）","name_en":"","class":"railway","subclass":"subway","osmType":"way","osmId":1475449220},"geometry":{"type":"Point","coordinates":[121.4454961,31.152406]}},{"type":"Feature","id":"osm-station-1475449221","properties":{"name":"龙吴路（在建）","name_zh":"龙吴路（在建）","name:nonlatin":"龙吴路（在建）","name_en":"","class":"railway","subclass":"subway","osmType":"way","osmId":1475449221},"geometry":{"type":"Point","coordinates":[121.4478474,31.1387452]}},{"type":"Feature","id":"osm-station-1475449222","properties":{"name":"徐浦大桥（在建）","name_zh":"徐浦大桥（在建）","name:nonlatin":"徐浦大桥（在建）","name_en":"","class":"railway","subclass":"subway","osmType":"way","osmId":1475449222},"geometry":{"type":"Point","coordinates":[121.4519234,31.1295622]}},{"type":"Feature","id":"osm-station-19631195","properties":{"name":"莲溪路","name_zh":"莲溪路","name:nonlatin":"莲溪路","name_en":"Lianxi Road","class":"railway","subclass":"subway","osmType":"relation","osmId":19631195},"geometry":{"type":"Point","coordinates":[121.5620774,31.1717968]}}]}
